{
"type": "FeatureCollection",
"name": "aland",
"crs": { "type": "name", "properties": { "name": "urn:ogc:def:crs:OGC:1.3:CRS84" } },
"features": [
{ "type": "Feature", "properties": { }, "geometry": { "type": "Polygon", "coordinates": [ [ [ 19.6346846, 60.2921906 ], [ 19.6396387, 60.2875034 ], [ 19.6425556, 60.2865858 ], [ 19.6436083, 60.2850066 ], [ 19.6451888, 60.2844043 ], [ 19.647586, 60.2851572 ], [ 19.6476303, 60.2864983 ], [ 19.652705, 60.2884383 ], [ 19.6549945, 60.2883196 ], [ 19.655451, 60.2892947 ], [ 19.6576253, 60.2902111 ], [ 19.6587136, 60.2890387 ], [ 19.6622298, 60.2883517 ], [ 19.6587136, 60.2862482 ], [ 19.6558228, 60.2866817 ], [ 19.6493255, 60.2838612 ], [ 19.6516201, 60.2792599 ], [ 19.6532355, 60.2777212 ], [ 19.6568701, 60.2798774 ], [ 19.6567882, 60.2775753 ], [ 19.6575323, 60.2774526 ], [ 19.6576398, 60.2790518 ], [ 19.6587563, 60.2793482 ], [ 19.6593773, 60.2752084 ], [ 19.66121, 60.2739767 ], [ 19.6609181, 60.2718892 ], [ 19.6617217, 60.2707753 ], [ 19.660703, 60.2684826 ], [ 19.6613185, 60.2677391 ], [ 19.6603339, 60.2675164 ], [ 19.6604097, 60.2666433 ], [ 19.6619466, 60.2643085 ], [ 19.6659458, 60.2622318 ], [ 19.6652725, 60.2600324 ], [ 19.6657551, 60.2584153 ], [ 19.6631328, 60.2573212 ], [ 19.6624482, 60.2560938 ], [ 19.6632528, 60.2549893 ], [ 19.6611038, 60.2547367 ], [ 19.6601629, 60.2536319 ], [ 19.6596855, 60.24992 ], [ 19.6582264, 60.2492825 ], [ 19.6585858, 60.2478304 ], [ 19.6610427, 60.2446703 ], [ 19.6676167, 60.2404421 ], [ 19.6668667, 60.2396921 ], [ 19.6683667, 60.2396921 ], [ 19.6696167, 60.2386921 ], [ 19.6706167, 60.2341921 ], [ 19.6720528, 60.2325162 ], [ 19.6815728, 60.2293915 ], [ 19.6831151, 60.2269488 ], [ 19.6849751, 60.2285771 ], [ 19.6898089, 60.2281886 ], [ 19.6899916, 60.2250332 ], [ 19.689204, 60.2243216 ], [ 19.6917759, 60.2215039 ], [ 19.6914116, 60.2207503 ], [ 19.6934522, 60.2199715 ], [ 19.6941117, 60.2188381 ], [ 19.6932254, 60.2169269 ], [ 19.6941804, 60.2145437 ], [ 19.6958318, 60.2132882 ], [ 19.691205, 60.2103427 ], [ 19.6909264, 60.2081102 ], [ 19.6897213, 60.2072548 ], [ 19.6902501, 60.2060072 ], [ 19.6877035, 60.2060383 ], [ 19.6873161, 60.2046363 ], [ 19.6882664, 60.2030405 ], [ 19.6871594, 60.2012089 ], [ 19.6885385, 60.1971671 ], [ 19.6894878, 60.1963707 ], [ 19.6890131, 60.1959245 ], [ 19.6909957, 60.1943007 ], [ 19.6986301, 60.1971676 ], [ 19.6946663, 60.1917813 ], [ 19.6947157, 60.190534 ], [ 19.6933197, 60.189582 ], [ 19.6935296, 60.1856996 ], [ 19.7006974, 60.1804505 ], [ 19.7001824, 60.1795 ], [ 19.7006856, 60.1785427 ], [ 19.703986, 60.1765107 ], [ 19.704194, 60.1744237 ], [ 19.7030654, 60.1737591 ], [ 19.7015998, 60.1741753 ], [ 19.703, 60.1714787 ], [ 19.7004029, 60.169252 ], [ 19.7032319, 60.1636485 ], [ 19.7050194, 60.1621497 ], [ 19.7040726, 60.1619427 ], [ 19.7067155, 60.1615407 ], [ 19.7080332, 60.1601163 ], [ 19.7089319, 60.1601864 ], [ 19.7124257, 60.1563783 ], [ 19.7115614, 60.1549216 ], [ 19.7083137, 60.1555217 ], [ 19.7081485, 60.1546451 ], [ 19.7070394, 60.1544284 ], [ 19.7074931, 60.1540275 ], [ 19.7068381, 60.1545482 ], [ 19.7055597, 60.1540061 ], [ 19.7056056, 60.1531045 ], [ 19.7095545, 60.150413 ], [ 19.7125816, 60.1517437 ], [ 19.7160256, 60.1514082 ], [ 19.7169493, 60.1501584 ], [ 19.7163757, 60.14998 ], [ 19.7191759, 60.1482493 ], [ 19.7166748, 60.146008 ], [ 19.7163781, 60.1439217 ], [ 19.714288, 60.1432572 ], [ 19.7152175, 60.1422918 ], [ 19.7147253, 60.1406285 ], [ 19.7175, 60.13975 ], [ 19.7182909, 60.1366059 ], [ 19.7214192, 60.136446 ], [ 19.7206628, 60.1367265 ], [ 19.7212485, 60.1377423 ], [ 19.7243857, 60.139929 ], [ 19.7255358, 60.1398089 ], [ 19.7266763, 60.1383798 ], [ 19.72831, 60.13825 ], [ 19.7260322, 60.1369038 ], [ 19.7274246, 60.1340914 ], [ 19.7256149, 60.134648 ], [ 19.7252573, 60.1335732 ], [ 19.7267, 60.1313085 ], [ 19.7278029, 60.1330237 ], [ 19.7292298, 60.1313157 ], [ 19.7312093, 60.1312142 ], [ 19.7325531, 60.1292518 ], [ 19.7298601, 60.1282533 ], [ 19.7296697, 60.1259614 ], [ 19.7279853, 60.1255646 ], [ 19.7270118, 60.1242627 ], [ 19.7312897, 60.1212517 ], [ 19.7317214, 60.119861 ], [ 19.7337526, 60.1197166 ], [ 19.7331214, 60.1194865 ], [ 19.7343892, 60.1178222 ], [ 19.732655, 60.1174514 ], [ 19.7320472, 60.1156479 ], [ 19.7325206, 60.1150567 ], [ 19.7374967, 60.1117204 ], [ 19.738993, 60.1097839 ], [ 19.7416759, 60.1096994 ], [ 19.7451179, 60.1049582 ], [ 19.7483338, 60.1033059 ], [ 19.7516075, 60.1033045 ], [ 19.7510871, 60.1027056 ], [ 19.7537827, 60.0996171 ], [ 19.7524095, 60.0980527 ], [ 19.7493283, 60.096766 ], [ 19.7499606, 60.09571 ], [ 19.7486812, 60.0956057 ], [ 19.7512427, 60.0942751 ], [ 19.751409, 60.0931839 ], [ 19.7530505, 60.0933952 ], [ 19.7605189, 60.0915236 ], [ 19.763951, 60.0918549 ], [ 19.76781, 60.0905274 ], [ 19.7705675, 60.0910971 ], [ 19.7715491, 60.0927312 ], [ 19.7737248, 60.0929276 ], [ 19.7766501, 60.0947776 ], [ 19.7781693, 60.0924987 ], [ 19.7804429, 60.0923997 ], [ 19.7825387, 60.0935224 ], [ 19.7816692, 60.0946445 ], [ 19.7798891, 60.0948012 ], [ 19.7781676, 60.0968072 ], [ 19.7813637, 60.1002919 ], [ 19.7810834, 60.1011714 ], [ 19.7855556, 60.1044892 ], [ 19.7856788, 60.1068055 ], [ 19.7886726, 60.1079103 ], [ 19.7901478, 60.1071488 ], [ 19.7912586, 60.1081184 ], [ 19.7923842, 60.1080402 ], [ 19.7914936, 60.1069743 ], [ 19.7970127, 60.1037021 ], [ 19.7978968, 60.1013896 ], [ 19.801691, 60.1000851 ], [ 19.8007134, 60.1000089 ], [ 19.8006839, 60.0991465 ], [ 19.8018828, 60.0997923 ], [ 19.8015073, 60.1006139 ], [ 19.8038059, 60.1003739 ], [ 19.8048198, 60.0992447 ], [ 19.8054897, 60.1060865 ], [ 19.8048346, 60.1069551 ], [ 19.8031408, 60.1070417 ], [ 19.8028819, 60.1080516 ], [ 19.8035122, 60.1083323 ], [ 19.8022772, 60.1083653 ], [ 19.8020196, 60.1102611 ], [ 19.8045382, 60.1105194 ], [ 19.8042566, 60.1095134 ], [ 19.8047306, 60.1104265 ], [ 19.8057184, 60.109832 ], [ 19.8082423, 60.1108372 ], [ 19.809597, 60.1093972 ], [ 19.8141807, 60.1096471 ], [ 19.8202134, 60.1133076 ], [ 19.8212736, 60.1123278 ], [ 19.8232843, 60.1126973 ], [ 19.8236159, 60.1126853 ], [ 19.821361, 60.112174 ], [ 19.8217479, 60.1117926 ], [ 19.819659, 60.110616 ], [ 19.8191977, 60.109531 ], [ 19.8101377, 60.1085828 ], [ 19.8086889, 60.1063419 ], [ 19.8092661, 60.1011379 ], [ 19.8136134, 60.0958143 ], [ 19.8146501, 60.091912 ], [ 19.8168046, 60.0891044 ], [ 19.8181403, 60.0893174 ], [ 19.8189966, 60.0931859 ], [ 19.8199091, 60.0938837 ], [ 19.8212074, 60.0936028 ], [ 19.8243946, 60.0906098 ], [ 19.8261957, 60.0921875 ], [ 19.8285654, 60.092015 ], [ 19.8283549, 60.0926897 ], [ 19.8296624, 60.0926422 ], [ 19.8288229, 60.0930274 ], [ 19.831261, 60.0932835 ], [ 19.8351999, 60.0924156 ], [ 19.8353548, 60.0899032 ], [ 19.8343758, 60.0880538 ], [ 19.8350979, 60.087038 ], [ 19.8391481, 60.086638 ], [ 19.8400238, 60.0878388 ], [ 19.8413917, 60.0877358 ], [ 19.8416036, 60.0892552 ], [ 19.8445219, 60.0934353 ], [ 19.8461258, 60.0935744 ], [ 19.8486129, 60.0957147 ], [ 19.8495483, 60.0947328 ], [ 19.8515276, 60.096413 ], [ 19.854955, 60.0953132 ], [ 19.8565207, 60.0928963 ], [ 19.8615626, 60.0926737 ], [ 19.8608465, 60.0920699 ], [ 19.8626087, 60.0905402 ], [ 19.8666729, 60.0897504 ], [ 19.8678138, 60.0903138 ], [ 19.8684873, 60.0896295 ], [ 19.8697622, 60.0900287 ], [ 19.8701265, 60.0912685 ], [ 19.8732482, 60.0922759 ], [ 19.8751126, 60.0952811 ], [ 19.875521, 60.0989277 ], [ 19.8752184, 60.0996802 ], [ 19.8714896, 60.1008178 ], [ 19.871825, 60.1013568 ], [ 19.8626095, 60.1020716 ], [ 19.8605516, 60.1034633 ], [ 19.8611287, 60.1056597 ], [ 19.8646839, 60.1056044 ], [ 19.8637674, 60.1061254 ], [ 19.8637299, 60.1076646 ], [ 19.8625053, 60.1081062 ], [ 19.862493, 60.10971 ], [ 19.8673153, 60.1122573 ], [ 19.8661794, 60.1083477 ], [ 19.8679829, 60.1046465 ], [ 19.8727347, 60.1045202 ], [ 19.8743503, 60.105428 ], [ 19.8739899, 60.1059096 ], [ 19.87595, 60.1062786 ], [ 19.8749918, 60.1077805 ], [ 19.8768212, 60.1084633 ], [ 19.8761124, 60.1089763 ], [ 19.8764688, 60.1096236 ], [ 19.8808725, 60.1123094 ], [ 19.8814128, 60.1112892 ], [ 19.8814057, 60.1116947 ], [ 19.881988, 60.1118834 ], [ 19.8821389, 60.1083144 ], [ 19.8842265, 60.1056739 ], [ 19.886353, 60.104774 ], [ 19.887714, 60.1072108 ], [ 19.8898382, 60.1061537 ], [ 19.8878537, 60.104238 ], [ 19.8865202, 60.1041798 ], [ 19.8866444, 60.1030369 ], [ 19.8852484, 60.1014312 ], [ 19.8821915, 60.1013138 ], [ 19.8817436, 60.1004995 ], [ 19.8784475, 60.0994516 ], [ 19.8777316, 60.098551 ], [ 19.8786655, 60.0969587 ], [ 19.879449, 60.0964774 ], [ 19.8805777, 60.0974946 ], [ 19.8800886, 60.0977893 ], [ 19.88286, 60.0985471 ], [ 19.883195, 60.0969684 ], [ 19.8819832, 60.0967256 ], [ 19.882184, 60.0961864 ], [ 19.8871498, 60.0936658 ], [ 19.8901838, 60.0935792 ], [ 19.8892288, 60.0922173 ], [ 19.8947034, 60.0900997 ], [ 19.8959584, 60.0902565 ], [ 19.8965268, 60.0912563 ], [ 19.8942441, 60.0913805 ], [ 19.8948204, 60.0921789 ], [ 19.8971175, 60.0928908 ], [ 19.8974727, 60.0945079 ], [ 19.9004577, 60.0953907 ], [ 19.9018617, 60.0942363 ], [ 19.9011638, 60.0924533 ], [ 19.9058742, 60.0918765 ], [ 19.9059674, 60.0912634 ], [ 19.9063026, 60.092069 ], [ 19.9086813, 60.0924929 ], [ 19.9104303, 60.090072 ], [ 19.9137133, 60.0898215 ], [ 19.9154137, 60.088143 ], [ 19.9151674, 60.0874814 ], [ 19.9125941, 60.0864479 ], [ 19.9123569, 60.0848551 ], [ 19.9115013, 60.084496 ], [ 19.9071261, 60.083664 ], [ 19.9048619, 60.0842824 ], [ 19.9076896, 60.0860511 ], [ 19.9019251, 60.0859706 ], [ 19.9022381, 60.0854161 ], [ 19.9006667, 60.0851711 ], [ 19.9027846, 60.0827782 ], [ 19.909803, 60.0789956 ], [ 19.9151927, 60.0811752 ], [ 19.9192643, 60.0807665 ], [ 19.9217019, 60.0826998 ], [ 19.9226975, 60.0823069 ], [ 19.9235049, 60.0850987 ], [ 19.9246636, 60.0859669 ], [ 19.922778, 60.0877245 ], [ 19.9209953, 60.0875837 ], [ 19.9214706, 60.0882485 ], [ 19.9206876, 60.0888114 ], [ 19.9190154, 60.0881098 ], [ 19.9191757, 60.0870205 ], [ 19.9173219, 60.0867594 ], [ 19.9180757, 60.0894589 ], [ 19.9163338, 60.0903496 ], [ 19.9172412, 60.0916554 ], [ 19.9152189, 60.0935261 ], [ 19.9186219, 60.0934137 ], [ 19.9198742, 60.0953817 ], [ 19.9193971, 60.0961252 ], [ 19.9174427, 60.0956044 ], [ 19.9164846, 60.0963667 ], [ 19.917667, 60.1005509 ], [ 19.9189154, 60.1018783 ], [ 19.9173394, 60.1049781 ], [ 19.9186746, 60.1060311 ], [ 19.9200066, 60.1098956 ], [ 19.9190092, 60.1132371 ], [ 19.9211714, 60.1137667 ], [ 19.9191987, 60.1140207 ], [ 19.9193122, 60.1161744 ], [ 19.9211251, 60.1182296 ], [ 19.9233738, 60.1185064 ], [ 19.9255936, 60.1167102 ], [ 19.9253736, 60.1157053 ], [ 19.9239933, 60.1154287 ], [ 19.9240271, 60.1143503 ], [ 19.9212489, 60.1139421 ], [ 19.924076, 60.1139681 ], [ 19.9238259, 60.1124644 ], [ 19.9228748, 60.1119743 ], [ 19.9254742, 60.1119477 ], [ 19.9231219, 60.1116046 ], [ 19.9238856, 60.1104045 ], [ 19.9231707, 60.1103 ], [ 19.9263233, 60.109537 ], [ 19.9267604, 60.1083772 ], [ 19.924451, 60.1076981 ], [ 19.9240791, 60.106189 ], [ 19.9247063, 60.1054685 ], [ 19.9228524, 60.1021134 ], [ 19.9238389, 60.0993491 ], [ 19.9261817, 60.0965614 ], [ 19.9269949, 60.0943882 ], [ 19.9265291, 60.0940438 ], [ 19.9270904, 60.0940808 ], [ 19.9274766, 60.0923193 ], [ 19.9282344, 60.0922783 ], [ 19.9281403, 60.0911256 ], [ 19.93113, 60.08874 ], [ 19.9306217, 60.086933 ], [ 19.9339552, 60.0828978 ], [ 19.9343098, 60.081403 ], [ 19.9361567, 60.0803759 ], [ 19.9336976, 60.0796543 ], [ 19.934376, 60.078016 ], [ 19.938442, 60.0736883 ], [ 19.9426633, 60.0721776 ], [ 19.9438476, 60.0737164 ], [ 19.9454758, 60.0723443 ], [ 19.9447798, 60.0740898 ], [ 19.9468544, 60.0739639 ], [ 19.949273, 60.0706538 ], [ 19.9532201, 60.0680156 ], [ 19.9521478, 60.0670159 ], [ 19.9495705, 60.0668078 ], [ 19.949342, 60.0640821 ], [ 19.9549133, 60.0611126 ], [ 19.9581245, 60.0607344 ], [ 19.957937, 60.0619129 ], [ 19.9589285, 60.0624562 ], [ 19.9592125, 60.0607786 ], [ 19.9585092, 60.060668 ], [ 19.9591841, 60.0604874 ], [ 19.959206, 60.0590607 ], [ 19.9571821, 60.0590106 ], [ 19.959614, 60.0588354 ], [ 19.9589176, 60.05827 ], [ 19.9616349, 60.0570827 ], [ 19.9596403, 60.0593931 ], [ 19.9605923, 60.0600127 ], [ 19.9595012, 60.0601628 ], [ 19.9594471, 60.0618499 ], [ 19.9604715, 60.0627119 ], [ 19.962203, 60.0621832 ], [ 19.9602469, 60.063093 ], [ 19.9608728, 60.0644035 ], [ 19.9627412, 60.0646597 ], [ 19.9606053, 60.0648025 ], [ 19.9601365, 60.0657131 ], [ 19.9620175, 60.0653399 ], [ 19.9639881, 60.0663087 ], [ 19.9632063, 60.067603 ], [ 19.9643115, 60.0697893 ], [ 19.9631372, 60.0707473 ], [ 19.9629366, 60.0740903 ], [ 19.9616674, 60.0758676 ], [ 19.9621783, 60.0765681 ], [ 19.9610601, 60.0775494 ], [ 19.9613758, 60.0785902 ], [ 19.9630997, 60.0796071 ], [ 19.9624906, 60.0810041 ], [ 19.961756, 60.0809227 ], [ 19.9630963, 60.0810967 ], [ 19.9617961, 60.0814978 ], [ 19.9629526, 60.0815955 ], [ 19.9631269, 60.0820906 ], [ 19.9620424, 60.0821609 ], [ 19.9640818, 60.0833104 ], [ 19.9640402, 60.084972 ], [ 19.9657373, 60.0858575 ], [ 19.9618007, 60.0857268 ], [ 19.9626522, 60.0860612 ], [ 19.9613282, 60.0860457 ], [ 19.9602612, 60.0876039 ], [ 19.9577372, 60.0887458 ], [ 19.9581669, 60.0893254 ], [ 19.9577979, 60.0898888 ], [ 19.9574192, 60.0891498 ], [ 19.9560942, 60.0901531 ], [ 19.9576077, 60.0900541 ], [ 19.954468, 60.0910341 ], [ 19.9526146, 60.0948408 ], [ 19.9504908, 60.0942955 ], [ 19.9493874, 60.0948728 ], [ 19.9472672, 60.0985057 ], [ 19.9480377, 60.0988254 ], [ 19.94682, 60.0985097 ], [ 19.9456388, 60.1009667 ], [ 19.9454172, 60.104122 ], [ 19.9459741, 60.1043003 ], [ 19.945125, 60.1080138 ], [ 19.9459549, 60.1085588 ], [ 19.9439342, 60.1108137 ], [ 19.9452386, 60.1119309 ], [ 19.9480941, 60.1124005 ], [ 19.951063, 60.111482 ], [ 19.9525739, 60.1114708 ], [ 19.9514302, 60.1116079 ], [ 19.9525983, 60.1118887 ], [ 19.9516614, 60.1123234 ], [ 19.953001, 60.1119509 ], [ 19.9526691, 60.1111759 ], [ 19.9535799, 60.1117587 ], [ 19.9518265, 60.1124731 ], [ 19.9521287, 60.113199 ], [ 19.9576837, 60.1145167 ], [ 19.9623006, 60.1131733 ], [ 19.967058, 60.1126121 ], [ 19.9654829, 60.1133666 ], [ 19.9667749, 60.113369 ], [ 19.9661388, 60.1140666 ], [ 19.9670814, 60.1149082 ], [ 19.969599, 60.1150078 ], [ 19.9726255, 60.1131274 ], [ 19.9719932, 60.1130001 ], [ 19.9787933, 60.1063144 ], [ 19.9791386, 60.1050822 ], [ 19.9806225, 60.1051287 ], [ 19.9799694, 60.1047905 ], [ 19.9808746, 60.1044512 ], [ 19.9809471, 60.1030238 ], [ 19.9795215, 60.1016186 ], [ 19.9817756, 60.0953272 ], [ 19.9810367, 60.0926864 ], [ 19.9877005, 60.0909669 ], [ 19.9900963, 60.0928564 ], [ 19.9901634, 60.0939168 ], [ 19.9924176, 60.0963066 ], [ 19.9908877, 60.1025039 ], [ 19.9876944, 60.1078729 ], [ 19.9878154, 60.1097946 ], [ 19.9888395, 60.1100518 ], [ 19.9897434, 60.109231 ], [ 19.9906544, 60.1092742 ], [ 19.989637, 60.1107085 ], [ 19.9934177, 60.1100714 ], [ 19.9978501, 60.1046059 ], [ 19.9972646, 60.1044207 ], [ 19.9977404, 60.1035599 ], [ 20.0006703, 60.1016634 ], [ 20.0013484, 60.1026614 ], [ 20.000872, 60.1052124 ], [ 20.0041388, 60.105762 ], [ 20.0037056, 60.1043079 ], [ 20.0094274, 60.0988778 ], [ 20.0124726, 60.0972107 ], [ 20.0121123, 60.0967237 ], [ 20.0187039, 60.0970816 ], [ 20.0165684, 60.0979433 ], [ 20.0159331, 60.100177 ], [ 20.0150426, 60.100643 ], [ 20.0157702, 60.100779 ], [ 20.0149336, 60.1013109 ], [ 20.0196109, 60.1032055 ], [ 20.0213966, 60.1022294 ], [ 20.0244288, 60.1026935 ], [ 20.0257861, 60.102154 ], [ 20.0303236, 60.0976536 ], [ 20.0293355, 60.1021136 ], [ 20.0332146, 60.1039329 ], [ 20.0391655, 60.0983183 ], [ 20.0381884, 60.1046245 ], [ 20.0404296, 60.1046127 ], [ 20.0419541, 60.1027416 ], [ 20.0431223, 60.1024574 ], [ 20.0425644, 60.1047437 ], [ 20.0446174, 60.1055211 ], [ 20.0460564, 60.1081177 ], [ 20.0459678, 60.109136 ], [ 20.043057, 60.1113451 ], [ 20.0427993, 60.1131038 ], [ 20.0468793, 60.1142284 ], [ 20.0482408, 60.1137421 ], [ 20.0477149, 60.1152822 ], [ 20.0464575, 60.1153702 ], [ 20.0490349, 60.1167264 ], [ 20.0511244, 60.1198387 ], [ 20.0487319, 60.1229005 ], [ 20.044324, 60.1225944 ], [ 20.0451333, 60.1255543 ], [ 20.0439213, 60.1259477 ], [ 20.0439186, 60.1266782 ], [ 20.0396707, 60.1272864 ], [ 20.0388023, 60.1285679 ], [ 20.0314772, 60.1293503 ], [ 20.0275, 60.12775 ], [ 20.025299, 60.1255758 ], [ 20.0222692, 60.1248953 ], [ 20.0235479, 60.1294115 ], [ 20.0232019, 60.1307864 ], [ 20.0192437, 60.1340258 ], [ 20.019414, 60.1361866 ], [ 20.0202548, 60.1370901 ], [ 20.0198793, 60.1405693 ], [ 20.0209562, 60.1450112 ], [ 20.0185722, 60.1492644 ], [ 20.0223657, 60.1484199 ], [ 20.023959, 60.1492022 ], [ 20.025968, 60.1486869 ], [ 20.0280802, 60.1462743 ], [ 20.0300878, 60.1466241 ], [ 20.0322095, 60.1478958 ], [ 20.0325055, 60.1492191 ], [ 20.0342104, 60.1493377 ], [ 20.0336498, 60.1512267 ], [ 20.0347307, 60.1521592 ], [ 20.0341205, 60.1524435 ], [ 20.0359552, 60.1550465 ], [ 20.0359592, 60.156368 ], [ 20.0396606, 60.1577381 ], [ 20.0404412, 60.1596914 ], [ 20.0399651, 60.1644189 ], [ 20.0367739, 60.1654369 ], [ 20.0283289, 60.1647798 ], [ 20.0270081, 60.1665093 ], [ 20.0276028, 60.1675048 ], [ 20.0297011, 60.167977 ], [ 20.0352987, 60.1674394 ], [ 20.0388117, 60.1661917 ], [ 20.039438, 60.1668932 ], [ 20.0394199, 60.1682629 ], [ 20.0369348, 60.1693199 ], [ 20.0375088, 60.1693923 ], [ 20.037362, 60.1714273 ], [ 20.0380406, 60.1709877 ], [ 20.0384637, 60.1724706 ], [ 20.0368644, 60.1726487 ], [ 20.0342984, 60.1774157 ], [ 20.0355739, 60.1784975 ], [ 20.0388203, 60.1772919 ], [ 20.0401023, 60.177449 ], [ 20.0392457, 60.177966 ], [ 20.0405449, 60.1782345 ], [ 20.0410389, 60.1823056 ], [ 20.0417693, 60.1838491 ], [ 20.0429793, 60.1842875 ], [ 20.0445656, 60.1884704 ], [ 20.044086, 60.19072 ], [ 20.0397963, 60.1909398 ], [ 20.0387227, 60.1921657 ], [ 20.0357793, 60.1930886 ], [ 20.0299034, 60.1909158 ], [ 20.0294459, 60.189914 ], [ 20.0256687, 60.190673 ], [ 20.0223953, 60.1894055 ], [ 20.0219179, 60.1881697 ], [ 20.0256753, 60.1857569 ], [ 20.023583, 60.1846126 ], [ 20.0228159, 60.1815908 ], [ 20.0218442, 60.1806499 ], [ 20.0194236, 60.1823325 ], [ 20.0205362, 60.1865177 ], [ 20.0195022, 60.1875162 ], [ 20.0139572, 60.1876281 ], [ 20.0080572, 60.185557 ], [ 20.0093012, 60.1841777 ], [ 20.0089788, 60.1819654 ], [ 20.0098981, 60.1808968 ], [ 20.0071154, 60.1798824 ], [ 20.007454, 60.1787176 ], [ 20.0051495, 60.1777576 ], [ 20.0091003, 60.174509 ], [ 20.0103977, 60.1759858 ], [ 20.0142675, 60.176962 ], [ 20.0140326, 60.1762334 ], [ 20.0110017, 60.1753934 ], [ 20.0104118, 60.1736183 ], [ 20.0118582, 60.1714974 ], [ 20.0114414, 60.1697475 ], [ 20.0132629, 60.1676657 ], [ 20.0063823, 60.1659119 ], [ 20.0050401, 60.1663587 ], [ 20.0048759, 60.1673699 ], [ 20.0057208, 60.1675404 ], [ 20.0051173, 60.1680544 ], [ 20.0063228, 60.1693103 ], [ 20.004922, 60.1733911 ], [ 19.9998526, 60.1764833 ], [ 19.9987851, 60.1792098 ], [ 19.9960265, 60.1797953 ], [ 19.9912038, 60.1777826 ], [ 19.9900854, 60.1780593 ], [ 19.9931364, 60.1822795 ], [ 19.9887436, 60.1904084 ], [ 19.9815435, 60.1926618 ], [ 19.9759406, 60.1916669 ], [ 19.9729156, 60.1933927 ], [ 19.9735892, 60.1945647 ], [ 19.9725625, 60.1985383 ], [ 19.9687403, 60.1983354 ], [ 19.9686749, 60.1972235 ], [ 19.9708251, 60.1944388 ], [ 19.969919, 60.1934576 ], [ 19.9678958, 60.1936449 ], [ 19.9642517, 60.1989942 ], [ 19.9621155, 60.2001687 ], [ 19.9638778, 60.2017853 ], [ 19.9658875, 60.2016427 ], [ 19.9666619, 60.2029633 ], [ 19.9664067, 60.2043844 ], [ 19.9720824, 60.2040608 ], [ 19.9738513, 60.2022343 ], [ 19.9761806, 60.1963416 ], [ 19.9782668, 60.194835 ], [ 19.9777633, 60.194468 ], [ 19.9790266, 60.1945913 ], [ 19.9787664, 60.196969 ], [ 19.9796488, 60.1976085 ], [ 19.9790544, 60.198853 ], [ 19.9795894, 60.1994808 ], [ 19.9830891, 60.1975051 ], [ 19.9836389, 60.1989342 ], [ 19.9825318, 60.1997947 ], [ 19.9848575, 60.1990118 ], [ 19.9848028, 60.1961278 ], [ 19.987473, 60.1926915 ], [ 19.9898716, 60.192739 ], [ 19.989274, 60.1911704 ], [ 19.9914575, 60.190621 ], [ 19.9921989, 60.1887629 ], [ 19.9937583, 60.1881533 ], [ 19.9933051, 60.1877535 ], [ 19.9947445, 60.1875989 ], [ 19.9951488, 60.1864592 ], [ 19.9974146, 60.1852929 ], [ 19.9964949, 60.1848445 ], [ 19.9973924, 60.183243 ], [ 20.0000224, 60.1828719 ], [ 19.9988184, 60.1822909 ], [ 20.0008576, 60.181816 ], [ 20.0018528, 60.1805192 ], [ 20.0013552, 60.1801525 ], [ 20.0021993, 60.1801282 ], [ 20.0014085, 60.1831723 ], [ 20.0017995, 60.1844226 ], [ 20.00331, 60.1849218 ], [ 20.0044962, 60.1871439 ], [ 20.0095274, 60.1916661 ], [ 20.0131745, 60.1927847 ], [ 20.0127836, 60.19405 ], [ 20.0133354, 60.1941737 ], [ 20.0119809, 60.1954005 ], [ 20.0067016, 60.1949926 ], [ 20.0054558, 60.1955712 ], [ 20.0049274, 60.1982547 ], [ 20.0058688, 60.1991359 ], [ 20.0058688, 60.1995118 ], [ 20.0045364, 60.1994905 ], [ 20.0080145, 60.2020597 ], [ 20.0057972, 60.2018076 ], [ 20.0040141, 60.203112 ], [ 20.0048147, 60.2034189 ], [ 20.0038489, 60.2035922 ], [ 20.0043236, 60.2043226 ], [ 20.0009672, 60.204808 ], [ 20.0004686, 60.2072303 ], [ 20.0022304, 60.208527 ], [ 20.0033784, 60.21154 ], [ 20.0053766, 60.2113667 ], [ 20.0092739, 60.2134821 ], [ 20.0113365, 60.2136849 ], [ 20.011938, 60.2147225 ], [ 20.0102985, 60.2160436 ], [ 20.0131752, 60.2166398 ], [ 20.011881, 60.2151656 ], [ 20.0160243, 60.2164513 ], [ 20.0156341, 60.2173496 ], [ 20.0165, 60.219 ], [ 20.0155261, 60.2203787 ], [ 20.0165, 60.2225 ], [ 20.0153708, 60.2274708 ], [ 20.0203906, 60.2311087 ], [ 20.02, 60.23375 ], [ 20.0180045, 60.2359639 ], [ 20.009907, 60.2396669 ], [ 20.0069701, 60.2400901 ], [ 20.007987, 60.2408972 ], [ 20.0066936, 60.2405223 ], [ 20.0006722, 60.2421766 ], [ 20.0006499, 60.2445095 ], [ 19.9985346, 60.2465841 ], [ 19.999194, 60.2502578 ], [ 19.9971778, 60.2533115 ], [ 19.9928263, 60.2563194 ], [ 19.9919672, 60.2596335 ], [ 19.9887779, 60.2634449 ], [ 19.9816316, 60.265251 ], [ 19.9794067, 60.2666111 ], [ 19.976, 60.2665 ], [ 19.97375, 60.26825 ], [ 19.97325, 60.2715 ], [ 19.97475, 60.27825 ], [ 19.9735, 60.28025 ], [ 19.972, 60.28025 ], [ 19.97, 60.2815 ], [ 19.9685, 60.28325 ], [ 19.9695, 60.2845 ], [ 19.96775, 60.2855 ], [ 19.967, 60.28725 ], [ 19.96875, 60.28975 ], [ 19.97225, 60.29 ], [ 19.9714287, 60.2940547 ], [ 19.9719443, 60.2946144 ], [ 19.9711906, 60.2947146 ], [ 19.9725981, 60.2948556 ], [ 19.971285, 60.2950875 ], [ 19.9725645, 60.2949895 ], [ 19.9716184, 60.2954485 ], [ 19.9725921, 60.2972161 ], [ 19.9746242, 60.2978765 ], [ 19.9751779, 60.2991356 ], [ 19.9780865, 60.3001404 ], [ 19.9792263, 60.301747 ], [ 19.9809821, 60.3009931 ], [ 19.9803751, 60.300401 ], [ 19.9818014, 60.2997777 ], [ 19.9810986, 60.2995452 ], [ 19.9825948, 60.2977095 ], [ 19.98275, 60.29175 ], [ 19.98175, 60.2905 ], [ 19.97825, 60.2895 ], [ 19.975, 60.29 ], [ 19.97475, 60.28925 ], [ 19.97225, 60.28875 ], [ 19.97075, 60.28625 ], [ 19.97275, 60.28375 ], [ 19.97675, 60.28175 ], [ 19.979, 60.2785 ], [ 19.9833631, 60.2752544 ], [ 19.984972, 60.2696633 ], [ 19.9939464, 60.2653638 ], [ 19.9939293, 60.2646982 ], [ 19.9965149, 60.264745 ], [ 19.9991284, 60.2636199 ], [ 20.0004169, 60.2615106 ], [ 20.0021945, 60.2615781 ], [ 20.0017011, 60.2612751 ], [ 20.0048323, 60.2575963 ], [ 20.0016546, 60.2565387 ], [ 20.0030782, 60.2553705 ], [ 20.0056343, 60.2557364 ], [ 20.0058348, 60.2574459 ], [ 20.0098672, 60.2549811 ], [ 20.0105725, 60.2550452 ], [ 20.0103803, 60.2560502 ], [ 20.0128464, 60.2555102 ], [ 20.0129879, 60.2543732 ], [ 20.0149852, 60.25358 ], [ 20.0152703, 60.2562474 ], [ 20.0195, 60.2605 ], [ 20.017733, 60.2633297 ], [ 20.0150518, 60.2641507 ], [ 20.0148876, 60.2652574 ], [ 20.01925, 60.271 ], [ 20.02325, 60.2725 ], [ 20.026126, 60.2754108 ], [ 20.02725, 60.2785 ], [ 20.0261165, 60.2783954 ], [ 20.0256185, 60.2795709 ], [ 20.0232827, 60.2805845 ], [ 20.0200397, 60.2810706 ], [ 20.0189833, 60.2808938 ], [ 20.0179178, 60.2788212 ], [ 20.0160985, 60.2777826 ], [ 20.0155098, 60.2798659 ], [ 20.0165516, 60.2838508 ], [ 20.0187582, 60.2837394 ], [ 20.02325, 60.2815 ], [ 20.0257425, 60.281208 ], [ 20.0285, 60.28425 ], [ 20.029, 60.286 ], [ 20.031, 60.28575 ], [ 20.0315, 60.2865 ], [ 20.0305, 60.28775 ], [ 20.0315, 60.28975 ], [ 20.03575, 60.29 ], [ 20.03725, 60.291 ], [ 20.03675, 60.292 ], [ 20.038, 60.29325 ], [ 20.04275, 60.2955 ], [ 20.044, 60.297 ], [ 20.0435, 60.298 ], [ 20.0415, 60.29725 ], [ 20.03825, 60.2975 ], [ 20.033, 60.29575 ], [ 20.0315, 60.2935 ], [ 20.03025, 60.29425 ], [ 20.03025, 60.29575 ], [ 20.0315, 60.297 ], [ 20.031, 60.2975 ], [ 20.03375, 60.297 ], [ 20.04075, 60.2995 ], [ 20.04175, 60.301 ], [ 20.04025, 60.3025 ], [ 20.0405, 60.3045 ], [ 20.0395, 60.30475 ], [ 20.0395, 60.3055 ], [ 20.0313148, 60.3049766 ], [ 20.0286102, 60.3077335 ], [ 20.029806, 60.3099895 ], [ 20.0322173, 60.3107213 ], [ 20.0336198, 60.3124327 ], [ 20.03325, 60.3145 ], [ 20.0321617, 60.3149397 ], [ 20.033, 60.3175 ], [ 20.03525, 60.318 ], [ 20.03625, 60.31675 ], [ 20.04075, 60.31775 ], [ 20.04225, 60.31475 ], [ 20.04325, 60.31525 ], [ 20.04275, 60.316 ], [ 20.044, 60.31725 ], [ 20.04425, 60.316 ], [ 20.0455, 60.31625 ], [ 20.04775, 60.315 ], [ 20.05125, 60.31175 ], [ 20.05125, 60.31 ], [ 20.0505, 60.30975 ], [ 20.052, 60.30825 ], [ 20.05175, 60.306 ], [ 20.05575, 60.30675 ], [ 20.05725, 60.306 ], [ 20.055, 60.30225 ], [ 20.056, 60.30175 ], [ 20.05475, 60.30075 ], [ 20.05325, 60.30075 ], [ 20.0525, 60.299 ], [ 20.04775, 60.29625 ], [ 20.048, 60.29475 ], [ 20.04475, 60.29325 ], [ 20.04525, 60.292 ], [ 20.04225, 60.29 ], [ 20.04, 60.28475 ], [ 20.03775, 60.285 ], [ 20.0346737, 60.2825662 ], [ 20.0398501, 60.2797259 ], [ 20.0363627, 60.2803889 ], [ 20.0357685, 60.279841 ], [ 20.0368181, 60.2788446 ], [ 20.0466266, 60.2757231 ], [ 20.0479916, 60.2745442 ], [ 20.0405506, 60.2743749 ], [ 20.0371062, 60.2763381 ], [ 20.0329132, 60.2770665 ], [ 20.0292864, 60.2751496 ], [ 20.0286073, 60.2729841 ], [ 20.0234572, 60.2698145 ], [ 20.02225, 60.268 ], [ 20.024, 60.26725 ], [ 20.02225, 60.2665 ], [ 20.022, 60.26575 ], [ 20.02275, 60.26525 ], [ 20.0215, 60.26425 ], [ 20.0229237, 60.2620386 ], [ 20.0235136, 60.2581103 ], [ 20.02025, 60.25325 ], [ 20.02, 60.24975 ], [ 20.0213183, 60.2482613 ], [ 20.0205955, 60.2474923 ], [ 20.0165, 60.24675 ], [ 20.0135912, 60.2440162 ], [ 20.0138283, 60.2431474 ], [ 20.0179871, 60.2408059 ], [ 20.0177872, 60.2396408 ], [ 20.0164705, 60.2390393 ], [ 20.0167886, 60.2383262 ], [ 20.0200992, 60.2376624 ], [ 20.0218629, 60.2387619 ], [ 20.0231429, 60.2371532 ], [ 20.0273144, 60.236665 ], [ 20.0315745, 60.238684 ], [ 20.03075, 60.243 ], [ 20.03275, 60.24375 ], [ 20.03275, 60.24475 ], [ 20.034, 60.24425 ], [ 20.0335, 60.24225 ], [ 20.03475, 60.24025 ], [ 20.0319534, 60.2377221 ], [ 20.0359581, 60.2349303 ], [ 20.0388803, 60.2314237 ], [ 20.0408525, 60.2311892 ], [ 20.0425175, 60.2298583 ], [ 20.0428983, 60.228665 ], [ 20.0460391, 60.2261411 ], [ 20.0454705, 60.2244575 ], [ 20.04775, 60.223 ], [ 20.0474769, 60.2223385 ], [ 20.0415, 60.223 ], [ 20.0409493, 60.2210793 ], [ 20.0375, 60.22 ], [ 20.03475, 60.21775 ], [ 20.0353855, 60.2155663 ], [ 20.0344574, 60.2146775 ], [ 20.031813, 60.2156357 ], [ 20.0306708, 60.2150526 ], [ 20.0306498, 60.2136778 ], [ 20.036, 60.20875 ], [ 20.04025, 60.208 ], [ 20.0449932, 60.2060012 ], [ 20.044333, 60.2050746 ], [ 20.0448748, 60.204181 ], [ 20.04175, 60.20275 ], [ 20.043211, 60.2009489 ], [ 20.0477569, 60.1995318 ], [ 20.0539675, 60.1997771 ], [ 20.0547494, 60.1984147 ], [ 20.0565526, 60.1983485 ], [ 20.0558531, 60.1973656 ], [ 20.0572432, 60.1970403 ], [ 20.0586922, 60.1990792 ], [ 20.0604699, 60.1998785 ], [ 20.058758, 60.2012657 ], [ 20.0636857, 60.2041962 ], [ 20.0665, 60.2085 ], [ 20.074, 60.21125 ], [ 20.0767827, 60.216267 ], [ 20.0826892, 60.2190361 ], [ 20.0827844, 60.2204517 ], [ 20.081963, 60.2206857 ], [ 20.0824556, 60.2224575 ], [ 20.0814442, 60.2243582 ], [ 20.0796412, 60.2255156 ], [ 20.0763203, 60.2257664 ], [ 20.0754168, 60.2275367 ], [ 20.0756136, 60.2290961 ], [ 20.0790207, 60.2336157 ], [ 20.0804837, 60.233625 ], [ 20.0818568, 60.234673 ], [ 20.0825398, 60.2344212 ], [ 20.0818424, 60.2336356 ], [ 20.0798427, 60.2331095 ], [ 20.0795428, 60.228516 ], [ 20.0824236, 60.226388 ], [ 20.087355, 60.2256503 ], [ 20.0902046, 60.2242061 ], [ 20.0865, 60.2205 ], [ 20.0871922, 60.218163 ], [ 20.0806075, 60.2144345 ], [ 20.0802977, 60.2132932 ], [ 20.0835909, 60.2097412 ], [ 20.0826574, 60.2079691 ], [ 20.0761133, 60.2078558 ], [ 20.0665139, 60.2034686 ], [ 20.0654448, 60.2012845 ], [ 20.0636023, 60.2011834 ], [ 20.0656912, 60.1994532 ], [ 20.0633117, 60.1985213 ], [ 20.0688328, 60.1946337 ], [ 20.07125, 60.1945 ], [ 20.074, 60.19025 ], [ 20.07875, 60.18775 ], [ 20.0784077, 60.1872111 ], [ 20.0794264, 60.1868722 ], [ 20.0787252, 60.186586 ], [ 20.0815175, 60.1839617 ], [ 20.0809347, 60.184938 ], [ 20.0820738, 60.1846581 ], [ 20.0830771, 60.1858419 ], [ 20.0847295, 60.1850039 ], [ 20.085054, 60.1857283 ], [ 20.085309, 60.1853562 ], [ 20.0857096, 60.1851554 ], [ 20.0861732, 60.1851224 ], [ 20.0858024, 60.1856855 ], [ 20.0865, 60.186 ], [ 20.0944376, 60.1839717 ], [ 20.09675, 60.18675 ], [ 20.1015361, 60.1864969 ], [ 20.1035, 60.189 ], [ 20.1076879, 60.1894521 ], [ 20.107, 60.19125 ], [ 20.1081737, 60.1921719 ], [ 20.1070526, 60.1929079 ], [ 20.108, 60.19475 ], [ 20.1141751, 60.1957806 ], [ 20.11625, 60.195 ], [ 20.1168825, 60.1970019 ], [ 20.12125, 60.198 ], [ 20.124, 60.19675 ], [ 20.1248654, 60.1954585 ], [ 20.1230898, 60.194184 ], [ 20.1206024, 60.1938415 ], [ 20.1233431, 60.1905483 ], [ 20.1243352, 60.1903369 ], [ 20.1237683, 60.1898161 ], [ 20.12425, 60.18925 ], [ 20.1291822, 60.1861275 ], [ 20.1290477, 60.1874401 ], [ 20.1318295, 60.1890518 ], [ 20.134578, 60.1875188 ], [ 20.1382729, 60.1880995 ], [ 20.1425, 60.1855 ], [ 20.1464145, 60.1857999 ], [ 20.1485831, 60.1813875 ], [ 20.1541812, 60.178887 ], [ 20.16, 60.178 ], [ 20.1669644, 60.1749711 ], [ 20.1708761, 60.1761942 ], [ 20.171583, 60.1757166 ], [ 20.1713915, 60.1763391 ], [ 20.1735, 60.1785 ], [ 20.1787551, 60.1778933 ], [ 20.1789428, 60.1790244 ], [ 20.182, 60.18225 ], [ 20.1815, 60.18325 ], [ 20.1833899, 60.1839139 ], [ 20.183, 60.18875 ], [ 20.1806757, 60.1915721 ], [ 20.1791043, 60.1922125 ], [ 20.18075, 60.1935 ], [ 20.1855, 60.19275 ], [ 20.18825, 60.19375 ], [ 20.1897934, 60.1931949 ], [ 20.1915587, 60.1950817 ], [ 20.18975, 60.1965 ], [ 20.1895, 60.19725 ], [ 20.19075, 60.19825 ], [ 20.1898227, 60.1999783 ], [ 20.1915, 60.201 ], [ 20.192, 60.20225 ], [ 20.1978591, 60.2024982 ], [ 20.1990908, 60.2017736 ], [ 20.2003649, 60.2024454 ], [ 20.2015, 60.20475 ], [ 20.2045, 60.20475 ], [ 20.2085444, 60.199931 ], [ 20.21325, 60.2005 ], [ 20.2138486, 60.1990417 ], [ 20.2175556, 60.196656 ], [ 20.2208666, 60.1981681 ], [ 20.2201768, 60.1986003 ], [ 20.2213685, 60.1993252 ], [ 20.2206397, 60.2008291 ], [ 20.2212468, 60.2012904 ], [ 20.2204389, 60.2016418 ], [ 20.2215294, 60.2030655 ], [ 20.2215218, 60.2044611 ], [ 20.2259513, 60.2058499 ], [ 20.2316797, 60.2033469 ], [ 20.2335, 60.20525 ], [ 20.2330498, 60.207733 ], [ 20.2341667, 60.2076807 ], [ 20.2328005, 60.2084653 ], [ 20.2349209, 60.2090088 ], [ 20.23525, 60.21 ], [ 20.2366668, 60.2103126 ], [ 20.2402438, 60.2084471 ], [ 20.2396634, 60.2116574 ], [ 20.2419839, 60.2120775 ], [ 20.2409026, 60.2135398 ], [ 20.2414314, 60.2138728 ], [ 20.2403865, 60.2140805 ], [ 20.24197, 60.2154173 ], [ 20.2423948, 60.216842 ], [ 20.2416927, 60.2174339 ], [ 20.2433759, 60.2168953 ], [ 20.2439603, 60.2187373 ], [ 20.2396722, 60.218924 ], [ 20.2398919, 60.2212213 ], [ 20.2386252, 60.2222247 ], [ 20.2392247, 60.2228442 ], [ 20.2385635, 60.2232383 ], [ 20.2383602, 60.2226099 ], [ 20.2358509, 60.2225639 ], [ 20.2343366, 60.2216819 ], [ 20.2318587, 60.2176627 ], [ 20.2303874, 60.2196088 ], [ 20.2276946, 60.2206138 ], [ 20.23125, 60.2255 ], [ 20.231, 60.22675 ], [ 20.23175, 60.227 ], [ 20.23125, 60.22875 ], [ 20.22875, 60.229 ], [ 20.22625, 60.23175 ], [ 20.22575, 60.234 ], [ 20.2235, 60.234 ], [ 20.2222038, 60.2324462 ], [ 20.2211491, 60.2324928 ], [ 20.2219388, 60.2363495 ], [ 20.2202602, 60.2374464 ], [ 20.2197658, 60.2388118 ], [ 20.2166688, 60.2399167 ], [ 20.2144805, 60.2433693 ], [ 20.213036, 60.2445696 ], [ 20.21125, 60.24475 ], [ 20.210339, 60.2463895 ], [ 20.2129555, 60.2473911 ], [ 20.215973, 60.2459149 ], [ 20.2163512, 60.2466357 ], [ 20.2145004, 60.2487568 ], [ 20.2173436, 60.2491987 ], [ 20.2247196, 60.2445305 ], [ 20.232608, 60.242366 ], [ 20.2329165, 60.2418574 ], [ 20.2308029, 60.2394624 ], [ 20.2358615, 60.2352815 ], [ 20.2359849, 60.2344666 ], [ 20.239107, 60.2347023 ], [ 20.2396434, 60.2363255 ], [ 20.2375674, 60.239497 ], [ 20.2380556, 60.240373 ], [ 20.2448362, 60.2401946 ], [ 20.2483955, 60.2420691 ], [ 20.2482909, 60.2426349 ], [ 20.2511179, 60.2427081 ], [ 20.2531725, 60.2455356 ], [ 20.2543259, 60.2498375 ], [ 20.2550071, 60.2501729 ], [ 20.2532476, 60.2528374 ], [ 20.2507049, 60.2544477 ], [ 20.2515954, 60.2565875 ], [ 20.2503991, 60.2596532 ], [ 20.2455845, 60.2622557 ], [ 20.2489749, 60.2629223 ], [ 20.2497098, 60.2658557 ], [ 20.2489132, 60.2670211 ], [ 20.250316, 60.2679496 ], [ 20.2531484, 60.2677594 ], [ 20.2542669, 60.2706259 ], [ 20.2571046, 60.2707921 ], [ 20.2589205, 60.2737329 ], [ 20.2583304, 60.2791123 ], [ 20.2630135, 60.2792891 ], [ 20.2621525, 60.280341 ], [ 20.2644378, 60.2799221 ], [ 20.2656957, 60.2802186 ], [ 20.2654222, 60.280934 ], [ 20.2671602, 60.282019 ], [ 20.2735627, 60.2828633 ], [ 20.2753651, 60.2851608 ], [ 20.2741796, 60.2858961 ], [ 20.2713257, 60.2858788 ], [ 20.2705264, 60.28728 ], [ 20.267458, 60.2880285 ], [ 20.266892, 60.2889032 ], [ 20.2637565, 60.287179 ], [ 20.2600282, 60.2868799 ], [ 20.2577832, 60.2856355 ], [ 20.2556697, 60.2857924 ], [ 20.254983, 60.2868214 ], [ 20.2556992, 60.2874023 ], [ 20.2533898, 60.287639 ], [ 20.2541167, 60.2880697 ], [ 20.2525207, 60.2884539 ], [ 20.2515954, 60.2890521 ], [ 20.2523249, 60.289427 ], [ 20.251126, 60.2899082 ], [ 20.2488944, 60.2897035 ], [ 20.2467808, 60.2913279 ], [ 20.2470383, 60.2931583 ], [ 20.246416, 60.2938335 ], [ 20.2439645, 60.2947972 ], [ 20.2425134, 60.2939492 ], [ 20.2424866, 60.2930227 ], [ 20.2378115, 60.293036 ], [ 20.2370766, 60.2943878 ], [ 20.2344936, 60.2947985 ], [ 20.2347028, 60.2971031 ], [ 20.2320313, 60.2976494 ], [ 20.2301565, 60.2971257 ], [ 20.2312857, 60.2950311 ], [ 20.2297112, 60.2942084 ], [ 20.2251837, 60.2973915 ], [ 20.2163056, 60.2970726 ], [ 20.2153426, 60.2983816 ], [ 20.2113059, 60.2995604 ], [ 20.219315, 60.3004641 ], [ 20.2193284, 60.3016853 ], [ 20.2176681, 60.3027391 ], [ 20.2145004, 60.3010767 ], [ 20.2103966, 60.3013173 ], [ 20.2058369, 60.3004362 ], [ 20.2059334, 60.3012016 ], [ 20.2099299, 60.3030939 ], [ 20.2092782, 60.3058577 ], [ 20.2098039, 60.3069405 ], [ 20.2083662, 60.307941 ], [ 20.2080551, 60.309886 ], [ 20.2049625, 60.3102115 ], [ 20.2026343, 60.3080539 ], [ 20.1999924, 60.3080486 ], [ 20.1965645, 60.3068529 ], [ 20.1948291, 60.3036865 ], [ 20.1968247, 60.3016667 ], [ 20.1962399, 60.3009146 ], [ 20.1981175, 60.3007365 ], [ 20.1971465, 60.2986554 ], [ 20.1952475, 60.2978155 ], [ 20.1940754, 60.2992348 ], [ 20.1916936, 60.298872 ], [ 20.1895854, 60.2999139 ], [ 20.1866055, 60.2982262 ], [ 20.1871017, 60.2969742 ], [ 20.1865518, 60.2963881 ], [ 20.183655, 60.2950803 ], [ 20.1831964, 60.2933896 ], [ 20.1850413, 60.2912734 ], [ 20.1843363, 60.2888594 ], [ 20.185208, 60.2875898 ], [ 20.1817319, 60.2872415 ], [ 20.1815468, 60.2846716 ], [ 20.1809809, 60.2847101 ], [ 20.1819357, 60.2845931 ], [ 20.1808977, 60.2837648 ], [ 20.1788592, 60.286392 ], [ 20.1725104, 60.2884034 ], [ 20.1723146, 60.289213 ], [ 20.1760536, 60.2890933 ], [ 20.1794144, 60.2902366 ], [ 20.1785293, 60.2911937 ], [ 20.1760456, 60.2907949 ], [ 20.1761878, 60.292075 ], [ 20.1742163, 60.2946244 ], [ 20.1780143, 60.2951879 ], [ 20.1788244, 60.2978939 ], [ 20.1818633, 60.3014701 ], [ 20.1858973, 60.3035696 ], [ 20.188837, 60.3035723 ], [ 20.191007, 60.3047336 ], [ 20.1903968, 60.3068675 ], [ 20.1913717, 60.3084047 ], [ 20.1939721, 60.3101637 ], [ 20.1932144, 60.3106831 ], [ 20.1953736, 60.3120262 ], [ 20.1968743, 60.3120262 ], [ 20.199995, 60.3163407 ], [ 20.2030849, 60.3184552 ], [ 20.2079679, 60.3192268 ], [ 20.2075911, 60.3197149 ], [ 20.2085325, 60.3207668 ], [ 20.2112308, 60.3222529 ], [ 20.2115111, 60.3234295 ], [ 20.2091239, 60.3236871 ], [ 20.2080953, 60.3247156 ], [ 20.2118585, 60.3264571 ], [ 20.2119443, 60.3276462 ], [ 20.2109586, 60.3275751 ], [ 20.2104369, 60.3265215 ], [ 20.2068669, 60.3269371 ], [ 20.2067998, 60.3287057 ], [ 20.2085741, 60.329353 ], [ 20.2090448, 60.3315457 ], [ 20.2056102, 60.3330253 ], [ 20.2052361, 60.334007 ], [ 20.2025351, 60.3341371 ], [ 20.2024037, 60.3321803 ], [ 20.1962668, 60.3322414 ], [ 20.1927423, 60.3312974 ], [ 20.1904571, 60.3296604 ], [ 20.1896055, 60.3277039 ], [ 20.187555, 60.3272903 ], [ 20.1882765, 60.3300521 ], [ 20.1928067, 60.333792 ], [ 20.1913744, 60.3337442 ], [ 20.1931715, 60.3361908 ], [ 20.1913583, 60.3380346 ], [ 20.1927611, 60.3394442 ], [ 20.1922703, 60.3405153 ], [ 20.1939091, 60.3425606 ], [ 20.1932198, 60.344396 ], [ 20.1908407, 60.3457815 ], [ 20.1807073, 60.3463721 ], [ 20.1767349, 60.3473647 ], [ 20.1736217, 60.3460341 ], [ 20.1775112, 60.3435803 ], [ 20.1782457, 60.3416387 ], [ 20.179069, 60.3410825 ], [ 20.1807401, 60.3389846 ], [ 20.1777675, 60.3378819 ], [ 20.1768395, 60.3382602 ], [ 20.1734097, 60.3363961 ], [ 20.1716843, 60.3325533 ], [ 20.1698229, 60.3318112 ], [ 20.1678441, 60.3340856 ], [ 20.1689056, 60.3348394 ], [ 20.1688573, 60.3361549 ], [ 20.1733151, 60.3375793 ], [ 20.1740903, 60.3385575 ], [ 20.1726741, 60.3389451 ], [ 20.175662, 60.3407728 ], [ 20.1788834, 60.3408843 ], [ 20.1746321, 60.342116 ], [ 20.1750639, 60.343337 ], [ 20.1731247, 60.3458877 ], [ 20.1637477, 60.3473793 ], [ 20.1592335, 60.3491561 ], [ 20.1606283, 60.3506555 ], [ 20.1624495, 60.3493007 ], [ 20.1654911, 60.348758 ], [ 20.1647052, 60.3495608 ], [ 20.1658076, 60.3506621 ], [ 20.1648366, 60.3518602 ], [ 20.1618876, 60.351636 ], [ 20.162251, 60.3511291 ], [ 20.1615241, 60.3506263 ], [ 20.1588795, 60.3518536 ], [ 20.1577046, 60.3513295 ], [ 20.1592523, 60.3484621 ], [ 20.1582384, 60.3478105 ], [ 20.159145, 60.3472466 ], [ 20.1586032, 60.3469175 ], [ 20.1559103, 60.348482 ], [ 20.1547515, 60.3516413 ], [ 20.1531744, 60.3524427 ], [ 20.1515061, 60.3515272 ], [ 20.1484698, 60.3514794 ], [ 20.1480621, 60.352996 ], [ 20.146265, 60.3531459 ], [ 20.1451331, 60.352042 ], [ 20.1444223, 60.3527983 ], [ 20.1445135, 60.3506581 ], [ 20.14678, 60.3493326 ], [ 20.1456588, 60.347512 ], [ 20.1493549, 60.3467715 ], [ 20.1505512, 60.3457975 ], [ 20.1501328, 60.3445633 ], [ 20.1514497, 60.3436462 ], [ 20.1505619, 60.3424199 ], [ 20.1509052, 60.3415081 ], [ 20.1546282, 60.3411471 ], [ 20.1552531, 60.3406892 ], [ 20.1546925, 60.3389544 ], [ 20.1565459, 60.3394176 ], [ 20.15425, 60.337 ], [ 20.1544243, 60.3349005 ], [ 20.1588929, 60.3335782 ], [ 20.1607811, 60.3339526 ], [ 20.1607329, 60.3315842 ], [ 20.1624012, 60.3314541 ], [ 20.1652551, 60.328172 ], [ 20.1652014, 60.3269584 ], [ 20.1670763, 60.3256411 ], [ 20.1665291, 60.3254991 ], [ 20.1680338, 60.323126 ], [ 20.1688412, 60.3191246 ], [ 20.1676503, 60.3188696 ], [ 20.1665559, 60.319349 ], [ 20.1649547, 60.3229109 ], [ 20.1652336, 60.32413 ], [ 20.1605076, 60.3299153 ], [ 20.1613203, 60.3305234 ], [ 20.1580989, 60.3312762 ], [ 20.1569563, 60.33271 ], [ 20.1512861, 60.3349297 ], [ 20.146, 60.335 ], [ 20.1448059, 60.3366793 ], [ 20.141775, 60.3381368 ], [ 20.127039, 60.341897 ], [ 20.127688, 60.3428327 ], [ 20.1303998, 60.3436183 ], [ 20.1332188, 60.3432202 ], [ 20.1384571, 60.3439156 ], [ 20.1407021, 60.3490433 ], [ 20.1400799, 60.3509368 ], [ 20.1374716, 60.3529536 ], [ 20.1367941, 60.3525396 ], [ 20.1375237, 60.3516267 ], [ 20.1370329, 60.3503755 ], [ 20.1348361, 60.3501765 ], [ 20.1366895, 60.3494706 ], [ 20.132516, 60.3480905 ], [ 20.1314861, 60.3456422 ], [ 20.1304806, 60.3454316 ], [ 20.1279248, 60.346944 ], [ 20.1261364, 60.3462254 ], [ 20.1243788, 60.3471586 ], [ 20.1226623, 60.3466386 ], [ 20.1222012, 60.3454266 ], [ 20.1199252, 60.3450071 ], [ 20.1195395, 60.3487288 ], [ 20.1173997, 60.3509589 ], [ 20.1178551, 60.3532096 ], [ 20.11848, 60.353065 ], [ 20.1192847, 60.3545549 ], [ 20.1156319, 60.3561557 ], [ 20.1148659, 60.3583319 ], [ 20.1133785, 60.3574384 ], [ 20.1125225, 60.3581858 ], [ 20.1106497, 60.357343 ], [ 20.1119994, 60.3571531 ], [ 20.1103838, 60.3565584 ], [ 20.1145671, 60.3542641 ], [ 20.1111112, 60.3523942 ], [ 20.1080704, 60.3538172 ], [ 20.1065, 60.35125 ], [ 20.1039782, 60.3491229 ], [ 20.1038119, 60.3463319 ], [ 20.0991619, 60.3460674 ], [ 20.0968167, 60.3467688 ], [ 20.0969659, 60.3478607 ], [ 20.095397, 60.3481331 ], [ 20.0961303, 60.3466179 ], [ 20.0983899, 60.3458083 ], [ 20.101476, 60.3435336 ], [ 20.1016848, 60.3425722 ], [ 20.1031218, 60.3423568 ], [ 20.1038154, 60.3439065 ], [ 20.1046386, 60.343795 ], [ 20.1036566, 60.3417918 ], [ 20.1007704, 60.3422519 ], [ 20.0991929, 60.3440173 ], [ 20.0941091, 60.3450143 ], [ 20.0931818, 60.3459442 ], [ 20.094725, 60.3483139 ], [ 20.0982306, 60.3509565 ], [ 20.1004345, 60.3505293 ], [ 20.1003401, 60.3513666 ], [ 20.1017953, 60.3518742 ], [ 20.1019818, 60.3536819 ], [ 20.102942, 60.3542205 ], [ 20.098857, 60.3546677 ], [ 20.100815, 60.3547963 ], [ 20.09927, 60.3552885 ], [ 20.1010671, 60.3549051 ], [ 20.0996321, 60.3556229 ], [ 20.1050187, 60.3566222 ], [ 20.1046586, 60.3572599 ], [ 20.1057878, 60.3579577 ], [ 20.1051441, 60.3591675 ], [ 20.1055464, 60.3601027 ], [ 20.103355, 60.3606598 ], [ 20.104444, 60.3606572 ], [ 20.1052165, 60.3617554 ], [ 20.1112354, 60.3624743 ], [ 20.1137674, 60.3644798 ], [ 20.1165193, 60.3631561 ], [ 20.1169056, 60.3618669 ], [ 20.1161519, 60.3616308 ], [ 20.1169673, 60.3603308 ], [ 20.1209879, 60.3609689 ], [ 20.121983, 60.3630195 ], [ 20.1212642, 60.3636256 ], [ 20.1218462, 60.3638073 ], [ 20.1265588, 60.3623643 ], [ 20.1278376, 60.3630168 ], [ 20.1272488, 60.3633623 ], [ 20.1276431, 60.3642337 ], [ 20.1195992, 60.36884 ], [ 20.1157525, 60.3685172 ], [ 20.1146322, 60.3665054 ], [ 20.113136, 60.3661063 ], [ 20.1117475, 60.367229 ], [ 20.1128235, 60.3675422 ], [ 20.110616, 60.3686066 ], [ 20.11093, 60.3703502 ], [ 20.1096059, 60.3715912 ], [ 20.1059083, 60.3711898 ], [ 20.1040045, 60.3720909 ], [ 20.0992405, 60.3722951 ], [ 20.098222, 60.3733358 ], [ 20.0937719, 60.3742074 ], [ 20.0917837, 60.3733017 ], [ 20.0897618, 60.3750339 ], [ 20.0863452, 60.374993 ], [ 20.0842632, 60.3738879 ], [ 20.0806844, 60.3742746 ], [ 20.07675, 60.37175 ], [ 20.076, 60.3695 ], [ 20.07375, 60.36725 ], [ 20.07325, 60.364 ], [ 20.068, 60.3595 ], [ 20.062564, 60.3572566 ], [ 20.0614777, 60.3578078 ], [ 20.064007, 60.3588571 ], [ 20.06775, 60.3625 ], [ 20.068, 60.364 ], [ 20.065, 60.36375 ], [ 20.0635, 60.36475 ], [ 20.0695, 60.36875 ], [ 20.06875, 60.37225 ], [ 20.06575, 60.37325 ], [ 20.062, 60.37325 ], [ 20.05825, 60.37175 ], [ 20.05325, 60.372 ], [ 20.0525, 60.371 ], [ 20.0535, 60.369 ], [ 20.05225, 60.3685 ], [ 20.05425, 60.36725 ], [ 20.054, 60.36675 ], [ 20.0525, 60.3655 ], [ 20.0465, 60.3645 ], [ 20.0455, 60.365 ], [ 20.046, 60.36625 ], [ 20.049, 60.36775 ], [ 20.04725, 60.37025 ], [ 20.0418105, 60.3707699 ], [ 20.0455105, 60.3714501 ], [ 20.0454302, 60.3737014 ], [ 20.0435289, 60.3716678 ], [ 20.0400104, 60.3729915 ], [ 20.0394366, 60.3718117 ], [ 20.0384173, 60.3717766 ], [ 20.0365786, 60.3739871 ], [ 20.031426, 60.3717685 ], [ 20.0314944, 60.3740729 ], [ 20.0305133, 60.3748661 ], [ 20.0311167, 60.3755524 ], [ 20.0274524, 60.376384 ], [ 20.0268957, 60.3775099 ], [ 20.0250982, 60.3783735 ], [ 20.0239144, 60.3779787 ], [ 20.0257449, 60.3762266 ], [ 20.0242568, 60.3760067 ], [ 20.0239722, 60.3745579 ], [ 20.0217806, 60.373688 ], [ 20.0183546, 60.3739873 ], [ 20.0165009, 60.3761747 ], [ 20.0132136, 60.3764076 ], [ 20.0118711, 60.3750222 ], [ 20.0124777, 60.370485 ], [ 20.0265298, 60.3599557 ], [ 20.0245787, 60.3579961 ], [ 20.0269074, 60.3550356 ], [ 20.026813, 60.3539445 ], [ 20.0244205, 60.3513286 ], [ 20.02175, 60.35 ], [ 20.0206516, 60.3504707 ], [ 20.0226086, 60.3523171 ], [ 20.0214909, 60.3526961 ], [ 20.022319, 60.3538474 ], [ 20.02175, 60.35475 ], [ 20.0221414, 60.356609 ], [ 20.02, 60.36125 ], [ 20.0114836, 60.3664676 ], [ 20.0083935, 60.3700647 ], [ 20.0060019, 60.3699012 ], [ 20.0058939, 60.3678406 ], [ 20.0067768, 60.3669396 ], [ 20.0041114, 60.3662738 ], [ 20.0028173, 60.3701092 ], [ 20.0007262, 60.3713322 ], [ 19.9971667, 60.3718148 ], [ 19.9948129, 60.3712621 ], [ 19.9892978, 60.374501 ], [ 19.9840954, 60.3751738 ], [ 19.980019, 60.3741802 ], [ 19.9787, 60.3730557 ], [ 19.9767312, 60.3732073 ], [ 19.9758267, 60.3741955 ], [ 19.9728563, 60.3733123 ], [ 19.9696147, 60.3694461 ], [ 19.9670698, 60.3692016 ], [ 19.9634107, 60.3703507 ], [ 19.9575091, 60.3692489 ], [ 19.9593838, 60.3709954 ], [ 19.9591963, 60.3720571 ], [ 19.9609968, 60.3730028 ], [ 19.9608434, 60.3738826 ], [ 19.9568461, 60.3732613 ], [ 19.9556024, 60.3749349 ], [ 19.9529367, 60.3748091 ], [ 19.9523293, 60.374263 ], [ 19.9528102, 60.3736708 ], [ 19.9514194, 60.3726229 ], [ 19.9486431, 60.3733004 ], [ 19.9494955, 60.3720909 ], [ 19.9489192, 60.3714076 ], [ 19.9488871, 60.3706016 ], [ 19.9495608, 60.371711 ], [ 19.9509534, 60.3693014 ], [ 19.9504381, 60.3682202 ], [ 19.9483604, 60.3679287 ], [ 19.947029, 60.3662308 ], [ 19.9417557, 60.3639765 ], [ 19.9388978, 60.3605099 ], [ 19.9360835, 60.3586247 ], [ 19.9366615, 60.3568939 ], [ 19.9376968, 60.3564014 ], [ 19.943762, 60.3557975 ], [ 19.9445684, 60.3541802 ], [ 19.9438478, 60.3529635 ], [ 19.9404966, 60.3525051 ], [ 19.934962, 60.3537699 ], [ 19.9320693, 60.3530455 ], [ 19.93235, 60.3542977 ], [ 19.9346437, 60.3557294 ], [ 19.9334597, 60.3571652 ], [ 19.9311252, 60.3575918 ], [ 19.9321691, 60.3584911 ], [ 19.9315322, 60.3586763 ], [ 19.93197, 60.3602296 ], [ 19.9361924, 60.364281 ], [ 19.9409855, 60.3663998 ], [ 19.9406141, 60.3677285 ], [ 19.9432319, 60.3695684 ], [ 19.9442807, 60.3734426 ], [ 19.9400078, 60.3741772 ], [ 19.938032, 60.3729985 ], [ 19.9374967, 60.374821 ], [ 19.9349046, 60.3750047 ], [ 19.9333878, 60.3731798 ], [ 19.9313706, 60.3729575 ], [ 19.9296079, 60.3735856 ], [ 19.9283588, 60.3754256 ], [ 19.9313216, 60.3770877 ], [ 19.932587, 60.3760967 ], [ 19.9340109, 60.3766411 ], [ 19.9379319, 60.3752327 ], [ 19.9379614, 60.3785676 ], [ 19.9389324, 60.3800763 ], [ 19.938408, 60.3802721 ], [ 19.9395292, 60.3804171 ], [ 19.9406018, 60.3794092 ], [ 19.9437489, 60.3828937 ], [ 19.9429984, 60.3841623 ], [ 19.9444751, 60.3833063 ], [ 19.9442065, 60.3840114 ], [ 19.9458104, 60.3837977 ], [ 19.9456544, 60.3846757 ], [ 19.9468039, 60.3840128 ], [ 19.9472628, 60.3852117 ], [ 19.9490652, 60.3853047 ], [ 19.950018, 60.386145 ], [ 19.9497115, 60.3874594 ], [ 19.9508253, 60.3895129 ], [ 19.9529381, 60.3897224 ], [ 19.9521451, 60.387305 ], [ 19.9554292, 60.3863343 ], [ 19.9581232, 60.3884308 ], [ 19.958235, 60.3893826 ], [ 19.9636095, 60.3944477 ], [ 19.9610732, 60.3984044 ], [ 19.961781, 60.4001015 ], [ 19.9612822, 60.400472 ], [ 19.9620717, 60.3999097 ], [ 19.9627469, 60.4005892 ], [ 19.9625012, 60.4018758 ], [ 19.9627992, 60.4011954 ], [ 19.9633797, 60.4030122 ], [ 19.9619866, 60.4046777 ], [ 19.9636445, 60.4063328 ], [ 19.9628602, 60.4074931 ], [ 19.9640764, 60.4089412 ], [ 19.963626, 60.4108713 ], [ 19.9629578, 60.4109122 ], [ 19.9635973, 60.4111293 ], [ 19.9635938, 60.4124864 ], [ 19.9614235, 60.4127536 ], [ 19.9605842, 60.410911 ], [ 19.9619468, 60.409098 ], [ 19.9614413, 60.4064431 ], [ 19.9603887, 60.4060439 ], [ 19.9603477, 60.4034483 ], [ 19.9621677, 60.4018397 ], [ 19.9608015, 60.400304 ], [ 19.9582943, 60.4015403 ], [ 19.9562068, 60.401112 ], [ 19.9562565, 60.4032266 ], [ 19.9555141, 60.4038273 ], [ 19.9559979, 60.4029969 ], [ 19.9546217, 60.4027487 ], [ 19.9544759, 60.4011008 ], [ 19.9528767, 60.4016001 ], [ 19.9522438, 60.4005369 ], [ 19.9525208, 60.3990438 ], [ 19.9535122, 60.3991343 ], [ 19.9538508, 60.4000356 ], [ 19.9545455, 60.3997395 ], [ 19.9547819, 60.398181 ], [ 19.9536391, 60.397435 ], [ 19.95092, 60.4005901 ], [ 19.9510737, 60.4023517 ], [ 19.9499239, 60.4029179 ], [ 19.9475863, 60.4024612 ], [ 19.946353, 60.4005755 ], [ 19.9406633, 60.3999028 ], [ 19.9417387, 60.3998746 ], [ 19.9410166, 60.3988634 ], [ 19.9390431, 60.3983112 ], [ 19.9395543, 60.3958643 ], [ 19.9386058, 60.3951752 ], [ 19.9388921, 60.3931553 ], [ 19.9382497, 60.3926774 ], [ 19.9383874, 60.3919237 ], [ 19.9385989, 60.3917953 ], [ 19.9387621, 60.3922914 ], [ 19.9400029, 60.3914714 ], [ 19.9419243, 60.3916714 ], [ 19.9420935, 60.3903263 ], [ 19.9438268, 60.3894866 ], [ 19.9404804, 60.3888328 ], [ 19.9420982, 60.3882084 ], [ 19.9424761, 60.386018 ], [ 19.9361899, 60.386528 ], [ 19.9360532, 60.3856624 ], [ 19.9382909, 60.3842161 ], [ 19.9344692, 60.3842773 ], [ 19.9333756, 60.3848356 ], [ 19.934856, 60.3859923 ], [ 19.934226, 60.386911 ], [ 19.9323861, 60.3869816 ], [ 19.9341696, 60.387849 ], [ 19.9378398, 60.3879925 ], [ 19.9369729, 60.3906899 ], [ 19.9381427, 60.3916699 ], [ 19.9364289, 60.3926553 ], [ 19.9379824, 60.3928258 ], [ 19.9384023, 60.3952063 ], [ 19.9374758, 60.3966907 ], [ 19.9365004, 60.3960405 ], [ 19.9359131, 60.396814 ], [ 19.9365759, 60.398278 ], [ 19.9354679, 60.3984682 ], [ 19.9346608, 60.3981906 ], [ 19.934687, 60.3972657 ], [ 19.9360662, 60.3965354 ], [ 19.9347704, 60.3967044 ], [ 19.9340292, 60.3982859 ], [ 19.9331053, 60.3958992 ], [ 19.9321115, 60.3952942 ], [ 19.9313209, 60.3959391 ], [ 19.9297002, 60.394734 ], [ 19.9276206, 60.3963358 ], [ 19.9278925, 60.3976988 ], [ 19.926229, 60.400858 ], [ 19.9277357, 60.4021128 ], [ 19.9272538, 60.4031604 ], [ 19.9275581, 60.4036884 ], [ 19.9278992, 60.4019305 ], [ 19.9317199, 60.4013338 ], [ 19.9324832, 60.4025505 ], [ 19.9314441, 60.4030168 ], [ 19.9320891, 60.4041051 ], [ 19.9343952, 60.4056591 ], [ 19.9335005, 60.4061161 ], [ 19.9333629, 60.4082405 ], [ 19.93197, 60.4085936 ], [ 19.9303852, 60.4075676 ], [ 19.929417, 60.4079621 ], [ 19.9299862, 60.4082299 ], [ 19.9296495, 60.4140148 ], [ 19.9303995, 60.4150148 ], [ 19.9276495, 60.4157648 ], [ 19.9261495, 60.4135148 ], [ 19.9189977, 60.409971 ], [ 19.9188995, 60.4107648 ], [ 19.9223995, 60.4140148 ], [ 19.9206336, 60.4173774 ], [ 19.919044, 60.4178364 ], [ 19.9188055, 60.4204061 ], [ 19.9177149, 60.420712 ], [ 19.9177954, 60.4219248 ], [ 19.9158387, 60.4225012 ], [ 19.9155874, 60.4234526 ], [ 19.9133995, 60.4232648 ], [ 19.9127022, 60.4220253 ], [ 19.9113757, 60.4217457 ], [ 19.913408, 60.4216113 ], [ 19.912418, 60.4209662 ], [ 19.9100246, 60.4212979 ], [ 19.9079451, 60.4203217 ], [ 19.9087599, 60.4235015 ], [ 19.9051279, 60.4233766 ], [ 19.9045993, 60.4246629 ], [ 19.8998344, 60.425966 ], [ 19.8991424, 60.4247362 ], [ 19.9001536, 60.424069 ], [ 19.9000651, 60.4228907 ], [ 19.8997915, 60.4236387 ], [ 19.8957092, 60.4252644 ], [ 19.8935044, 60.4242821 ], [ 19.8915866, 60.42449 ], [ 19.8908704, 60.4235752 ], [ 19.8908289, 60.4245039 ], [ 19.8893349, 60.4247998 ], [ 19.8898995, 60.425234 ], [ 19.888832, 60.4265313 ], [ 19.8856777, 60.4257556 ], [ 19.8836542, 60.4267886 ], [ 19.8789105, 60.4260587 ], [ 19.8769954, 60.4266001 ], [ 19.8764804, 60.4278418 ], [ 19.8735568, 60.4268225 ], [ 19.8755711, 60.4266584 ], [ 19.8746109, 60.4262533 ], [ 19.871242, 60.4264982 ], [ 19.8711053, 60.4254193 ], [ 19.8720601, 60.4248593 ], [ 19.8712769, 60.4243774 ], [ 19.8686993, 60.4246343 ], [ 19.8680341, 60.4235897 ], [ 19.8671973, 60.4237287 ], [ 19.8674199, 60.4251837 ], [ 19.8656094, 60.4260137 ], [ 19.863587, 60.4244913 ], [ 19.8590997, 60.4234282 ], [ 19.8592097, 60.4223916 ], [ 19.8585418, 60.422238 ], [ 19.8606151, 60.4182871 ], [ 19.8576325, 60.4167312 ], [ 19.855586, 60.4174767 ], [ 19.8556128, 60.4183944 ], [ 19.8547043, 60.4183131 ], [ 19.857147, 60.4202308 ], [ 19.8565194, 60.4212199 ], [ 19.8568763, 60.4225618 ], [ 19.8551354, 60.4224313 ], [ 19.8540544, 60.423313 ], [ 19.8571336, 60.4263989 ], [ 19.8480517, 60.424911 ], [ 19.8476252, 60.4238744 ], [ 19.84972, 60.4225385 ], [ 19.845576, 60.4210756 ], [ 19.8448602, 60.4189784 ], [ 19.8490449, 60.4165756 ], [ 19.8512486, 60.4172388 ], [ 19.8530134, 60.4168154 ], [ 19.8541719, 60.4176866 ], [ 19.8574131, 60.4156398 ], [ 19.8516232, 60.4139155 ], [ 19.8497007, 60.4148172 ], [ 19.8459327, 60.4145999 ], [ 19.8463913, 60.4157339 ], [ 19.8443019, 60.4173615 ], [ 19.8428053, 60.4172344 ], [ 19.8423761, 60.4186963 ], [ 19.8378432, 60.417584 ], [ 19.8358286, 60.4142451 ], [ 19.8348388, 60.4140093 ], [ 19.8344421, 60.4113917 ], [ 19.8355365, 60.4062103 ], [ 19.8371029, 60.4036405 ], [ 19.8367113, 60.4024323 ], [ 19.8338494, 60.4018494 ], [ 19.8319235, 60.4020481 ], [ 19.83316, 60.4037994 ], [ 19.8311403, 60.4042644 ], [ 19.8323286, 60.4067891 ], [ 19.8311511, 60.4083031 ], [ 19.8313737, 60.4112606 ], [ 19.8287666, 60.4111838 ], [ 19.8267952, 60.4094051 ], [ 19.824703, 60.4094024 ], [ 19.824298, 60.4102196 ], [ 19.8251805, 60.412234 ], [ 19.8246011, 60.4131597 ], [ 19.8263553, 60.4148893 ], [ 19.8249176, 60.4157116 ], [ 19.8211759, 60.415309 ], [ 19.8200387, 60.4166094 ], [ 19.8190758, 60.415897 ], [ 19.8190194, 60.4174105 ], [ 19.816989, 60.4177985 ], [ 19.817284, 60.4190021 ], [ 19.8158973, 60.4188988 ], [ 19.8163667, 60.4193834 ], [ 19.8150122, 60.419692 ], [ 19.8152402, 60.4168478 ], [ 19.8170319, 60.4157553 ], [ 19.8151624, 60.4134008 ], [ 19.8152053, 60.4123426 ], [ 19.8160985, 60.4119559 ], [ 19.8145428, 60.4113732 ], [ 19.8155769, 60.4093556 ], [ 19.8155071, 60.407047 ], [ 19.8169072, 60.4065516 ], [ 19.8178353, 60.4073357 ], [ 19.8194071, 60.405582 ], [ 19.82372, 60.4065622 ], [ 19.8268207, 60.4035764 ], [ 19.8238595, 60.4032691 ], [ 19.8235035, 60.4016283 ], [ 19.8208125, 60.4002327 ], [ 19.8196485, 60.4004685 ], [ 19.8215367, 60.4045381 ], [ 19.8205658, 60.4045567 ], [ 19.8202761, 60.4053939 ], [ 19.8155393, 60.4056773 ], [ 19.8149921, 60.4078271 ], [ 19.812833, 60.4078695 ], [ 19.8118821, 60.409919 ], [ 19.8099858, 60.4076501 ], [ 19.8094574, 60.405499 ], [ 19.8090443, 60.4062725 ], [ 19.8070219, 60.404324 ], [ 19.8059249, 60.4051241 ], [ 19.8042646, 60.403398 ], [ 19.8031354, 60.4043346 ], [ 19.8015475, 60.4043571 ], [ 19.8010674, 60.4027026 ], [ 19.7986588, 60.4006982 ], [ 19.79886, 60.3986367 ], [ 19.796218, 60.3985982 ], [ 19.7969797, 60.3937884 ], [ 19.7986829, 60.3898672 ], [ 19.7943538, 60.3884187 ], [ 19.7953865, 60.3870695 ], [ 19.7953919, 60.3852722 ], [ 19.7987393, 60.3846201 ], [ 19.7997343, 60.3822474 ], [ 19.8015529, 60.3809562 ], [ 19.8023683, 60.3823428 ], [ 19.8013759, 60.3833741 ], [ 19.8017916, 60.3911964 ], [ 19.804962, 60.3935446 ], [ 19.8071158, 60.3909963 ], [ 19.807604, 60.3890681 ], [ 19.8057157, 60.387259 ], [ 19.807266, 60.3872113 ], [ 19.8071828, 60.3865698 ], [ 19.804219, 60.3845511 ], [ 19.8056218, 60.3839374 ], [ 19.8047662, 60.3828783 ], [ 19.8025909, 60.3825827 ], [ 19.8016548, 60.3807826 ], [ 19.8082343, 60.3804233 ], [ 19.8076442, 60.3801741 ], [ 19.8088565, 60.3795921 ], [ 19.8082343, 60.3791348 ], [ 19.8087171, 60.3787092 ], [ 19.8117882, 60.3776897 ], [ 19.8114261, 60.3769234 ], [ 19.8126009, 60.3771302 ], [ 19.8112142, 60.376755 ], [ 19.814921, 60.3771369 ], [ 19.8137408, 60.3766675 ], [ 19.8147091, 60.3751229 ], [ 19.8112786, 60.3766967 ], [ 19.8118392, 60.3761412 ], [ 19.8090416, 60.376576 ], [ 19.8080546, 60.3749187 ], [ 19.8069978, 60.3748551 ], [ 19.8071212, 60.3754226 ], [ 19.8040647, 60.375811 ], [ 19.8052022, 60.3770764 ], [ 19.8029956, 60.378668 ], [ 19.800432, 60.3778303 ], [ 19.8009385, 60.3767091 ], [ 19.80039, 60.3763794 ], [ 19.7970171, 60.3772333 ], [ 19.7956572, 60.3767183 ], [ 19.7886366, 60.3774206 ], [ 19.7853194, 60.3752461 ], [ 19.7860146, 60.3737032 ], [ 19.7838297, 60.3725551 ], [ 19.784278, 60.3712596 ], [ 19.7827528, 60.3702111 ], [ 19.7816165, 60.3677919 ], [ 19.7785259, 60.3668182 ], [ 19.7775845, 60.3658679 ], [ 19.7783336, 60.3641327 ], [ 19.7750195, 60.3622395 ], [ 19.7762654, 60.3614591 ], [ 19.7804128, 60.3623733 ], [ 19.7813631, 60.3615342 ], [ 19.7813844, 60.3623269 ], [ 19.7821629, 60.3623242 ], [ 19.7815198, 60.3633876 ], [ 19.7843475, 60.3645084 ], [ 19.7932373, 60.3616841 ], [ 19.8002708, 60.3635381 ], [ 19.8024954, 60.3652507 ], [ 19.8077525, 60.3644936 ], [ 19.8118035, 60.3675993 ], [ 19.8122149, 60.3664468 ], [ 19.8113894, 60.3654617 ], [ 19.8124609, 60.3635882 ], [ 19.8149802, 60.3619235 ], [ 19.8148798, 60.3607675 ], [ 19.8164317, 60.3598577 ], [ 19.8172167, 60.3611519 ], [ 19.8187233, 60.3606536 ], [ 19.8169256, 60.3598633 ], [ 19.8173679, 60.3592227 ], [ 19.8167397, 60.3590571 ], [ 19.8185537, 60.3592598 ], [ 19.8199253, 60.3581909 ], [ 19.8228862, 60.3577037 ], [ 19.8240898, 60.356506 ], [ 19.8245245, 60.3534258 ], [ 19.8250386, 60.3536172 ], [ 19.8254649, 60.3514823 ], [ 19.8281368, 60.3489918 ], [ 19.82775, 60.3463095 ], [ 19.8301886, 60.3425598 ], [ 19.8323431, 60.3424975 ], [ 19.8320286, 60.3429579 ], [ 19.8340597, 60.345028 ], [ 19.8383732, 60.347128 ], [ 19.8408725, 60.3467085 ], [ 19.8397781, 60.3458329 ], [ 19.8403598, 60.3450963 ], [ 19.8431885, 60.3452356 ], [ 19.8411329, 60.3442875 ], [ 19.8346855, 60.3439459 ], [ 19.8339277, 60.3420566 ], [ 19.8309046, 60.3421098 ], [ 19.8317516, 60.3381096 ], [ 19.8336505, 60.3380814 ], [ 19.8343007, 60.3371074 ], [ 19.8303169, 60.335788 ], [ 19.8300075, 60.3338687 ], [ 19.8315966, 60.3315732 ], [ 19.8297887, 60.3294452 ], [ 19.8319822, 60.3289873 ], [ 19.8322401, 60.3271034 ], [ 19.8333958, 60.3276132 ], [ 19.8340084, 60.3264798 ], [ 19.8370441, 60.3253631 ], [ 19.8442507, 60.3277711 ], [ 19.8452008, 60.3263235 ], [ 19.8440081, 60.326055 ], [ 19.8441671, 60.3250451 ], [ 19.8452516, 60.3248043 ], [ 19.8442634, 60.3244763 ], [ 19.8454759, 60.3243811 ], [ 19.8427382, 60.3229592 ], [ 19.8422965, 60.3219992 ], [ 19.8467864, 60.3204071 ], [ 19.8514016, 60.3237673 ], [ 19.8516549, 60.3255307 ], [ 19.8543945, 60.3291982 ], [ 19.8553639, 60.3288689 ], [ 19.8561728, 60.3261275 ], [ 19.8591017, 60.3248325 ], [ 19.8587987, 60.3253316 ], [ 19.8669051, 60.3251394 ], [ 19.8707354, 60.3258472 ], [ 19.8730636, 60.3312721 ], [ 19.8788199, 60.3328538 ], [ 19.880075, 60.3350406 ], [ 19.8820692, 60.3359099 ], [ 19.8879457, 60.3413079 ], [ 19.8881768, 60.3420929 ], [ 19.8868469, 60.3430845 ], [ 19.8869237, 60.3451162 ], [ 19.8891339, 60.3476292 ], [ 19.8891982, 60.3506017 ], [ 19.8875601, 60.3532373 ], [ 19.8907805, 60.3551365 ], [ 19.8909539, 60.3571491 ], [ 19.8983533, 60.3613962 ], [ 19.9035614, 60.3626743 ], [ 19.9050086, 60.3622894 ], [ 19.9030387, 60.3608815 ], [ 19.8986999, 60.3609227 ], [ 19.8959703, 60.3587764 ], [ 19.89825, 60.3585 ], [ 19.8931138, 60.3531585 ], [ 19.8918738, 60.3527845 ], [ 19.891438, 60.3499939 ], [ 19.8929649, 60.3482475 ], [ 19.8924539, 60.3459671 ], [ 19.8888945, 60.3433519 ], [ 19.8923865, 60.3402602 ], [ 19.8904719, 60.3366606 ], [ 19.893297, 60.3352956 ], [ 19.8925513, 60.334412 ], [ 19.8930413, 60.3338774 ], [ 19.8987156, 60.3356584 ], [ 19.9010543, 60.3383779 ], [ 19.902656, 60.3381583 ], [ 19.9033777, 60.3363687 ], [ 19.9043935, 60.3365863 ], [ 19.9046779, 60.3359017 ], [ 19.9038999, 60.3356869 ], [ 19.9024145, 60.3323465 ], [ 19.9031405, 60.3320419 ], [ 19.9027034, 60.3309163 ], [ 19.9036979, 60.3310028 ], [ 19.9027484, 60.3305975 ], [ 19.9039261, 60.3305584 ], [ 19.903901, 60.3295178 ], [ 19.9047684, 60.3292252 ], [ 19.9031423, 60.3284892 ], [ 19.9036923, 60.3272867 ], [ 19.909596, 60.33087 ], [ 19.9127098, 60.3279981 ], [ 19.9075062, 60.3273103 ], [ 19.9091911, 60.322702 ], [ 19.9080334, 60.3210819 ], [ 19.9047992, 60.3214407 ], [ 19.8999687, 60.3203895 ], [ 19.892696, 60.3215386 ], [ 19.8907285, 60.3197678 ], [ 19.8881398, 60.3196914 ], [ 19.8872067, 60.3185888 ], [ 19.8868373, 60.3168156 ], [ 19.890933, 60.3143403 ], [ 19.899131, 60.3143666 ], [ 19.9026404, 60.3118619 ], [ 19.9004216, 60.31059 ], [ 19.9030451, 60.3079155 ], [ 19.900605, 60.3079496 ], [ 19.8985423, 60.3061848 ], [ 19.8985824, 60.3043923 ], [ 19.8960371, 60.3033158 ], [ 19.89475, 60.29975 ], [ 19.895, 60.29675 ], [ 19.896, 60.29625 ], [ 19.89725, 60.29075 ], [ 19.8965, 60.2895 ], [ 19.89325, 60.288 ], [ 19.89425, 60.28725 ], [ 19.893, 60.287 ], [ 19.89625, 60.28425 ], [ 19.89575, 60.28225 ], [ 19.893, 60.2805 ], [ 19.89325, 60.28 ], [ 19.88975, 60.2785 ], [ 19.8905, 60.278 ], [ 19.88875, 60.2745 ], [ 19.8875, 60.27475 ], [ 19.8885, 60.27425 ], [ 19.88625, 60.27325 ], [ 19.886, 60.27225 ], [ 19.88675, 60.272 ], [ 19.8836607, 60.268761 ], [ 19.8805278, 60.2695245 ], [ 19.8776257, 60.2722433 ], [ 19.8765, 60.272 ], [ 19.8765, 60.271 ], [ 19.87425, 60.2715 ], [ 19.873, 60.27075 ], [ 19.87225, 60.2715 ], [ 19.8695, 60.26975 ], [ 19.8665, 60.26975 ], [ 19.86575, 60.26775 ], [ 19.86475, 60.268 ], [ 19.8625, 60.26475 ], [ 19.863, 60.2635 ], [ 19.86125, 60.2625 ], [ 19.862, 60.26075 ], [ 19.86, 60.2605 ], [ 19.86, 60.2595 ], [ 19.86225, 60.259 ], [ 19.863, 60.25675 ], [ 19.86225, 60.25575 ], [ 19.86575, 60.25425 ], [ 19.8635, 60.25325 ], [ 19.8595, 60.253 ], [ 19.85725, 60.25175 ], [ 19.8587164, 60.2483451 ], [ 19.8579877, 60.2481858 ], [ 19.8586156, 60.2480048 ], [ 19.8578979, 60.2460566 ], [ 19.8586156, 60.2440842 ], [ 19.8581261, 60.243182 ], [ 19.8611169, 60.240467 ], [ 19.8601602, 60.2383037 ], [ 19.8551236, 60.2374601 ], [ 19.8559357, 60.2389808 ], [ 19.8554488, 60.2415322 ], [ 19.8533973, 60.2428246 ], [ 19.8527794, 60.245841 ], [ 19.85025, 60.24675 ], [ 19.846, 60.24625 ], [ 19.842, 60.247 ], [ 19.83975, 60.24825 ], [ 19.83475, 60.24775 ], [ 19.834, 60.2465 ], [ 19.8325, 60.24625 ], [ 19.8305, 60.2445 ], [ 19.83, 60.24825 ], [ 19.82875, 60.24875 ], [ 19.82925, 60.25 ], [ 19.82525, 60.2505 ], [ 19.8241924, 60.2526349 ], [ 19.8227552, 60.2528133 ], [ 19.8242986, 60.2539413 ], [ 19.824555, 60.2560804 ], [ 19.8270702, 60.256649 ], [ 19.8272115, 60.2590288 ], [ 19.827898, 60.2595278 ], [ 19.827, 60.26125 ], [ 19.8279328, 60.2632717 ], [ 19.83125, 60.265 ], [ 19.82875, 60.2665 ], [ 19.82925, 60.26775 ], [ 19.8305, 60.268 ], [ 19.8305, 60.26925 ], [ 19.8278482, 60.2708143 ], [ 19.827189, 60.270046 ], [ 19.8260099, 60.2703112 ], [ 19.8266005, 60.2677554 ], [ 19.8254733, 60.26865 ], [ 19.8231759, 60.2688237 ], [ 19.812588, 60.2635736 ], [ 19.8099257, 60.2637352 ], [ 19.80725, 60.2625 ], [ 19.81025, 60.26025 ], [ 19.811, 60.2575 ], [ 19.81275, 60.2565 ], [ 19.811, 60.25575 ], [ 19.811, 60.25475 ], [ 19.813, 60.2545 ], [ 19.81175, 60.253 ], [ 19.818701, 60.2515947 ], [ 19.811, 60.25 ], [ 19.811, 60.248 ], [ 19.809, 60.24625 ], [ 19.81175, 60.243 ], [ 19.8104143, 60.2422243 ], [ 19.8107577, 60.2414877 ], [ 19.80675, 60.241 ], [ 19.8069237, 60.2395678 ], [ 19.8055, 60.23975 ], [ 19.8045, 60.239 ], [ 19.8040729, 60.237294 ], [ 19.8054262, 60.2362079 ], [ 19.8049592, 60.2356095 ], [ 19.8072466, 60.2353897 ], [ 19.8062726, 60.2344007 ], [ 19.8016843, 60.2328961 ], [ 19.8019526, 60.2317667 ], [ 19.8042579, 60.2317753 ], [ 19.8037912, 60.2312879 ], [ 19.8077166, 60.2293343 ], [ 19.820492, 60.2294282 ], [ 19.8253941, 60.2281422 ], [ 19.8317112, 60.2314705 ], [ 19.8330553, 60.2317646 ], [ 19.8325156, 60.2309098 ], [ 19.8369508, 60.2316941 ], [ 19.8346811, 60.2302988 ], [ 19.82975, 60.229 ], [ 19.829665, 60.2263511 ], [ 19.8263883, 60.2241011 ], [ 19.8141614, 60.2218129 ], [ 19.8163811, 60.2185897 ], [ 19.8169235, 60.215828 ], [ 19.8122039, 60.2154502 ], [ 19.81275, 60.2135 ], [ 19.81225, 60.21275 ], [ 19.81625, 60.21125 ], [ 19.8165, 60.21 ], [ 19.8184537, 60.2092962 ], [ 19.81975, 60.20975 ], [ 19.8250222, 60.2083398 ], [ 19.8209935, 60.2082505 ], [ 19.8250861, 60.2081284 ], [ 19.8264468, 60.2074233 ], [ 19.8202627, 60.2073528 ], [ 19.8206, 60.2019305 ], [ 19.8186885, 60.200517 ], [ 19.8160965, 60.2004908 ], [ 19.814909, 60.1997232 ], [ 19.8131691, 60.2009344 ], [ 19.813, 60.1995 ], [ 19.81175, 60.19875 ], [ 19.80825, 60.20125 ], [ 19.807, 60.2005 ], [ 19.8058262, 60.2010502 ], [ 19.8054371, 60.2001696 ], [ 19.8041487, 60.2001533 ], [ 19.8033512, 60.2003748 ], [ 19.8045458, 60.2003596 ], [ 19.80275, 60.204 ], [ 19.8028407, 60.207359 ], [ 19.8004794, 60.2123695 ], [ 19.7996721, 60.212557 ], [ 19.8017491, 60.216272 ], [ 19.7994106, 60.2165154 ], [ 19.7981181, 60.2190228 ], [ 19.7964508, 60.2201 ], [ 19.7984852, 60.2208176 ], [ 19.7985, 60.22175 ], [ 19.7994271, 60.222171 ], [ 19.7995351, 60.2231782 ], [ 19.7982217, 60.223999 ], [ 19.7995056, 60.225025 ], [ 19.7995608, 60.2291172 ], [ 19.7980446, 60.2312169 ], [ 19.7963828, 60.2314862 ], [ 19.7961163, 60.2330522 ], [ 19.7936319, 60.2340961 ], [ 19.7949341, 60.2350104 ], [ 19.79479, 60.2366737 ], [ 19.7956103, 60.2373573 ], [ 19.79475, 60.2395 ], [ 19.7930903, 60.2405327 ], [ 19.79425, 60.24175 ], [ 19.7925, 60.24125 ], [ 19.7905, 60.244 ], [ 19.792, 60.248 ], [ 19.7905, 60.251 ], [ 19.789, 60.2525 ], [ 19.788, 60.25175 ], [ 19.7845, 60.25375 ], [ 19.784, 60.252 ], [ 19.78175, 60.253 ], [ 19.77925, 60.25275 ], [ 19.78025, 60.251 ], [ 19.77975, 60.25 ], [ 19.78475, 60.24675 ], [ 19.782, 60.24475 ], [ 19.78275, 60.24375 ], [ 19.782, 60.243 ], [ 19.7785, 60.24425 ], [ 19.77875, 60.24525 ], [ 19.777, 60.246 ], [ 19.77775, 60.24725 ], [ 19.776, 60.2485 ], [ 19.7765, 60.249 ], [ 19.77075, 60.251 ], [ 19.77425, 60.25175 ], [ 19.7745, 60.2525 ], [ 19.7735, 60.25325 ], [ 19.77475, 60.254 ], [ 19.775, 60.25525 ], [ 19.7705, 60.2565 ], [ 19.7675, 60.25875 ], [ 19.7685, 60.2605 ], [ 19.77125, 60.261 ], [ 19.7716346, 60.2628196 ], [ 19.7695, 60.26425 ], [ 19.7685, 60.26325 ], [ 19.76625, 60.26425 ], [ 19.76625, 60.266 ], [ 19.76875, 60.26725 ], [ 19.769, 60.269 ], [ 19.76825, 60.27 ], [ 19.77125, 60.27025 ], [ 19.773, 60.27125 ], [ 19.772, 60.273 ], [ 19.774, 60.2745 ], [ 19.7755, 60.28 ], [ 19.777, 60.2815 ], [ 19.77675, 60.28225 ], [ 19.778566, 60.2855925 ], [ 19.7802408, 60.2855289 ], [ 19.7815088, 60.2845092 ], [ 19.7825279, 60.2851516 ], [ 19.7842085, 60.2868483 ], [ 19.7844128, 60.2901489 ], [ 19.7866734, 60.2903926 ], [ 19.7875, 60.29125 ], [ 19.78775, 60.29475 ], [ 19.78975, 60.296 ], [ 19.7935, 60.29625 ], [ 19.795, 60.29775 ], [ 19.79525, 60.2995 ], [ 19.7965, 60.301 ], [ 19.79575, 60.30225 ], [ 19.7965, 60.3025 ], [ 19.79575, 60.303 ], [ 19.797, 60.30625 ], [ 19.8, 60.3105 ], [ 19.7995, 60.31325 ], [ 19.8035, 60.3115 ], [ 19.80675, 60.3125 ], [ 19.8092846, 60.3144561 ], [ 19.808885, 60.3156192 ], [ 19.8097849, 60.3171366 ], [ 19.809, 60.3195 ], [ 19.803825, 60.3215813 ], [ 19.8026851, 60.3230356 ], [ 19.8021687, 60.3229304 ], [ 19.8029358, 60.3204875 ], [ 19.7992391, 60.3215082 ], [ 19.7977032, 60.3204367 ], [ 19.7975, 60.31925 ], [ 19.799, 60.317 ], [ 19.7989383, 60.315734 ], [ 19.7980769, 60.3157459 ], [ 19.7927718, 60.3199428 ], [ 19.7932827, 60.3209061 ], [ 19.7942362, 60.3208939 ], [ 19.796041, 60.3252469 ], [ 19.7943979, 60.3268444 ], [ 19.7907626, 60.3263607 ], [ 19.7904601, 60.3255905 ], [ 19.7873588, 60.3248754 ], [ 19.7862649, 60.3241345 ], [ 19.7865473, 60.3223423 ], [ 19.7843721, 60.3215264 ], [ 19.7830467, 60.3221235 ], [ 19.7833207, 60.3209545 ], [ 19.782235, 60.3194632 ], [ 19.7804444, 60.3200166 ], [ 19.7808876, 60.3240287 ], [ 19.7775896, 60.3255222 ], [ 19.7787765, 60.3270155 ], [ 19.7790112, 60.3310385 ], [ 19.7761754, 60.3314036 ], [ 19.7754018, 60.3328553 ], [ 19.7738906, 60.332039 ], [ 19.773357, 60.3302371 ], [ 19.7695327, 60.3305088 ], [ 19.7694844, 60.3284681 ], [ 19.7686824, 60.3287018 ], [ 19.7689748, 60.3279967 ], [ 19.7673011, 60.3269969 ], [ 19.76925, 60.3225 ], [ 19.766, 60.32175 ], [ 19.7665, 60.3235 ], [ 19.76575, 60.32425 ], [ 19.7606204, 60.326562 ], [ 19.7626045, 60.3297467 ], [ 19.7637378, 60.3352522 ], [ 19.7596192, 60.3351978 ], [ 19.7562879, 60.3368067 ], [ 19.7560894, 60.3375421 ], [ 19.7534421, 60.3374943 ], [ 19.7401196, 60.3337601 ], [ 19.7395027, 60.3330114 ], [ 19.7376761, 60.3335769 ], [ 19.7376278, 60.3312032 ], [ 19.7385317, 60.3323462 ], [ 19.7393754, 60.3320849 ], [ 19.7415584, 60.3306766 ], [ 19.740235, 60.330805 ], [ 19.7422257, 60.3299225 ], [ 19.7429209, 60.3277861 ], [ 19.7442679, 60.3269426 ], [ 19.746924, 60.327049 ], [ 19.7514707, 60.3253809 ], [ 19.7536822, 60.3218824 ], [ 19.7521627, 60.3209687 ], [ 19.7530317, 60.3208146 ], [ 19.7524926, 60.3200582 ], [ 19.7506084, 60.3189692 ], [ 19.7510335, 60.3170705 ], [ 19.7486016, 60.3179332 ], [ 19.7437071, 60.3169328 ], [ 19.742812, 60.3159527 ], [ 19.7468667, 60.3066922 ], [ 19.7461167, 60.3056922 ], [ 19.7468667, 60.3041922 ], [ 19.7483667, 60.3034422 ], [ 19.7496167, 60.3041922 ], [ 19.7508667, 60.3036922 ], [ 19.7548667, 60.3044422 ], [ 19.7548667, 60.3074422 ], [ 19.7556167, 60.3091922 ], [ 19.7566167, 60.3094422 ], [ 19.7598667, 60.3061922 ], [ 19.7631167, 60.3054422 ], [ 19.7646167, 60.3041922 ], [ 19.7636167, 60.3036922 ], [ 19.7666167, 60.3021922 ], [ 19.7658667, 60.3006922 ], [ 19.7646167, 60.3004422 ], [ 19.765339, 60.2987062 ], [ 19.7707441, 60.2992781 ], [ 19.7715783, 60.2990347 ], [ 19.7716625, 60.2981152 ], [ 19.7694823, 60.2979481 ], [ 19.7684963, 60.2966072 ], [ 19.7632001, 60.2959174 ], [ 19.7623608, 60.296979 ], [ 19.763978, 60.2977498 ], [ 19.7639185, 60.2987457 ], [ 19.7588667, 60.2984422 ], [ 19.7573667, 60.2991922 ], [ 19.7556167, 60.3021922 ], [ 19.7528667, 60.3029422 ], [ 19.7533667, 60.3024422 ], [ 19.7516167, 60.3001922 ], [ 19.7508667, 60.2971922 ], [ 19.7511167, 60.2954422 ], [ 19.7521167, 60.2949422 ], [ 19.7513667, 60.2946922 ], [ 19.7523667, 60.2939422 ], [ 19.7511167, 60.2931922 ], [ 19.7516167, 60.2919422 ], [ 19.7508667, 60.2916922 ], [ 19.7526167, 60.2889422 ], [ 19.7518667, 60.2871922 ], [ 19.7476167, 60.2836922 ], [ 19.7491167, 60.2816922 ], [ 19.7458667, 60.2809422 ], [ 19.7443667, 60.2821922 ], [ 19.7448667, 60.2864422 ], [ 19.7408667, 60.2861922 ], [ 19.7406167, 60.2844422 ], [ 19.7358667, 60.2846922 ], [ 19.7336167, 60.2856922 ], [ 19.7326167, 60.2891922 ], [ 19.7308667, 60.2889422 ], [ 19.7298667, 60.2896922 ], [ 19.7323667, 60.2924422 ], [ 19.7323667, 60.2941922 ], [ 19.7306167, 60.2979422 ], [ 19.7288667, 60.2966922 ], [ 19.7298667, 60.2959422 ], [ 19.7293667, 60.2949422 ], [ 19.7283667, 60.2946922 ], [ 19.7271167, 60.2926922 ], [ 19.7256167, 60.2924422 ], [ 19.7238667, 60.2941922 ], [ 19.7233667, 60.2976922 ], [ 19.7208667, 60.2989422 ], [ 19.7158667, 60.2984422 ], [ 19.7146167, 60.2959422 ], [ 19.7151167, 60.2954422 ], [ 19.7141167, 60.2924422 ], [ 19.7143667, 60.2896922 ], [ 19.7096167, 60.2896922 ], [ 19.7078667, 60.2914422 ], [ 19.7078667, 60.2934422 ], [ 19.7063667, 60.2931922 ], [ 19.7048667, 60.2909422 ], [ 19.7021167, 60.2909422 ], [ 19.7028667, 60.2889422 ], [ 19.7008667, 60.2891922 ], [ 19.7016167, 60.2861922 ], [ 19.7003667, 60.2854422 ], [ 19.7008667, 60.2826922 ], [ 19.7028667, 60.2821922 ], [ 19.7076167, 60.2771921 ], [ 19.7066167, 60.2749421 ], [ 19.7053667, 60.2746921 ], [ 19.7058123, 60.2741114 ], [ 19.7011167, 60.2716921 ], [ 19.7026167, 60.2686921 ], [ 19.7028819, 60.2644349 ], [ 19.7035347, 60.263683 ], [ 19.7003667, 60.2619421 ], [ 19.6948667, 60.2619421 ], [ 19.6928667, 60.2609421 ], [ 19.6888667, 60.2616921 ], [ 19.6873667, 60.2604421 ], [ 19.6798667, 60.2584421 ], [ 19.6771167, 60.2586921 ], [ 19.6748667, 60.2604421 ], [ 19.6753667, 60.2611921 ], [ 19.6788667, 60.2619421 ], [ 19.6908667, 60.2624421 ], [ 19.6928667, 60.2639421 ], [ 19.6928667, 60.2651921 ], [ 19.6918667, 60.2659421 ], [ 19.6863667, 60.2664421 ], [ 19.6793667, 60.2659421 ], [ 19.6773667, 60.2666921 ], [ 19.6788667, 60.2684421 ], [ 19.6823667, 60.2666921 ], [ 19.6903667, 60.2669421 ], [ 19.6938667, 60.2679421 ], [ 19.6946167, 60.2684421 ], [ 19.6948667, 60.2716921 ], [ 19.6926167, 60.2731921 ], [ 19.6951167, 60.2754421 ], [ 19.6961167, 60.2746921 ], [ 19.6963667, 60.2729421 ], [ 19.6988667, 60.2721921 ], [ 19.7003667, 60.2776921 ], [ 19.6996167, 60.2789421 ], [ 19.7001167, 60.2826922 ], [ 19.6991167, 60.2851922 ], [ 19.6973667, 60.2871922 ], [ 19.6946167, 60.2859422 ], [ 19.6946167, 60.2849422 ], [ 19.6931167, 60.2851922 ], [ 19.6923667, 60.2866922 ], [ 19.6948667, 60.2899422 ], [ 19.6973667, 60.2899422 ], [ 19.6976167, 60.2909422 ], [ 19.6946167, 60.2934422 ], [ 19.6898667, 60.2946922 ], [ 19.6866167, 60.2919422 ], [ 19.6866167, 60.2906922 ], [ 19.6828667, 60.2906922 ], [ 19.6818667, 60.2899422 ], [ 19.6823667, 60.2886922 ], [ 19.6788667, 60.2866922 ], [ 19.6798667, 60.2841922 ], [ 19.6791167, 60.2831922 ], [ 19.6808667, 60.2806922 ], [ 19.6791769, 60.2794859 ], [ 19.678092, 60.2800758 ], [ 19.6766687, 60.278977 ], [ 19.6776717, 60.2784427 ], [ 19.6771414, 60.2782272 ], [ 19.6750131, 60.2792581 ], [ 19.6759998, 60.2818354 ], [ 19.6756059, 60.2841213 ], [ 19.6741298, 60.2850472 ], [ 19.6746453, 60.2864688 ], [ 19.6739014, 60.2881331 ], [ 19.6775265, 60.2889263 ], [ 19.6794593, 60.2925123 ], [ 19.6783028, 60.293849 ], [ 19.67838, 60.2980976 ], [ 19.6743811, 60.2999972 ], [ 19.6689628, 60.3003635 ], [ 19.6691314, 60.2993799 ], [ 19.6669097, 60.2983296 ], [ 19.6610069, 60.298845 ], [ 19.6591458, 60.2998298 ], [ 19.6569279, 60.2994398 ], [ 19.655679, 60.3001922 ], [ 19.6562726, 60.3012088 ], [ 19.65805, 60.3017154 ], [ 19.6590121, 60.3040429 ], [ 19.6581743, 60.3050311 ], [ 19.6568923, 60.3051597 ], [ 19.6557459, 60.3041698 ], [ 19.6535541, 60.3046745 ], [ 19.6522385, 60.3038686 ], [ 19.6488323, 60.3043119 ], [ 19.6490282, 60.3025778 ], [ 19.6518383, 60.3008901 ], [ 19.6506167, 60.3004422 ], [ 19.6521552, 60.2991515 ], [ 19.6516525, 60.2969247 ], [ 19.6494912, 60.2976942 ], [ 19.6499662, 60.2991304 ], [ 19.6491722, 60.2998447 ], [ 19.6488697, 60.2988026 ], [ 19.6471448, 60.2991054 ], [ 19.6466375, 60.3008255 ], [ 19.6443702, 60.3012234 ], [ 19.6435371, 60.300829 ], [ 19.6443681, 60.2982068 ], [ 19.6436651, 60.295636 ], [ 19.642447, 60.2958969 ], [ 19.6419715, 60.294469 ], [ 19.639805, 60.2950583 ], [ 19.6346846, 60.2921906 ] ] ] } }
]
}
