{
"type": "FeatureCollection",
"name": "alderney",
"crs": { "type": "name", "properties": { "name": "urn:ogc:def:crs:OGC:1.3:CRS84" } },
"features": [
{ "type": "Feature", "properties": { }, "geometry": { "type": "Polygon", "coordinates": [ [ [ -2.2344302, 49.7094743 ], [ -2.2316499, 49.7085182 ], [ -2.2327809, 49.7071281 ], [ -2.2339474, 49.7071291 ], [ -2.2343832, 49.7059639 ], [ -2.232075, 49.7057317 ], [ -2.231172, 49.7048794 ], [ -2.2331476, 49.7046423 ], [ -2.2339052, 49.7037963 ], [ -2.2325773, 49.7042018 ], [ -2.2320891, 49.7037924 ], [ -2.2327792, 49.7034557 ], [ -2.2312116, 49.7030401 ], [ -2.2322125, 49.7019849 ], [ -2.23063, 49.7024983 ], [ -2.2281829, 49.7012924 ], [ -2.2274652, 49.7025856 ], [ -2.2258718, 49.7029771 ], [ -2.224378, 49.7019524 ], [ -2.222784, 49.7023651 ], [ -2.2218581, 49.7013017 ], [ -2.217151, 49.701519 ], [ -2.2168649, 49.7021897 ], [ -2.2164741, 49.7014844 ], [ -2.2134369, 49.7013727 ], [ -2.2092689, 49.7034965 ], [ -2.207272, 49.703456 ], [ -2.206273, 49.7047883 ], [ -2.2022902, 49.705527 ], [ -2.2019403, 49.706252 ], [ -2.1995717, 49.7063611 ], [ -2.1982913, 49.7056349 ], [ -2.1939187, 49.7069722 ], [ -2.1922809, 49.7067334 ], [ -2.1899875, 49.7084543 ], [ -2.1874503, 49.7090703 ], [ -2.1881854, 49.7106827 ], [ -2.1862295, 49.7104427 ], [ -2.1868145, 49.7111086 ], [ -2.1811195, 49.7126854 ], [ -2.1814306, 49.714755 ], [ -2.1788751, 49.7149664 ], [ -2.1782705, 49.7141017 ], [ -2.1768484, 49.7139565 ], [ -2.175265, 49.71473 ], [ -2.175248, 49.715755 ], [ -2.1728533, 49.7165954 ], [ -2.1728009, 49.7179499 ], [ -2.1755677, 49.7198968 ], [ -2.1750939, 49.7214377 ], [ -2.1718634, 49.7223432 ], [ -2.1658551, 49.7217959 ], [ -2.1627609, 49.7246024 ], [ -2.1615106, 49.7243946 ], [ -2.160637, 49.726161 ], [ -2.159645, 49.72641 ], [ -2.1593221, 49.7292753 ], [ -2.1622034, 49.7290558 ], [ -2.161826, 49.729811 ], [ -2.1662953, 49.7295497 ], [ -2.167309, 49.7302015 ], [ -2.1691046, 49.7290212 ], [ -2.1697679, 49.7304312 ], [ -2.1715238, 49.7285462 ], [ -2.1732376, 49.7285642 ], [ -2.1757946, 49.7301768 ], [ -2.1757801, 49.7309792 ], [ -2.1748621, 49.730977 ], [ -2.1755176, 49.7316279 ], [ -2.1767622, 49.7312871 ], [ -2.1765111, 49.7320573 ], [ -2.1775718, 49.7328279 ], [ -2.1786499, 49.7323686 ], [ -2.177473, 49.730847 ], [ -2.1778601, 49.7304502 ], [ -2.1803582, 49.7316111 ], [ -2.1791549, 49.7309364 ], [ -2.1799743, 49.730481 ], [ -2.1785064, 49.7300509 ], [ -2.1793264, 49.7289343 ], [ -2.1817346, 49.7287098 ], [ -2.1821696, 49.7297859 ], [ -2.1849909, 49.7303308 ], [ -2.1855488, 49.7297816 ], [ -2.1842807, 49.728684 ], [ -2.186169, 49.7280142 ], [ -2.1857125, 49.7269993 ], [ -2.1871214, 49.7278995 ], [ -2.1867019, 49.7270529 ], [ -2.1884593, 49.727524 ], [ -2.188193, 49.7260861 ], [ -2.1856074, 49.724503 ], [ -2.1861449, 49.7230617 ], [ -2.1895067, 49.7213144 ], [ -2.1934343, 49.7209056 ], [ -2.1985108, 49.7216823 ], [ -2.1993116, 49.7232703 ], [ -2.198071, 49.7230865 ], [ -2.2001344, 49.7238543 ], [ -2.1998945, 49.7256208 ], [ -2.2006136, 49.7241506 ], [ -2.2028486, 49.723575 ], [ -2.2030076, 49.7241549 ], [ -2.2020928, 49.7241364 ], [ -2.2033091, 49.7248414 ], [ -2.202805, 49.7260394 ], [ -2.1945927, 49.7304286 ], [ -2.2043584, 49.7254239 ], [ -2.2052677, 49.7257158 ], [ -2.204973, 49.7242153 ], [ -2.2061887, 49.7245422 ], [ -2.2038367, 49.7223587 ], [ -2.2048669, 49.7214095 ], [ -2.2064939, 49.7212503 ], [ -2.2061549, 49.7216521 ], [ -2.2078925, 49.7224774 ], [ -2.20884, 49.7222488 ], [ -2.2082372, 49.7219499 ], [ -2.208613, 49.7213459 ], [ -2.2112263, 49.7207878 ], [ -2.2208425, 49.7203986 ], [ -2.2222039, 49.7159465 ], [ -2.2252397, 49.7143063 ], [ -2.2283736, 49.7139531 ], [ -2.229014, 49.7116926 ], [ -2.2325673, 49.7099394 ], [ -2.232225, 49.7093771 ], [ -2.2344302, 49.7094743 ] ] ] } }
]
}
