{
"type": "FeatureCollection",
"name": "anglesey",
"crs": { "type": "name", "properties": { "name": "urn:ogc:def:crs:OGC:1.3:CRS84" } },
"features": [
{ "type": "Feature", "properties": { }, "geometry": { "type": "Polygon", "coordinates": [ [ [ -4.5885435, 53.2813403 ], [ -4.586785, 53.2797952 ], [ -4.5871788, 53.2787598 ], [ -4.5866178, 53.2783735 ], [ -4.5843388, 53.2791863 ], [ -4.5845059, 53.2806736 ], [ -4.5823536, 53.2805961 ], [ -4.5818876, 53.2787419 ], [ -4.5824625, 53.2791998 ], [ -4.5840059, 53.2776723 ], [ -4.5830797, 53.2776715 ], [ -4.5823802, 53.2759846 ], [ -4.5788778, 53.2743226 ], [ -4.5773506, 53.2741346 ], [ -4.5750517, 53.2754873 ], [ -4.5739961, 53.2751106 ], [ -4.5740388, 53.2732046 ], [ -4.5718103, 53.2743305 ], [ -4.5724861, 53.2736666 ], [ -4.5720691, 53.2730753 ], [ -4.5695831, 53.2723731 ], [ -4.5646862, 53.2758171 ], [ -4.5656955, 53.273903 ], [ -4.5667717, 53.2738134 ], [ -4.5659288, 53.2734989 ], [ -4.5662266, 53.272112 ], [ -4.5643235, 53.2717068 ], [ -4.5653477, 53.2707995 ], [ -4.5665073, 53.2709647 ], [ -4.5664278, 53.2685052 ], [ -4.5644827, 53.2676389 ], [ -4.5627774, 53.2682731 ], [ -4.5630328, 53.2663446 ], [ -4.5587967, 53.2640035 ], [ -4.5544172, 53.2674867 ], [ -4.5528129, 53.265439 ], [ -4.5506528, 53.2643899 ], [ -4.5546151, 53.265451 ], [ -4.5580538, 53.25991 ], [ -4.560192, 53.2591865 ], [ -4.5557873, 53.2576938 ], [ -4.5522027, 53.2551297 ], [ -4.5484598, 53.2544542 ], [ -4.5523258, 53.2531641 ], [ -4.5528785, 53.2501131 ], [ -4.5553513, 53.2495846 ], [ -4.551886, 53.2475852 ], [ -4.5517577, 53.2462016 ], [ -4.539967, 53.2415886 ], [ -4.5372083, 53.2394176 ], [ -4.5365285, 53.2373593 ], [ -4.5245893, 53.2347151 ], [ -4.5220297, 53.2320751 ], [ -4.522345, 53.2313727 ], [ -4.5210704, 53.231567 ], [ -4.5224523, 53.2307835 ], [ -4.523698, 53.228245 ], [ -4.5240776, 53.2267171 ], [ -4.5231764, 53.2251467 ], [ -4.5237396, 53.2243567 ], [ -4.5154814, 53.2228399 ], [ -4.5116674, 53.2207501 ], [ -4.510126, 53.218681 ], [ -4.5040418, 53.2157527 ], [ -4.5010529, 53.2113954 ], [ -4.504904, 53.20978 ], [ -4.505491, 53.208235 ], [ -4.5047607, 53.2066038 ], [ -4.4991334, 53.2073685 ], [ -4.4984575, 53.2064753 ], [ -4.5003457, 53.2053377 ], [ -4.4995995, 53.2041473 ], [ -4.500742, 53.203804 ], [ -4.5012008, 53.2018705 ], [ -4.5029243, 53.2008762 ], [ -4.5036162, 53.1989101 ], [ -4.5045372, 53.1987992 ], [ -4.5034047, 53.1981666 ], [ -4.5061543, 53.1965925 ], [ -4.5052806, 53.1948334 ], [ -4.5064074, 53.1949968 ], [ -4.506545, 53.193307 ], [ -4.5046654, 53.1922304 ], [ -4.5043727, 53.191225 ], [ -4.5059758, 53.1890009 ], [ -4.5047361, 53.187523 ], [ -4.4985942, 53.1867731 ], [ -4.4981659, 53.1857543 ], [ -4.4954175, 53.1866682 ], [ -4.4956998, 53.1861072 ], [ -4.494694, 53.186208 ], [ -4.4917073, 53.1876353 ], [ -4.4882582, 53.1865809 ], [ -4.4863939, 53.1848783 ], [ -4.4882625, 53.1830028 ], [ -4.4897564, 53.1826292 ], [ -4.4892927, 53.1815911 ], [ -4.4898761, 53.1808167 ], [ -4.4888199, 53.1801446 ], [ -4.4895545, 53.1789818 ], [ -4.4872029, 53.1787894 ], [ -4.4863809, 53.1772885 ], [ -4.4807549, 53.1807967 ], [ -4.4755205, 53.1800754 ], [ -4.4733472, 53.1816587 ], [ -4.4712683, 53.181687 ], [ -4.470194, 53.1824945 ], [ -4.4668889, 53.1822194 ], [ -4.4662703, 53.1831727 ], [ -4.4670845, 53.1834666 ], [ -4.467447, 53.1851728 ], [ -4.4629391, 53.1903992 ], [ -4.4626932, 53.1921562 ], [ -4.461993, 53.1920333 ], [ -4.462011, 53.1907275 ], [ -4.4652145, 53.1876738 ], [ -4.4668197, 53.18417 ], [ -4.4581026, 53.1790266 ], [ -4.4589741, 53.1753654 ], [ -4.4570802, 53.1734115 ], [ -4.4561468, 53.1708069 ], [ -4.4526915, 53.1710988 ], [ -4.4527945, 53.1685056 ], [ -4.4502127, 53.1679019 ], [ -4.453857, 53.164295 ], [ -4.4537782, 53.1635069 ], [ -4.4507196, 53.1648469 ], [ -4.447848, 53.163087 ], [ -4.448445, 53.161799 ], [ -4.4475565, 53.1612486 ], [ -4.4449949, 53.1623629 ], [ -4.4441703, 53.1617348 ], [ -4.4457199, 53.1604054 ], [ -4.4427838, 53.1609303 ], [ -4.4425049, 53.15963 ], [ -4.4408528, 53.1597478 ], [ -4.4425662, 53.1576103 ], [ -4.4407337, 53.1578398 ], [ -4.4440075, 53.1558695 ], [ -4.4434401, 53.1550885 ], [ -4.4370697, 53.1579423 ], [ -4.4359984, 53.1593242 ], [ -4.4308517, 53.1592944 ], [ -4.4284339, 53.160444 ], [ -4.4277696, 53.1616792 ], [ -4.4283903, 53.1621474 ], [ -4.4263017, 53.1647475 ], [ -4.4267748, 53.1652764 ], [ -4.4211555, 53.1684122 ], [ -4.4189565, 53.1681194 ], [ -4.4142155, 53.1709865 ], [ -4.4123933, 53.1730386 ], [ -4.4129327, 53.1743584 ], [ -4.411091, 53.1785085 ], [ -4.4065592, 53.1791933 ], [ -4.4019418, 53.1814112 ], [ -4.4013188, 53.183371 ], [ -4.3947686, 53.1888293 ], [ -4.3756191, 53.1953344 ], [ -4.370775, 53.1980435 ], [ -4.3621061, 53.1995538 ], [ -4.3565861, 53.2017646 ], [ -4.3468777, 53.2026216 ], [ -4.3559746, 53.2017196 ], [ -4.3622563, 53.1993385 ], [ -4.3703512, 53.1979792 ], [ -4.3755274, 53.1950421 ], [ -4.3848437, 53.1916538 ], [ -4.385275, 53.1911449 ], [ -4.3805338, 53.1825843 ], [ -4.3814811, 53.1802788 ], [ -4.3820595, 53.1817697 ], [ -4.3851382, 53.1812314 ], [ -4.3898526, 53.1741531 ], [ -4.3881245, 53.1731526 ], [ -4.3896797, 53.1732783 ], [ -4.3895812, 53.1723992 ], [ -4.390418, 53.1719409 ], [ -4.3901818, 53.171795 ], [ -4.3901564, 53.1709374 ], [ -4.3904185, 53.1706144 ], [ -4.3899753, 53.1703297 ], [ -4.3905087, 53.1706582 ], [ -4.3903826, 53.1718374 ], [ -4.3916364, 53.1711761 ], [ -4.3915727, 53.1706834 ], [ -4.3907506, 53.1702519 ], [ -4.3907805, 53.1700725 ], [ -4.3910736, 53.1700115 ], [ -4.3914645, 53.1701224 ], [ -4.3907972, 53.1701668 ], [ -4.3914624, 53.1705077 ], [ -4.3917074, 53.1708194 ], [ -4.3916507, 53.1713197 ], [ -4.3899759, 53.172756 ], [ -4.390244, 53.173711 ], [ -4.3948673, 53.1751916 ], [ -4.3999081, 53.1744543 ], [ -4.4007431, 53.1738419 ], [ -4.400567, 53.172711 ], [ -4.3976368, 53.1720307 ], [ -4.3990146, 53.1698586 ], [ -4.4090609, 53.1654927 ], [ -4.4130666, 53.1653686 ], [ -4.4150576, 53.166892 ], [ -4.4176489, 53.1646526 ], [ -4.4183014, 53.1605478 ], [ -4.4162345, 53.1563089 ], [ -4.4076044, 53.1454571 ], [ -4.4075302, 53.1437363 ], [ -4.399246, 53.145093 ], [ -4.3853387, 53.1428352 ], [ -4.3799178, 53.1412745 ], [ -4.3597276, 53.1318397 ], [ -4.3364823, 53.1290027 ], [ -4.328994, 53.1263741 ], [ -4.3275498, 53.1267812 ], [ -4.3272329, 53.127764 ], [ -4.3290816, 53.1295364 ], [ -4.3356063, 53.1301756 ], [ -4.3425356, 53.1343236 ], [ -4.3424886, 53.1352534 ], [ -4.3398267, 53.1371857 ], [ -4.3416294, 53.1376564 ], [ -4.3417338, 53.1383471 ], [ -4.3370491, 53.1422851 ], [ -4.3375449, 53.1427562 ], [ -4.3357568, 53.1452982 ], [ -4.3366489, 53.1445368 ], [ -4.3357718, 53.145865 ], [ -4.3363777, 53.1473548 ], [ -4.3400002, 53.147973 ], [ -4.3408777, 53.148634 ], [ -4.3388973, 53.151114 ], [ -4.3385071, 53.1527487 ], [ -4.3389998, 53.1526885 ], [ -4.3393417, 53.1531889 ], [ -4.3387736, 53.1527537 ], [ -4.3342921, 53.1548255 ], [ -4.3378964, 53.1525343 ], [ -4.3400238, 53.1492865 ], [ -4.3397604, 53.1483085 ], [ -4.3284187, 53.147001 ], [ -4.3238586, 53.1484398 ], [ -4.3220058, 53.1472648 ], [ -4.3249872, 53.1454477 ], [ -4.3230299, 53.1444465 ], [ -4.3167311, 53.1443412 ], [ -4.3032181, 53.1471918 ], [ -4.2824351, 53.1557653 ], [ -4.273758, 53.165076 ], [ -4.2657525, 53.1669891 ], [ -4.2564755, 53.1734996 ], [ -4.248699, 53.175718 ], [ -4.24454, 53.179348 ], [ -4.236499, 53.181481 ], [ -4.231375, 53.181278 ], [ -4.222549, 53.185853 ], [ -4.2187, 53.185508 ], [ -4.217887, 53.186926 ], [ -4.219395, 53.187423 ], [ -4.216042, 53.189507 ], [ -4.215666, 53.191304 ], [ -4.214018, 53.193371 ], [ -4.215471, 53.199505 ], [ -4.214741, 53.203868 ], [ -4.211675, 53.208638 ], [ -4.2079823, 53.2118492 ], [ -4.204992, 53.21383 ], [ -4.201596, 53.214505 ], [ -4.202382, 53.2155127 ], [ -4.1955231, 53.2165468 ], [ -4.1911355, 53.2161723 ], [ -4.1860827, 53.2173168 ], [ -4.1860329, 53.2182727 ], [ -4.1854817, 53.2177486 ], [ -4.1852945, 53.2188013 ], [ -4.1834698, 53.2196938 ], [ -4.182988, 53.2207844 ], [ -4.179768, 53.2220791 ], [ -4.1781071, 53.2236869 ], [ -4.1731247, 53.2238446 ], [ -4.1721129, 53.2247806 ], [ -4.1708874, 53.2242761 ], [ -4.1711672, 53.2249952 ], [ -4.1705362, 53.2251663 ], [ -4.1694199, 53.2239591 ], [ -4.1720576, 53.2230208 ], [ -4.1713617, 53.222089 ], [ -4.1699282, 53.2233208 ], [ -4.1685188, 53.2218373 ], [ -4.1660202, 53.2209559 ], [ -4.1634255, 53.2212713 ], [ -4.1607247, 53.2238587 ], [ -4.1611635, 53.2247435 ], [ -4.1602215, 53.2266186 ], [ -4.1596785, 53.2261503 ], [ -4.1566082, 53.2270335 ], [ -4.1579243, 53.2276645 ], [ -4.1600618, 53.2266458 ], [ -4.1593412, 53.2276909 ], [ -4.1606201, 53.2283809 ], [ -4.1587333, 53.2294283 ], [ -4.1581315, 53.232581 ], [ -4.1583434, 53.2336203 ], [ -4.1590889, 53.2337387 ], [ -4.1592291, 53.233876 ], [ -4.1582151, 53.2336903 ], [ -4.1565695, 53.2324776 ], [ -4.1544755, 53.2329438 ], [ -4.1510517, 53.2345948 ], [ -4.151476, 53.2350978 ], [ -4.143301, 53.2370829 ], [ -4.1389747, 53.240309 ], [ -4.1300795, 53.244044 ], [ -4.1287655, 53.243956 ], [ -4.1274238, 53.2458168 ], [ -4.1241802, 53.2474096 ], [ -4.1206647, 53.2480377 ], [ -4.1171766, 53.2499569 ], [ -4.1100635, 53.2520563 ], [ -4.1055054, 53.2546594 ], [ -4.100684, 53.2547193 ], [ -4.1023137, 53.2554853 ], [ -4.1027431, 53.2567923 ], [ -4.0980448, 53.2610803 ], [ -4.0919544, 53.2624943 ], [ -4.0906647, 53.2617664 ], [ -4.0871077, 53.2633825 ], [ -4.0858531, 53.2654649 ], [ -4.0861502, 53.2748341 ], [ -4.0758191, 53.2811136 ], [ -4.0718655, 53.2895263 ], [ -4.065621, 53.2945956 ], [ -4.0587908, 53.2954429 ], [ -4.0573791, 53.2971988 ], [ -4.057808, 53.3012866 ], [ -4.056592, 53.3017573 ], [ -4.0558896, 53.3032399 ], [ -4.0523932, 53.3044401 ], [ -4.0459047, 53.3050012 ], [ -4.0433726, 53.3084407 ], [ -4.0411378, 53.3093011 ], [ -4.0401569, 53.3105874 ], [ -4.0414596, 53.3121951 ], [ -4.0424529, 53.311359 ], [ -4.0454448, 53.3113931 ], [ -4.0466915, 53.3122869 ], [ -4.0530897, 53.3131757 ], [ -4.0569384, 53.3148751 ], [ -4.0621416, 53.3140145 ], [ -4.0627733, 53.3132469 ], [ -4.0646762, 53.3140114 ], [ -4.0647066, 53.3132413 ], [ -4.0711287, 53.3121563 ], [ -4.0833705, 53.3136703 ], [ -4.0898873, 53.3158636 ], [ -4.090125, 53.3150666 ], [ -4.091972, 53.3148227 ], [ -4.0930898, 53.3162607 ], [ -4.0952618, 53.3159465 ], [ -4.0984221, 53.3178284 ], [ -4.1056457, 53.317961 ], [ -4.1095313, 53.3192094 ], [ -4.1196954, 53.3191685 ], [ -4.1300105, 53.3156169 ], [ -4.1350085, 53.3147358 ], [ -4.1366787, 53.3130399 ], [ -4.1368067, 53.3117565 ], [ -4.1411221, 53.3100793 ], [ -4.1433426, 53.3053001 ], [ -4.1619079, 53.3030677 ], [ -4.1719996, 53.3030647 ], [ -4.174031, 53.3012466 ], [ -4.1785639, 53.3000769 ], [ -4.1813729, 53.3001856 ], [ -4.1848731, 53.298371 ], [ -4.1940714, 53.2979692 ], [ -4.1991529, 53.2967761 ], [ -4.2012291, 53.2954979 ], [ -4.2000443, 53.2950648 ], [ -4.201014, 53.2951497 ], [ -4.200565, 53.2945067 ], [ -4.2020449, 53.294167 ], [ -4.2020817, 53.2936611 ], [ -4.2026781, 53.2930383 ], [ -4.204073, 53.292228 ], [ -4.2022949, 53.2941935 ], [ -4.2011803, 53.2944224 ], [ -4.2013095, 53.2954281 ], [ -4.2102415, 53.2962794 ], [ -4.2131078, 53.2980858 ], [ -4.2136235, 53.2979619 ], [ -4.2141577, 53.2979584 ], [ -4.2134995, 53.298056 ], [ -4.2145049, 53.2987809 ], [ -4.2130602, 53.3009433 ], [ -4.2132414, 53.3019205 ], [ -4.2114069, 53.303703 ], [ -4.2080472, 53.3055249 ], [ -4.2082216, 53.3041938 ], [ -4.2073594, 53.3052859 ], [ -4.2074072, 53.3065475 ], [ -4.204758, 53.3104879 ], [ -4.2042528, 53.3137922 ], [ -4.2054399, 53.3148962 ], [ -4.2087247, 53.3151688 ], [ -4.2190956, 53.3190038 ], [ -4.2199442, 53.3202902 ], [ -4.2200315, 53.3233106 ], [ -4.2208821, 53.3240473 ], [ -4.2199486, 53.3250105 ], [ -4.2215952, 53.3278769 ], [ -4.2213488, 53.329436 ], [ -4.2240525, 53.331828 ], [ -4.2234859, 53.3342591 ], [ -4.2247238, 53.3379453 ], [ -4.2261879, 53.3380721 ], [ -4.2271591, 53.336762 ], [ -4.2287874, 53.3373199 ], [ -4.2303167, 53.3367381 ], [ -4.2318357, 53.3376078 ], [ -4.2324407, 53.3397012 ], [ -4.2338455, 53.3406046 ], [ -4.2319413, 53.3417225 ], [ -4.2325146, 53.3422121 ], [ -4.230973, 53.3424378 ], [ -4.2319218, 53.3421628 ], [ -4.2313539, 53.3416764 ], [ -4.2284546, 53.3438659 ], [ -4.2296984, 53.3458329 ], [ -4.2313978, 53.3462266 ], [ -4.231194, 53.3470432 ], [ -4.2355477, 53.3478508 ], [ -4.2360191, 53.3525519 ], [ -4.2335431, 53.3531009 ], [ -4.2316293, 53.3551264 ], [ -4.2296126, 53.3555933 ], [ -4.2303268, 53.3561275 ], [ -4.2300559, 53.3577319 ], [ -4.2312402, 53.358251 ], [ -4.2319353, 53.3575754 ], [ -4.237752, 53.3570754 ], [ -4.2440665, 53.3599875 ], [ -4.2471521, 53.3605893 ], [ -4.2500778, 53.3597644 ], [ -4.2508194, 53.3602898 ], [ -4.2503858, 53.3612321 ], [ -4.2566955, 53.3591444 ], [ -4.2647697, 53.3607938 ], [ -4.2645722, 53.3616894 ], [ -4.2659459, 53.3629633 ], [ -4.2660401, 53.3640885 ], [ -4.2644818, 53.3652033 ], [ -4.2654968, 53.3665137 ], [ -4.2640118, 53.3671897 ], [ -4.2661719, 53.3679282 ], [ -4.266754, 53.3699436 ], [ -4.2726018, 53.3724873 ], [ -4.2731496, 53.3732599 ], [ -4.2722925, 53.374668 ], [ -4.2771228, 53.3749166 ], [ -4.279984, 53.3760739 ], [ -4.2815798, 53.3754671 ], [ -4.279824, 53.3741773 ], [ -4.2778483, 53.3742294 ], [ -4.278126, 53.373067 ], [ -4.2763493, 53.3710439 ], [ -4.2874046, 53.3651313 ], [ -4.2909365, 53.3655761 ], [ -4.2906971, 53.3675001 ], [ -4.294014, 53.3665305 ], [ -4.294944, 53.3659624 ], [ -4.2952224, 53.3646714 ], [ -4.2956847, 53.3646051 ], [ -4.2950819, 53.3659831 ], [ -4.2942553, 53.3665447 ], [ -4.2901579, 53.3680131 ], [ -4.2905533, 53.368762 ], [ -4.2878922, 53.3699599 ], [ -4.2870295, 53.3718156 ], [ -4.2825217, 53.3757583 ], [ -4.2777159, 53.3779172 ], [ -4.2779645, 53.3801223 ], [ -4.2735065, 53.383061 ], [ -4.2701176, 53.3866202 ], [ -4.2693721, 53.3905291 ], [ -4.2710694, 53.392125 ], [ -4.2702464, 53.3955175 ], [ -4.274591, 53.3973606 ], [ -4.2756728, 53.398578 ], [ -4.2760998, 53.4007159 ], [ -4.273761, 53.4016829 ], [ -4.2745507, 53.4021596 ], [ -4.2740424, 53.4023329 ], [ -4.2777774, 53.4040985 ], [ -4.2768499, 53.4045343 ], [ -4.2787852, 53.4054737 ], [ -4.2846816, 53.4069928 ], [ -4.284827, 53.4082181 ], [ -4.2840364, 53.4086828 ], [ -4.2852522, 53.4093572 ], [ -4.2835234, 53.4096663 ], [ -4.283875, 53.4104434 ], [ -4.2832563, 53.4108311 ], [ -4.2848255, 53.4116835 ], [ -4.2855021, 53.4139497 ], [ -4.2879874, 53.4150198 ], [ -4.288273, 53.4160495 ], [ -4.2870857, 53.4166457 ], [ -4.2874026, 53.417081 ], [ -4.2913902, 53.4175279 ], [ -4.2904425, 53.4158857 ], [ -4.2912338, 53.4146406 ], [ -4.2899161, 53.412638 ], [ -4.2903065, 53.411629 ], [ -4.2919989, 53.4119279 ], [ -4.2930072, 53.4110532 ], [ -4.2939527, 53.4114 ], [ -4.2937154, 53.4124812 ], [ -4.2972569, 53.4141677 ], [ -4.3027149, 53.414557 ], [ -4.3036555, 53.4130563 ], [ -4.3162438, 53.41664 ], [ -4.3179377, 53.4161439 ], [ -4.3221529, 53.4172615 ], [ -4.3245079, 53.4167886 ], [ -4.3237719, 53.4173966 ], [ -4.3252699, 53.4183447 ], [ -4.3272771, 53.4176196 ], [ -4.3267528, 53.4171965 ], [ -4.3322475, 53.4161015 ], [ -4.3312277, 53.4157413 ], [ -4.3330776, 53.4153654 ], [ -4.3343812, 53.4132656 ], [ -4.3332674, 53.4161251 ], [ -4.3316109, 53.4167183 ], [ -4.3330934, 53.4166842 ], [ -4.3341532, 53.4179742 ], [ -4.3387883, 53.4195872 ], [ -4.340457, 53.4193882 ], [ -4.3422464, 53.4171971 ], [ -4.3517745, 53.4163922 ], [ -4.35372, 53.4156861 ], [ -4.3527877, 53.4153914 ], [ -4.3537551, 53.4148437 ], [ -4.3558389, 53.4149167 ], [ -4.3563559, 53.4141962 ], [ -4.3569365, 53.4149814 ], [ -4.3632416, 53.4165218 ], [ -4.3622204, 53.4171021 ], [ -4.3656993, 53.4177954 ], [ -4.366212, 53.4202707 ], [ -4.3676566, 53.4208122 ], [ -4.3669482, 53.4212148 ], [ -4.3691827, 53.421431 ], [ -4.3702278, 53.4223749 ], [ -4.3671913, 53.4231318 ], [ -4.3681925, 53.4240406 ], [ -4.3714014, 53.4246591 ], [ -4.3745103, 53.424589 ], [ -4.3745695, 53.4239498 ], [ -4.3762023, 53.4253277 ], [ -4.3795406, 53.4260497 ], [ -4.3802386, 53.4259081 ], [ -4.3794629, 53.4254407 ], [ -4.3825967, 53.4248848 ], [ -4.3821847, 53.4244606 ], [ -4.3919373, 53.4249464 ], [ -4.3956921, 53.4259865 ], [ -4.3967384, 53.42524 ], [ -4.3962891, 53.4240496 ], [ -4.3974156, 53.4242491 ], [ -4.3966569, 53.4238453 ], [ -4.3973933, 53.4237181 ], [ -4.3970284, 53.4228091 ], [ -4.3995196, 53.4229606 ], [ -4.3996308, 53.4217824 ], [ -4.4025677, 53.4209039 ], [ -4.4068732, 53.4228909 ], [ -4.4057144, 53.4239811 ], [ -4.4063534, 53.4245005 ], [ -4.405822, 53.4253699 ], [ -4.4043392, 53.4259365 ], [ -4.4052408, 53.4273098 ], [ -4.4079243, 53.4276577 ], [ -4.409837, 53.4273306 ], [ -4.4098262, 53.4265356 ], [ -4.4142024, 53.4268651 ], [ -4.4198665, 53.4260833 ], [ -4.4192775, 53.426819 ], [ -4.4200081, 53.4275564 ], [ -4.4258487, 53.4300717 ], [ -4.429457, 53.4290659 ], [ -4.4278086, 53.4285124 ], [ -4.4278888, 53.4274663 ], [ -4.4360682, 53.4280573 ], [ -4.4380785, 53.4265444 ], [ -4.4416019, 53.4265353 ], [ -4.4425313, 53.4257053 ], [ -4.4412859, 53.4250133 ], [ -4.4416327, 53.4245252 ], [ -4.4489562, 53.4238934 ], [ -4.4509538, 53.4228508 ], [ -4.4464886, 53.4223895 ], [ -4.4454903, 53.4212334 ], [ -4.4475517, 53.4195176 ], [ -4.4516403, 53.4194264 ], [ -4.4513494, 53.4186089 ], [ -4.4526527, 53.4179545 ], [ -4.447378, 53.4156761 ], [ -4.4477502, 53.414532 ], [ -4.4502012, 53.4128758 ], [ -4.4509691, 53.4138883 ], [ -4.4500434, 53.4141938 ], [ -4.4546598, 53.414563 ], [ -4.4541043, 53.415985 ], [ -4.4549112, 53.4163037 ], [ -4.4606441, 53.4156251 ], [ -4.4629128, 53.4164459 ], [ -4.4661092, 53.4147274 ], [ -4.4676752, 53.4147427 ], [ -4.4687671, 53.415498 ], [ -4.4677419, 53.4166213 ], [ -4.4756482, 53.4184343 ], [ -4.4752535, 53.4193596 ], [ -4.4719267, 53.420645 ], [ -4.4716535, 53.4216954 ], [ -4.478114, 53.4222149 ], [ -4.4795829, 53.4216701 ], [ -4.4788174, 53.421499 ], [ -4.478745, 53.4205142 ], [ -4.4808693, 53.4197229 ], [ -4.4803796, 53.4184359 ], [ -4.483347, 53.4190115 ], [ -4.4827947, 53.4194716 ], [ -4.4837477, 53.4197611 ], [ -4.4858584, 53.4191019 ], [ -4.4848505, 53.4182849 ], [ -4.4871101, 53.4170825 ], [ -4.4864885, 53.4167546 ], [ -4.4878551, 53.4166785 ], [ -4.4864036, 53.4162286 ], [ -4.4893992, 53.415034 ], [ -4.4873127, 53.4137585 ], [ -4.4886854, 53.4120904 ], [ -4.4917724, 53.4125826 ], [ -4.492301, 53.4114263 ], [ -4.4932234, 53.4115363 ], [ -4.4943664, 53.4121443 ], [ -4.4939504, 53.4126962 ], [ -4.4977069, 53.4137963 ], [ -4.5022983, 53.4125713 ], [ -4.5043636, 53.4090805 ], [ -4.5082534, 53.4091391 ], [ -4.5115257, 53.4102227 ], [ -4.5140525, 53.4120655 ], [ -4.5131213, 53.4124 ], [ -4.5139431, 53.4139433 ], [ -4.5109036, 53.4153647 ], [ -4.5097956, 53.4162822 ], [ -4.5101433, 53.4168002 ], [ -4.5136124, 53.4158753 ], [ -4.5202067, 53.4121018 ], [ -4.5261623, 53.4121863 ], [ -4.5283447, 53.4111129 ], [ -4.5288873, 53.4091849 ], [ -4.527814, 53.407358 ], [ -4.5298826, 53.4060458 ], [ -4.532636, 53.4074089 ], [ -4.5369227, 53.4059839 ], [ -4.5450112, 53.4057936 ], [ -4.5475459, 53.4065099 ], [ -4.5513332, 53.4040938 ], [ -4.5537472, 53.4045048 ], [ -4.5545623, 53.4038033 ], [ -4.5603072, 53.4052281 ], [ -4.5616833, 53.4072522 ], [ -4.5627472, 53.4073146 ], [ -4.5634347, 53.406941 ], [ -4.5626288, 53.4061706 ], [ -4.5654619, 53.4067543 ], [ -4.5646691, 53.406291 ], [ -4.5702535, 53.4053091 ], [ -4.5681855, 53.4049699 ], [ -4.5686308, 53.4046372 ], [ -4.5742309, 53.4036741 ], [ -4.5746311, 53.4022253 ], [ -4.5752921, 53.4022535 ], [ -4.5748433, 53.4011172 ], [ -4.5757161, 53.4009354 ], [ -4.5755367, 53.3994764 ], [ -4.570003, 53.3980295 ], [ -4.5714688, 53.3973238 ], [ -4.5701305, 53.3967241 ], [ -4.5712153, 53.3962956 ], [ -4.5699127, 53.3949397 ], [ -4.5716912, 53.3949464 ], [ -4.569626, 53.3941957 ], [ -4.5712441, 53.3934839 ], [ -4.5722003, 53.3916261 ], [ -4.568456, 53.3914837 ], [ -4.5651733, 53.3903278 ], [ -4.5648839, 53.3898699 ], [ -4.5659808, 53.3898001 ], [ -4.5644968, 53.3890458 ], [ -4.5652724, 53.3885486 ], [ -4.564595, 53.3879781 ], [ -4.5668232, 53.3863129 ], [ -4.5674164, 53.3843172 ], [ -4.5651311, 53.3823909 ], [ -4.5629415, 53.3820129 ], [ -4.5634438, 53.3814782 ], [ -4.5623315, 53.3802335 ], [ -4.5636368, 53.3788953 ], [ -4.5633156, 53.3777902 ], [ -4.5579608, 53.376918 ], [ -4.5551125, 53.3738083 ], [ -4.5574205, 53.371551 ], [ -4.5572793, 53.3688572 ], [ -4.5585248, 53.3677199 ], [ -4.5572204, 53.3665432 ], [ -4.5589858, 53.3661653 ], [ -4.5584216, 53.365243 ], [ -4.5598051, 53.3615366 ], [ -4.561147, 53.3605166 ], [ -4.561257, 53.3589369 ], [ -4.5668817, 53.3572082 ], [ -4.565819, 53.3555195 ], [ -4.5693486, 53.3536295 ], [ -4.5657965, 53.3515168 ], [ -4.5664834, 53.3496345 ], [ -4.5700832, 53.346702 ], [ -4.5698837, 53.3452923 ], [ -4.5682865, 53.3452774 ], [ -4.5669972, 53.3441255 ], [ -4.5717545, 53.3401079 ], [ -4.5697074, 53.3391373 ], [ -4.5696642, 53.3370904 ], [ -4.5745628, 53.3331674 ], [ -4.5765233, 53.3337892 ], [ -4.5785306, 53.33324 ], [ -4.5813205, 53.3343102 ], [ -4.5808696, 53.3334857 ], [ -4.5844348, 53.3312088 ], [ -4.5810595, 53.3286536 ], [ -4.582806, 53.3256733 ], [ -4.5800748, 53.3253237 ], [ -4.5785813, 53.3240995 ], [ -4.5722475, 53.3243059 ], [ -4.5701105, 53.3218799 ], [ -4.5709672, 53.3192203 ], [ -4.5703121, 53.3184656 ], [ -4.564331, 53.3181744 ], [ -4.5620235, 53.316358 ], [ -4.561206, 53.3139173 ], [ -4.5632294, 53.3093523 ], [ -4.5626351, 53.3072109 ], [ -4.5641155, 53.3032962 ], [ -4.5666381, 53.3010504 ], [ -4.5627443, 53.2992928 ], [ -4.5617643, 53.2992665 ], [ -4.5618695, 53.3001254 ], [ -4.5607562, 53.3011323 ], [ -4.5620625, 53.3018578 ], [ -4.5585544, 53.3025287 ], [ -4.5587606, 53.3040289 ], [ -4.5580592, 53.3045657 ], [ -4.5556025, 53.3046978 ], [ -4.5585028, 53.304145 ], [ -4.5579415, 53.3024997 ], [ -4.5503611, 53.3030238 ], [ -4.5463804, 53.3058122 ], [ -4.5450658, 53.3076681 ], [ -4.5388107, 53.3076165 ], [ -4.5385245, 53.3092011 ], [ -4.5369752, 53.3103034 ], [ -4.5378916, 53.3114459 ], [ -4.5372924, 53.312043 ], [ -4.5376722, 53.3114606 ], [ -4.5364488, 53.3100592 ], [ -4.5307351, 53.309089 ], [ -4.5322227, 53.308403 ], [ -4.5365671, 53.3097241 ], [ -4.5392978, 53.306869 ], [ -4.5426879, 53.3068274 ], [ -4.544405, 53.3045394 ], [ -4.5461434, 53.3036268 ], [ -4.5466342, 53.3004689 ], [ -4.5565857, 53.2980837 ], [ -4.5597231, 53.3007576 ], [ -4.5598494, 53.2973591 ], [ -4.5608172, 53.2959384 ], [ -4.5723561, 53.2905874 ], [ -4.5749574, 53.2879014 ], [ -4.5835162, 53.2903833 ], [ -4.5822802, 53.2896549 ], [ -4.583898, 53.2895742 ], [ -4.5783198, 53.2876525 ], [ -4.576216, 53.2859769 ], [ -4.5833334, 53.2834854 ], [ -4.5827405, 53.2812103 ], [ -4.5885435, 53.2813403 ] ] ] } }
]
}
