{
"type": "FeatureCollection",
"name": "bornholm",
"crs": { "type": "name", "properties": { "name": "urn:ogc:def:crs:OGC:1.3:CRS84" } },
"features": [
{ "type": "Feature", "properties": { }, "geometry": { "type": "MultiPolygon", "coordinates": [ [ [ [ 14.6764358, 55.0937654 ], [ 14.6897694, 55.0867499 ], [ 14.6946725, 55.088001 ], [ 14.6876479, 55.0915632 ], [ 14.6869156, 55.0942168 ], [ 14.6878356, 55.0945391 ], [ 14.6898472, 55.0933964 ], [ 14.6914713, 55.0953558 ], [ 14.6952851, 55.0940042 ], [ 14.6955258, 55.0945809 ], [ 14.6934264, 55.0954532 ], [ 14.6943093, 55.0959605 ], [ 14.6971321, 55.0947931 ], [ 14.6963601, 55.0955705 ], [ 14.6985175, 55.0954554 ], [ 14.6960837, 55.0987535 ], [ 14.6953499, 55.0983515 ], [ 14.6960807, 55.0979263 ], [ 14.6925461, 55.0981065 ], [ 14.6947998, 55.0987856 ], [ 14.6939919, 55.0998282 ], [ 14.692746, 55.099039 ], [ 14.6911044, 55.0997613 ], [ 14.6913952, 55.0975755 ], [ 14.6908611, 55.0975116 ], [ 14.6898855, 55.0981331 ], [ 14.6896653, 55.0996756 ], [ 14.6880046, 55.0996029 ], [ 14.6873313, 55.0972288 ], [ 14.6822137, 55.0955843 ], [ 14.6849575, 55.0969986 ], [ 14.6825286, 55.0973518 ], [ 14.6811379, 55.0945766 ], [ 14.6807971, 55.0950033 ], [ 14.6854367, 55.102612 ], [ 14.6943561, 55.1066234 ], [ 14.6908356, 55.1043723 ], [ 14.6924072, 55.104073 ], [ 14.6942417, 55.1050187 ], [ 14.6917701, 55.1035253 ], [ 14.6925442, 55.1032401 ], [ 14.6935949, 55.1041174 ], [ 14.6935257, 55.1032366 ], [ 14.6946551, 55.1047582 ], [ 14.6964481, 55.1047943 ], [ 14.6995407, 55.1071741 ], [ 14.7008697, 55.1106448 ], [ 14.7001684, 55.112231 ], [ 14.70205, 55.11339 ], [ 14.7025394, 55.1147346 ], [ 14.6991438, 55.1218243 ], [ 14.7057259, 55.1276277 ], [ 14.707303, 55.1312744 ], [ 14.7077483, 55.135491 ], [ 14.7068793, 55.1415316 ], [ 14.7055167, 55.1464507 ], [ 14.7041139, 55.1484326 ], [ 14.7050795, 55.1497661 ], [ 14.704712, 55.15077 ], [ 14.7058037, 55.1540513 ], [ 14.704079, 55.1605641 ], [ 14.7064152, 55.1651208 ], [ 14.7062865, 55.168021 ], [ 14.7051036, 55.1735742 ], [ 14.7028077, 55.1770573 ], [ 14.7023946, 55.1810164 ], [ 14.7014263, 55.1819621 ], [ 14.7020835, 55.184162 ], [ 14.702867, 55.1842318 ], [ 14.7032893, 55.1852013 ], [ 14.7028588, 55.1854264 ], [ 14.7037867, 55.1857584 ], [ 14.7029418, 55.1859253 ], [ 14.7040428, 55.1865876 ], [ 14.7031389, 55.1869632 ], [ 14.7043405, 55.1870907 ], [ 14.7025522, 55.1873605 ], [ 14.7030517, 55.1879949 ], [ 14.7019133, 55.1885888 ], [ 14.7038282, 55.1881227 ], [ 14.7033434, 55.1892642 ], [ 14.7016022, 55.1887615 ], [ 14.7013741, 55.1880981 ], [ 14.7013872, 55.1886618 ], [ 14.7016543, 55.1889059 ], [ 14.6998693, 55.1888217 ], [ 14.7036177, 55.1898139 ], [ 14.7037196, 55.1911185 ], [ 14.7021264, 55.1931441 ], [ 14.7012413, 55.1965229 ], [ 14.7062731, 55.2061037 ], [ 14.7058225, 55.2089826 ], [ 14.7067076, 55.2114939 ], [ 14.7060625, 55.2121933 ], [ 14.7068283, 55.2116439 ], [ 14.7072756, 55.2118275 ], [ 14.7065936, 55.2121841 ], [ 14.7086553, 55.2135318 ], [ 14.7085986, 55.2148177 ], [ 14.7109374, 55.2189383 ], [ 14.7114071, 55.222342 ], [ 14.7108757, 55.222878 ], [ 14.7117957, 55.2223784 ], [ 14.7122832, 55.2228883 ], [ 14.7113451, 55.2229208 ], [ 14.7157627, 55.2267606 ], [ 14.7199362, 55.2324524 ], [ 14.7214222, 55.2364856 ], [ 14.7342244, 55.2471545 ], [ 14.7352999, 55.2483685 ], [ 14.735025, 55.2491498 ], [ 14.735819, 55.2482439 ], [ 14.7363178, 55.2484664 ], [ 14.7367497, 55.2488264 ], [ 14.7356875, 55.2490313 ], [ 14.7370031, 55.2492644 ], [ 14.7404352, 55.2520435 ], [ 14.7462608, 55.2615509 ], [ 14.7524779, 55.2682088 ], [ 14.7520973, 55.2710542 ], [ 14.7532305, 55.2717486 ], [ 14.7524782, 55.2725646 ], [ 14.7555392, 55.2764195 ], [ 14.7548184, 55.2772132 ], [ 14.7559422, 55.2766426 ], [ 14.7574228, 55.2777075 ], [ 14.7569923, 55.2785836 ], [ 14.7550363, 55.2790538 ], [ 14.755501, 55.2777158 ], [ 14.7547661, 55.2775318 ], [ 14.7545689, 55.2797844 ], [ 14.7520611, 55.281801 ], [ 14.7512591, 55.2864615 ], [ 14.752564, 55.2876025 ], [ 14.7522528, 55.2881279 ], [ 14.7561327, 55.29037 ], [ 14.7601479, 55.2909114 ], [ 14.7619598, 55.2923906 ], [ 14.761426, 55.2926403 ], [ 14.762861, 55.2928258 ], [ 14.7625995, 55.2934573 ], [ 14.7634497, 55.2936658 ], [ 14.7629562, 55.2940865 ], [ 14.7644341, 55.294495 ], [ 14.7649263, 55.2951128 ], [ 14.7641817, 55.295457 ], [ 14.7644078, 55.2957326 ], [ 14.7653004, 55.2954067 ], [ 14.7672746, 55.2968742 ], [ 14.7694542, 55.2969161 ], [ 14.7694297, 55.2978974 ], [ 14.7730802, 55.2991166 ], [ 14.7780745, 55.2968781 ], [ 14.7773114, 55.2965677 ], [ 14.7790319, 55.2954756 ], [ 14.7788563, 55.2939307 ], [ 14.7776869, 55.292922 ], [ 14.7782367, 55.2927159 ], [ 14.7770847, 55.2921661 ], [ 14.7778787, 55.2919546 ], [ 14.7769989, 55.2914139 ], [ 14.7782555, 55.2897866 ], [ 14.7824553, 55.289569 ], [ 14.7824931, 55.2888009 ], [ 14.7829145, 55.2891054 ], [ 14.7823405, 55.2899454 ], [ 14.782999, 55.2898874 ], [ 14.7831291, 55.2888496 ], [ 14.7847518, 55.2887465 ], [ 14.7846553, 55.2879442 ], [ 14.7856276, 55.2873695 ], [ 14.7886759, 55.2876781 ], [ 14.7911194, 55.2857543 ], [ 14.7940376, 55.285532 ], [ 14.7932759, 55.2849974 ], [ 14.7937185, 55.2844986 ], [ 14.7958428, 55.2839778 ], [ 14.7948839, 55.2821905 ], [ 14.796111, 55.2822577 ], [ 14.7981269, 55.280851 ], [ 14.7999586, 55.2813285 ], [ 14.8010194, 55.2802657 ], [ 14.8007861, 55.2794453 ], [ 14.8022492, 55.2794369 ], [ 14.8024417, 55.2786585 ], [ 14.8008511, 55.2791133 ], [ 14.8015237, 55.2780028 ], [ 14.8022774, 55.2778732 ], [ 14.8016531, 55.2787215 ], [ 14.8037539, 55.2783148 ], [ 14.8034683, 55.2789289 ], [ 14.8055765, 55.2774279 ], [ 14.8063168, 55.2757114 ], [ 14.8051178, 55.2750842 ], [ 14.8070987, 55.2738481 ], [ 14.8066588, 55.2729191 ], [ 14.8101282, 55.2717326 ], [ 14.8114881, 55.2700181 ], [ 14.8110616, 55.269737 ], [ 14.8123276, 55.2691548 ], [ 14.8123196, 55.2680453 ], [ 14.8140711, 55.2674173 ], [ 14.8169625, 55.264373 ], [ 14.8155409, 55.2621707 ], [ 14.8162839, 55.2616128 ], [ 14.816131, 55.2605903 ], [ 14.8181909, 55.2603564 ], [ 14.8171851, 55.2594593 ], [ 14.8249394, 55.25253 ], [ 14.8358896, 55.2496861 ], [ 14.8352203, 55.2493661 ], [ 14.8368953, 55.2488325 ], [ 14.8342399, 55.2489785 ], [ 14.8357902, 55.2487867 ], [ 14.8369141, 55.2476377 ], [ 14.8372534, 55.2482072 ], [ 14.8393938, 55.247929 ], [ 14.8372936, 55.2483226 ], [ 14.838561, 55.2482592 ], [ 14.8381452, 55.2487828 ], [ 14.8375028, 55.2484847 ], [ 14.8368967, 55.2484625 ], [ 14.838042, 55.248844 ], [ 14.8355824, 55.2506335 ], [ 14.8426849, 55.2473411 ], [ 14.8481995, 55.2471263 ], [ 14.8484146, 55.2463151 ], [ 14.8508156, 55.2456042 ], [ 14.8513699, 55.2436806 ], [ 14.8539005, 55.2428174 ], [ 14.8546958, 55.2417202 ], [ 14.8565331, 55.2421759 ], [ 14.8615918, 55.2406682 ], [ 14.8650357, 55.2411804 ], [ 14.8668489, 55.2396505 ], [ 14.8683831, 55.2399647 ], [ 14.8705704, 55.2385754 ], [ 14.8723286, 55.2388728 ], [ 14.8754118, 55.2373932 ], [ 14.8764378, 55.235311 ], [ 14.8786506, 55.2351152 ], [ 14.8782617, 55.2345952 ], [ 14.8800534, 55.2337051 ], [ 14.8791736, 55.2333823 ], [ 14.8793238, 55.2326727 ], [ 14.8841357, 55.228272 ], [ 14.9132538, 55.2206856 ], [ 14.9163088, 55.2211553 ], [ 14.9219012, 55.2195656 ], [ 14.9277672, 55.2170287 ], [ 14.9286363, 55.2157534 ], [ 14.9353525, 55.2118734 ], [ 14.9394953, 55.2104651 ], [ 14.9458909, 55.2093392 ], [ 14.9541521, 55.2111955 ], [ 14.9578133, 55.2135675 ], [ 14.967298, 55.2148025 ], [ 14.9652149, 55.215546 ], [ 14.9692771, 55.2151436 ], [ 14.9694166, 55.2143861 ], [ 14.9708904, 55.2140556 ], [ 14.9707094, 55.2131512 ], [ 14.9718102, 55.2131049 ], [ 14.97098, 55.2125368 ], [ 14.9726258, 55.2119691 ], [ 14.9731435, 55.2122025 ], [ 14.9718627, 55.2125009 ], [ 14.9719459, 55.2127977 ], [ 14.973973, 55.2125479 ], [ 14.9736089, 55.2120379 ], [ 14.9765217, 55.211549 ], [ 14.9782035, 55.210288 ], [ 14.9776188, 55.2093759 ], [ 14.9785052, 55.2082564 ], [ 14.980537, 55.2077582 ], [ 14.9799415, 55.2058481 ], [ 14.9817815, 55.20444 ], [ 14.9827847, 55.2046589 ], [ 14.9824387, 55.2040221 ], [ 14.9827391, 55.2042364 ], [ 14.9829885, 55.2051035 ], [ 14.9835947, 55.2008031 ], [ 14.9866766, 55.1995479 ], [ 14.988821, 55.1970021 ], [ 14.9890476, 55.1940581 ], [ 15.0055164, 55.1867944 ], [ 15.0073001, 55.1849675 ], [ 15.0132546, 55.1818373 ], [ 15.0137106, 55.1804023 ], [ 15.0187558, 55.1789519 ], [ 15.020923, 55.1766361 ], [ 15.0274193, 55.1746096 ], [ 15.0313434, 55.1744963 ], [ 15.0327945, 55.1734845 ], [ 15.0410101, 55.172279 ], [ 15.042547, 55.17152 ], [ 15.042496, 55.1704859 ], [ 15.0440758, 55.1702745 ], [ 15.0494993, 55.1667786 ], [ 15.0504662, 55.1669923 ], [ 15.056406, 55.1642506 ], [ 15.0602898, 55.1604446 ], [ 15.0662363, 55.1604231 ], [ 15.0718448, 55.1580802 ], [ 15.0729257, 55.1559593 ], [ 15.0749347, 55.1559486 ], [ 15.0768256, 55.1546272 ], [ 15.0767626, 55.155227 ], [ 15.079371, 55.1550275 ], [ 15.0811332, 55.1537647 ], [ 15.0875705, 55.1524597 ], [ 15.0885697, 55.1520191 ], [ 15.0878763, 55.1512022 ], [ 15.088574, 55.150629 ], [ 15.0993495, 55.1497025 ], [ 15.1020277, 55.1484863 ], [ 15.1042968, 55.1485139 ], [ 15.1047179, 55.1476272 ], [ 15.1068744, 55.1478425 ], [ 15.1072955, 55.1475482 ], [ 15.1067349, 55.147142 ], [ 15.1071292, 55.1463373 ], [ 15.1094138, 55.1458744 ], [ 15.1113369, 55.1456295 ], [ 15.1091556, 55.146578 ], [ 15.1105732, 55.1468953 ], [ 15.1118244, 55.1468776 ], [ 15.1117936, 55.1463158 ], [ 15.1139072, 55.1458621 ], [ 15.1150095, 55.1467504 ], [ 15.1155581, 55.1464737 ], [ 15.1147883, 55.1456337 ], [ 15.1154293, 55.145459 ], [ 15.1147614, 55.14518 ], [ 15.117614, 55.1434693 ], [ 15.1278439, 55.1435137 ], [ 15.1290321, 55.1445347 ], [ 15.1322776, 55.144832 ], [ 15.1326759, 55.1439115 ], [ 15.1374918, 55.1441637 ], [ 15.1394244, 55.1424889 ], [ 15.1380149, 55.1421088 ], [ 15.1394042, 55.1411935 ], [ 15.1396188, 55.139511 ], [ 15.140276, 55.1394934 ], [ 15.1397569, 55.1389568 ], [ 15.1406354, 55.1392305 ], [ 15.1402491, 55.1391538 ], [ 15.1405039, 55.1398222 ], [ 15.1454097, 55.1410471 ], [ 15.1463243, 55.1389116 ], [ 15.1459571, 55.1359868 ], [ 15.1446109, 55.1366541 ], [ 15.1440946, 55.1360454 ], [ 15.1447649, 55.135298 ], [ 15.1446954, 55.1361266 ], [ 15.145371, 55.1359306 ], [ 15.1456296, 55.1343227 ], [ 15.1476386, 55.1334364 ], [ 15.1493794, 55.1336373 ], [ 15.1501706, 55.1324811 ], [ 15.154261, 55.1332678 ], [ 15.1542449, 55.1324336 ], [ 15.1553258, 55.1317911 ], [ 15.1526016, 55.1309703 ], [ 15.1536441, 55.1305966 ], [ 15.1527268, 55.1296152 ], [ 15.1538426, 55.1289987 ], [ 15.151729, 55.1278148 ], [ 15.1535958, 55.127091 ], [ 15.1528957, 55.1264852 ], [ 15.1548886, 55.1247998 ], [ 15.1545775, 55.1236756 ], [ 15.1561949, 55.1234225 ], [ 15.1547009, 55.1222998 ], [ 15.1524585, 55.1223274 ], [ 15.151493, 55.1213596 ], [ 15.1472786, 55.1204481 ], [ 15.1467535, 55.1180265 ], [ 15.148344, 55.117709 ], [ 15.1459488, 55.1153344 ], [ 15.1451442, 55.1154265 ], [ 15.145517, 55.114911 ], [ 15.143685, 55.1140167 ], [ 15.1433632, 55.1130793 ], [ 15.146386, 55.1114439 ], [ 15.1438299, 55.1090045 ], [ 15.1439546, 55.108199 ], [ 15.1457946, 55.1074882 ], [ 15.1470548, 55.107844 ], [ 15.1458145, 55.107795 ], [ 15.145368, 55.1083141 ], [ 15.1471397, 55.1079842 ], [ 15.1492453, 55.1069378 ], [ 15.1484996, 55.1052837 ], [ 15.1463002, 55.104937 ], [ 15.145627, 55.104113 ], [ 15.146032, 55.1025555 ], [ 15.1476225, 55.1013616 ], [ 15.147239, 55.1003058 ], [ 15.1487008, 55.0975987 ], [ 15.1512542, 55.0948039 ], [ 15.1533517, 55.0946274 ], [ 15.1531988, 55.093596 ], [ 15.1554304, 55.0927917 ], [ 15.1560534, 55.0916608 ], [ 15.1534054, 55.0889266 ], [ 15.1563317, 55.0866869 ], [ 15.156284, 55.0857087 ], [ 15.155291, 55.0852846 ], [ 15.156565, 55.0844333 ], [ 15.1561546, 55.0837386 ], [ 15.1569217, 55.08308 ], [ 15.1559722, 55.0805014 ], [ 15.1528877, 55.0782321 ], [ 15.1529735, 55.0768763 ], [ 15.1507553, 55.0752241 ], [ 15.1468259, 55.0744363 ], [ 15.1377761, 55.0683825 ], [ 15.1373161, 55.0641895 ], [ 15.139347, 55.0645739 ], [ 15.1381362, 55.0634403 ], [ 15.1412496, 55.064906 ], [ 15.139423, 55.063788 ], [ 15.1397355, 55.0609175 ], [ 15.138267, 55.0593677 ], [ 15.1384762, 55.0570204 ], [ 15.1300004, 55.0553589 ], [ 15.1287931, 55.0553099 ], [ 15.1285306, 55.0561912 ], [ 15.1271693, 55.0558766 ], [ 15.1247486, 55.0537403 ], [ 15.1244161, 55.0509501 ], [ 15.1234478, 55.0505906 ], [ 15.1234746, 55.0489158 ], [ 15.1243919, 55.0478801 ], [ 15.1237294, 55.0462958 ], [ 15.1190329, 55.0435128 ], [ 15.1130784, 55.0412614 ], [ 15.1117587, 55.0395216 ], [ 15.1115495, 55.0400995 ], [ 15.109849, 55.039288 ], [ 15.1100732, 55.03582 ], [ 15.1127666, 55.0322428 ], [ 15.1172975, 55.0287923 ], [ 15.1230749, 55.0264493 ], [ 15.118534, 55.0248242 ], [ 15.1169193, 55.0209803 ], [ 15.1198375, 55.0168346 ], [ 15.1199034, 55.0144776 ], [ 15.105713, 55.007639 ], [ 15.0965532, 55.0003745 ], [ 15.0854838, 54.9894585 ], [ 15.07801, 54.9873393 ], [ 15.0695139, 54.9877226 ], [ 15.0405219, 54.9948903 ], [ 15.031051, 54.9956319 ], [ 15.0276285, 54.9947672 ], [ 15.0215587, 54.9947102 ], [ 15.0072169, 54.9977059 ], [ 14.9847883, 55.0002536 ], [ 14.9736303, 55.0035919 ], [ 14.9623972, 55.0041272 ], [ 14.9544875, 55.0066584 ], [ 14.9463704, 55.0108529 ], [ 14.933428, 55.0155924 ], [ 14.929227, 55.0158928 ], [ 14.9246105, 55.0143957 ], [ 14.9131706, 55.0211233 ], [ 14.9072577, 55.0228923 ], [ 14.9054971, 55.0227979 ], [ 14.9053051, 55.0221895 ], [ 14.90436, 55.0229197 ], [ 14.9039476, 55.0224985 ], [ 14.9053219, 55.0219995 ], [ 14.904165, 55.0221596 ], [ 14.8854929, 55.0318008 ], [ 14.8766577, 55.03367 ], [ 14.8621362, 55.0383458 ], [ 14.8413438, 55.0427475 ], [ 14.8350218, 55.04254 ], [ 14.8319238, 55.0410016 ], [ 14.8148596, 55.0468567 ], [ 14.8076472, 55.0507857 ], [ 14.7972262, 55.0535663 ], [ 14.7894752, 55.0540092 ], [ 14.7768447, 55.0524497 ], [ 14.7655794, 55.0577486 ], [ 14.7624063, 55.0581157 ], [ 14.7565055, 55.061334 ], [ 14.7515541, 55.0622741 ], [ 14.7503269, 55.0632932 ], [ 14.744685, 55.0636319 ], [ 14.7410399, 55.0667038 ], [ 14.7363219, 55.0680938 ], [ 14.7350559, 55.0704389 ], [ 14.7250861, 55.0791242 ], [ 14.7185147, 55.0811125 ], [ 14.710629, 55.0814626 ], [ 14.7056481, 55.0835199 ], [ 14.7031784, 55.0863703 ], [ 14.7003069, 55.0880489 ], [ 14.6940322, 55.0862637 ], [ 14.6894466, 55.0866143 ], [ 14.6764358, 55.0937654 ] ] ], [ [ [ 15.111927, 55.1463523 ], [ 15.1122301, 55.1463572 ], [ 15.112275, 55.1463028 ], [ 15.111927, 55.1463523 ] ] ], [ [ [ 15.1120041, 55.1464676 ], [ 15.1120913, 55.146404 ], [ 15.1119538, 55.1464415 ], [ 15.1120041, 55.1464676 ] ] ], [ [ [ 15.1070662, 55.146706 ], [ 15.1075932, 55.146791 ], [ 15.1076817, 55.1466883 ], [ 15.1070662, 55.146706 ] ] ], [ [ [ 15.1068838, 55.1469888 ], [ 15.1072419, 55.147011 ], [ 15.1072875, 55.1469566 ], [ 15.1068838, 55.1469888 ] ] ], [ [ [ 15.1074001, 55.1474777 ], [ 15.1075222, 55.1474344 ], [ 15.1073887, 55.1474375 ], [ 15.1074001, 55.1474777 ] ] ], [ [ [ 14.6985707, 55.189115 ], [ 14.7002155, 55.1869431 ], [ 14.7021078, 55.1861576 ], [ 14.7013205, 55.1877298 ], [ 14.7027502, 55.1861147 ], [ 14.7026737, 55.1842625 ], [ 14.7017242, 55.1841416 ], [ 14.7007023, 55.1816346 ], [ 14.7007799, 55.184894 ], [ 14.7021614, 55.1859394 ], [ 14.7000693, 55.1868252 ], [ 14.6983232, 55.1885463 ], [ 14.6985707, 55.189115 ] ] ] ] } }
]
}
