{
"type": "FeatureCollection",
"name": "capri",
"crs": { "type": "name", "properties": { "name": "urn:ogc:def:crs:OGC:1.3:CRS84" } },
"features": [
{ "type": "Feature", "properties": { }, "geometry": { "type": "Polygon", "coordinates": [ [ [ 14.1957565, 40.5418561 ], [ 14.1969631, 40.5409587 ], [ 14.2000953, 40.5410716 ], [ 14.1988427, 40.5403859 ], [ 14.1990275, 40.5390862 ], [ 14.1977445, 40.537539 ], [ 14.1986884, 40.5378184 ], [ 14.1987736, 40.5372594 ], [ 14.1968905, 40.5360486 ], [ 14.1987173, 40.5358786 ], [ 14.2037588, 40.5371945 ], [ 14.2045687, 40.5385368 ], [ 14.2062338, 40.5377488 ], [ 14.2086735, 40.5387319 ], [ 14.2090595, 40.5378709 ], [ 14.2124885, 40.5400147 ], [ 14.2143407, 40.5402431 ], [ 14.220487, 40.5396516 ], [ 14.2211045, 40.5395032 ], [ 14.2209887, 40.538431 ], [ 14.2215244, 40.5391064 ], [ 14.2226835, 40.5380429 ], [ 14.224385, 40.5380226 ], [ 14.2240609, 40.5387569 ], [ 14.2256265, 40.5406376 ], [ 14.2275352, 40.5415069 ], [ 14.2283777, 40.5407659 ], [ 14.2288654, 40.5415024 ], [ 14.2311486, 40.5416111 ], [ 14.2316567, 40.543651 ], [ 14.2329863, 40.5450744 ], [ 14.2347227, 40.5450878 ], [ 14.2346293, 40.5442229 ], [ 14.2355167, 40.5451746 ], [ 14.2390289, 40.5452003 ], [ 14.2421112, 40.5463711 ], [ 14.2472056, 40.5460268 ], [ 14.2493691, 40.5439767 ], [ 14.251782, 40.5433871 ], [ 14.2521898, 40.5425939 ], [ 14.2528356, 40.5429729 ], [ 14.2533231, 40.5417888 ], [ 14.2541652, 40.542919 ], [ 14.2528921, 40.5429939 ], [ 14.2529374, 40.5444065 ], [ 14.2554827, 40.5445142 ], [ 14.2577601, 40.5458428 ], [ 14.258088, 40.5469985 ], [ 14.2594736, 40.546739 ], [ 14.2582946, 40.5485801 ], [ 14.2586925, 40.5502971 ], [ 14.2614143, 40.5529254 ], [ 14.2625497, 40.5525353 ], [ 14.2629247, 40.5537832 ], [ 14.2647466, 40.5529458 ], [ 14.2646409, 40.5541649 ], [ 14.2663785, 40.5563973 ], [ 14.2636802, 40.5565818 ], [ 14.2645692, 40.5570704 ], [ 14.2634804, 40.5604156 ], [ 14.261291, 40.5605094 ], [ 14.2605008, 40.5613403 ], [ 14.2554865, 40.5589324 ], [ 14.255745, 40.5582183 ], [ 14.2532661, 40.557355 ], [ 14.2530157, 40.5565528 ], [ 14.2477173, 40.5562062 ], [ 14.2460484, 40.5571868 ], [ 14.2443076, 40.5573165 ], [ 14.2463152, 40.5569544 ], [ 14.2467425, 40.5561836 ], [ 14.2417934, 40.5562772 ], [ 14.2418071, 40.5557036 ], [ 14.238918, 40.5563581 ], [ 14.2398319, 40.5575872 ], [ 14.2427904, 40.5575782 ], [ 14.2432523, 40.5581025 ], [ 14.239991, 40.5578001 ], [ 14.2378486, 40.556661 ], [ 14.2315514, 40.5595115 ], [ 14.2275008, 40.5591972 ], [ 14.2227345, 40.5609826 ], [ 14.2212155, 40.5602905 ], [ 14.213194, 40.5618457 ], [ 14.1996388, 40.5608242 ], [ 14.1982585, 40.5591246 ], [ 14.1986326, 40.5555666 ], [ 14.1980584, 40.5549498 ], [ 14.2013844, 40.5531103 ], [ 14.2024538, 40.5513651 ], [ 14.201155, 40.5513889 ], [ 14.2019176, 40.5503823 ], [ 14.2005454, 40.5510271 ], [ 14.1989034, 40.5503832 ], [ 14.1989011, 40.5495797 ], [ 14.1976309, 40.5500211 ], [ 14.1967623, 40.5490492 ], [ 14.1984758, 40.54888 ], [ 14.1976453, 40.5480629 ], [ 14.1979857, 40.5458117 ], [ 14.1993475, 40.5462531 ], [ 14.1980342, 40.5435534 ], [ 14.1957565, 40.5418561 ] ] ] } }
]
}
