{
"type": "FeatureCollection",
"name": "comino",
"crs": { "type": "name", "properties": { "name": "urn:ogc:def:crs:OGC:1.3:CRS84" } },
"features": [
{ "type": "Feature", "properties": { }, "geometry": { "type": "MultiPolygon", "coordinates": [ [ [ [ 14.3224425, 36.0174028 ], [ 14.3238439, 36.0187853 ], [ 14.3257632, 36.0175453 ], [ 14.3283421, 36.0196917 ], [ 14.3276299, 36.0186829 ], [ 14.3288753, 36.0194676 ], [ 14.3288335, 36.0166495 ], [ 14.3295394, 36.0161749 ], [ 14.3315768, 36.0186622 ], [ 14.3312988, 36.0195408 ], [ 14.3322618, 36.0196449 ], [ 14.3360784, 36.0181864 ], [ 14.3363497, 36.016445 ], [ 14.3372046, 36.0162867 ], [ 14.3385435, 36.0181626 ], [ 14.3373433, 36.0197351 ], [ 14.3388355, 36.0200254 ], [ 14.3387126, 36.019332 ], [ 14.3406317, 36.0188688 ], [ 14.3402966, 36.0169081 ], [ 14.3424141, 36.0155219 ], [ 14.3443913, 36.0157325 ], [ 14.3459427, 36.0149538 ], [ 14.3507884, 36.0099612 ], [ 14.3485625, 36.0065412 ], [ 14.3472498, 36.0061829 ], [ 14.3453917, 36.0066349 ], [ 14.3378184, 36.0047818 ], [ 14.3351651, 36.0054323 ], [ 14.3352239, 36.0047787 ], [ 14.3327966, 36.0040867 ], [ 14.3310961, 36.0045901 ], [ 14.3244739, 36.0038005 ], [ 14.3264292, 36.0046847 ], [ 14.3270984, 36.0063152 ], [ 14.328742, 36.0067752 ], [ 14.3298568, 36.0092848 ], [ 14.3284158, 36.009663 ], [ 14.3289734, 36.0101782 ], [ 14.3283262, 36.0108135 ], [ 14.3270563, 36.0096938 ], [ 14.326503, 36.0103287 ], [ 14.3271443, 36.0105069 ], [ 14.3245575, 36.0122106 ], [ 14.3237289, 36.01488 ], [ 14.3244091, 36.0161722 ], [ 14.3224425, 36.0174028 ] ] ], [ [ [ 14.3173385, 36.0147747 ], [ 14.3186131, 36.0142509 ], [ 14.321232, 36.0149597 ], [ 14.3231759, 36.012281 ], [ 14.3215509, 36.0124239 ], [ 14.3217365, 36.013096 ], [ 14.3210257, 36.0132308 ], [ 14.3189442, 36.0118407 ], [ 14.317716, 36.0126501 ], [ 14.3173385, 36.0147747 ] ] ] ] } }
]
}
