{
"type": "FeatureCollection",
"name": "corfu",
"crs": { "type": "name", "properties": { "name": "urn:ogc:def:crs:OGC:1.3:CRS84" } },
"features": [
{ "type": "Feature", "properties": { }, "geometry": { "type": "MultiPolygon", "coordinates": [ [ [ [ 19.7233725, 39.6648936 ], [ 19.7234014, 39.6648239 ], [ 19.7233591, 39.6648193 ], [ 19.7233725, 39.6648936 ] ] ], [ [ [ 19.7232565, 39.6649272 ], [ 19.7232458, 39.6648585 ], [ 19.7232142, 39.6648949 ], [ 19.7232565, 39.6649272 ] ] ], [ [ [ 19.7235965, 39.6729162 ], [ 19.723561, 39.6728316 ], [ 19.7235221, 39.672878 ], [ 19.7235965, 39.6729162 ] ] ], [ [ [ 19.7290454, 39.6729596 ], [ 19.729089, 39.6728744 ], [ 19.7289877, 39.6729203 ], [ 19.7290454, 39.6729596 ] ] ], [ [ [ 19.6903418, 39.6737069 ], [ 19.6902975, 39.673646 ], [ 19.6902595, 39.6736783 ], [ 19.6903418, 39.6737069 ] ] ], [ [ [ 19.7087943, 39.6747715 ], [ 19.7087786, 39.6747526 ], [ 19.7087651, 39.6747645 ], [ 19.7087943, 39.6747715 ] ] ], [ [ [ 19.7088121, 39.6748148 ], [ 19.708804, 39.6747854 ], [ 19.7087947, 39.6748024 ], [ 19.7088121, 39.6748148 ] ] ], [ [ [ 19.6743263, 39.6862846 ], [ 19.6742789, 39.6862144 ], [ 19.6742512, 39.6862598 ], [ 19.6743263, 39.6862846 ] ] ], [ [ [ 19.6746697, 39.6872511 ], [ 19.6745647, 39.6872119 ], [ 19.6745885, 39.6872774 ], [ 19.6746697, 39.6872511 ] ] ], [ [ [ 19.6531504, 39.7177535 ], [ 19.6532508, 39.7176206 ], [ 19.6531177, 39.7176673 ], [ 19.6531504, 39.7177535 ] ] ], [ [ [ 19.6548716, 39.7304984 ], [ 19.6548284, 39.7304443 ], [ 19.6547663, 39.7304923 ], [ 19.6548716, 39.7304984 ] ] ], [ [ [ 19.6365803, 39.7500977 ], [ 19.6366715, 39.7499621 ], [ 19.6365783, 39.7499879 ], [ 19.6365803, 39.7500977 ] ] ], [ [ [ 19.6353981, 39.7501122 ], [ 19.6353465, 39.7500627 ], [ 19.6353411, 39.7500874 ], [ 19.6353981, 39.7501122 ] ] ], [ [ [ 19.6366366, 39.7501619 ], [ 19.6366182, 39.7501256 ], [ 19.6365994, 39.7501455 ], [ 19.6366366, 39.7501619 ] ] ], [ [ [ 19.6361659, 39.750273 ], [ 19.6361384, 39.7502096 ], [ 19.6361028, 39.7502354 ], [ 19.6361659, 39.750273 ] ] ], [ [ [ 19.6723549, 39.7988832 ], [ 19.6731167, 39.7985782 ], [ 19.673181, 39.7983619 ], [ 19.6723549, 39.7988832 ] ] ], [ [ [ 19.8419201, 39.5347624 ], [ 19.8422934, 39.5359204 ], [ 19.842824, 39.5355464 ], [ 19.8419201, 39.5347624 ] ] ], [ [ [ 19.8394289, 39.5591248 ], [ 19.8393841, 39.5590784 ], [ 19.8393861, 39.5591198 ], [ 19.8394289, 39.5591248 ] ] ], [ [ [ 19.8271015, 39.5746716 ], [ 19.8271207, 39.5746009 ], [ 19.8270798, 39.5746064 ], [ 19.8271015, 39.5746716 ] ] ], [ [ [ 19.8171479, 39.5849642 ], [ 19.8171275, 39.584926 ], [ 19.8171124, 39.5849466 ], [ 19.8171479, 39.5849642 ] ] ], [ [ [ 19.7989558, 39.5954556 ], [ 19.7989304, 39.5954192 ], [ 19.7989089, 39.5954435 ], [ 19.7989558, 39.5954556 ] ] ], [ [ [ 19.7938208, 39.5961366 ], [ 19.7937872, 39.5960834 ], [ 19.7937805, 39.5961392 ], [ 19.7938208, 39.5961366 ] ] ], [ [ [ 19.7939961, 39.5961552 ], [ 19.793982, 39.5960803 ], [ 19.7939472, 39.5961175 ], [ 19.7939961, 39.5961552 ] ] ], [ [ [ 19.7552412, 39.6209931 ], [ 19.7552144, 39.6209058 ], [ 19.75515, 39.6209616 ], [ 19.7552412, 39.6209931 ] ] ], [ [ [ 19.7410423, 39.6306621 ], [ 19.7410761, 39.6305438 ], [ 19.7410014, 39.6306076 ], [ 19.7410423, 39.6306621 ] ] ], [ [ [ 19.7412374, 39.6310277 ], [ 19.7411985, 39.6309714 ], [ 19.7411814, 39.6309947 ], [ 19.7412374, 39.6310277 ] ] ], [ [ [ 19.741233, 39.6310752 ], [ 19.7411884, 39.6310582 ], [ 19.7411891, 39.6310786 ], [ 19.741233, 39.6310752 ] ] ], [ [ [ 19.7410143, 39.6320056 ], [ 19.7409983, 39.6319266 ], [ 19.7409651, 39.6319718 ], [ 19.7410143, 39.6320056 ] ] ], [ [ [ 19.7408354, 39.6321528 ], [ 19.7407968, 39.6321218 ], [ 19.7407935, 39.6321548 ], [ 19.7408354, 39.6321528 ] ] ], [ [ [ 19.7399761, 39.6332241 ], [ 19.7399315, 39.6330922 ], [ 19.7398591, 39.6331624 ], [ 19.7399761, 39.6332241 ] ] ], [ [ [ 19.7359531, 39.6421684 ], [ 19.7359477, 39.6421212 ], [ 19.7359209, 39.6421568 ], [ 19.7359531, 39.6421684 ] ] ], [ [ [ 19.7359166, 39.6422934 ], [ 19.7358689, 39.6422583 ], [ 19.7358502, 39.6422919 ], [ 19.7359166, 39.6422934 ] ] ], [ [ [ 19.9031134, 39.4381832 ], [ 19.9030939, 39.4381273 ], [ 19.9030604, 39.438149 ], [ 19.9031134, 39.4381832 ] ] ], [ [ [ 19.9030359, 39.4382381 ], [ 19.9030494, 39.43819 ], [ 19.9030074, 39.4381931 ], [ 19.9030359, 39.4382381 ] ] ], [ [ [ 19.9029417, 39.438294 ], [ 19.9028822, 39.4382411 ], [ 19.9028586, 39.438277 ], [ 19.9029417, 39.438294 ] ] ], [ [ [ 19.8679342, 39.457065 ], [ 19.8680609, 39.4569666 ], [ 19.8679637, 39.4569666 ], [ 19.8679342, 39.457065 ] ] ], [ [ [ 19.8682645, 39.4605968 ], [ 19.8682902, 39.4605534 ], [ 19.868247, 39.4605821 ], [ 19.8682645, 39.4605968 ] ] ], [ [ [ 19.8682191, 39.4606622 ], [ 19.8681994, 39.4606305 ], [ 19.8681873, 39.4606553 ], [ 19.8682191, 39.4606622 ] ] ], [ [ [ 19.8679848, 39.460732 ], [ 19.8679738, 39.4606991 ], [ 19.867958, 39.460712 ], [ 19.8679848, 39.460732 ] ] ], [ [ [ 19.867834, 39.4607509 ], [ 19.8678496, 39.4607335 ], [ 19.8678325, 39.4607351 ], [ 19.867834, 39.4607509 ] ] ], [ [ [ 19.867667, 39.4608596 ], [ 19.8676885, 39.4608259 ], [ 19.8676395, 39.4608453 ], [ 19.867667, 39.4608596 ] ] ], [ [ [ 19.8675795, 39.4609243 ], [ 19.8675664, 39.4608914 ], [ 19.86755, 39.4609106 ], [ 19.8675795, 39.4609243 ] ] ], [ [ [ 19.8675758, 39.4609652 ], [ 19.867608, 39.4609406 ], [ 19.8675664, 39.4609497 ], [ 19.8675758, 39.4609652 ] ] ], [ [ [ 19.8668814, 39.4616869 ], [ 19.8668563, 39.4616587 ], [ 19.8668395, 39.4616822 ], [ 19.8668814, 39.4616869 ] ] ], [ [ [ 19.8669968, 39.4617782 ], [ 19.8669733, 39.461756 ], [ 19.8669629, 39.4617656 ], [ 19.8669968, 39.4617782 ] ] ], [ [ [ 19.848841, 39.5192907 ], [ 19.8488964, 39.5190411 ], [ 19.848678, 39.519215 ], [ 19.848841, 39.5192907 ] ] ], [ [ [ 19.9126087, 39.5504333 ], [ 19.9126305, 39.5503897 ], [ 19.912597, 39.550408 ], [ 19.9126087, 39.5504333 ] ] ], [ [ [ 19.6284992, 39.7523686 ], [ 19.6317143, 39.7522257 ], [ 19.6318629, 39.7532734 ], [ 19.6330961, 39.7540549 ], [ 19.631812, 39.7524599 ], [ 19.6374707, 39.7548786 ], [ 19.6403252, 39.7542456 ], [ 19.6420338, 39.7552253 ], [ 19.6439918, 39.7579755 ], [ 19.6456629, 39.7641728 ], [ 19.6512274, 39.771364 ], [ 19.6527036, 39.77498 ], [ 19.6546567, 39.7775255 ], [ 19.6572319, 39.7790739 ], [ 19.6571295, 39.7804955 ], [ 19.6603177, 39.7818934 ], [ 19.6705659, 39.7915724 ], [ 19.6699557, 39.7926698 ], [ 19.6712042, 39.7929007 ], [ 19.6718582, 39.7951027 ], [ 19.6728315, 39.7951307 ], [ 19.6742597, 39.7969382 ], [ 19.6732902, 39.7975918 ], [ 19.6743538, 39.7975099 ], [ 19.6734064, 39.798618 ], [ 19.6738574, 39.7991607 ], [ 19.6780285, 39.7945468 ], [ 19.6896738, 39.7962336 ], [ 19.6937081, 39.7980589 ], [ 19.6945818, 39.7967107 ], [ 19.6960482, 39.7964658 ], [ 19.6977289, 39.7967806 ], [ 19.697624, 39.7977344 ], [ 19.6981065, 39.7969818 ], [ 19.6983156, 39.797067 ], [ 19.6979737, 39.7977176 ], [ 19.6999035, 39.7959163 ], [ 19.7008167, 39.7965143 ], [ 19.7013314, 39.7956931 ], [ 19.7017439, 39.7965998 ], [ 19.7023403, 39.795852 ], [ 19.7024772, 39.796451 ], [ 19.7034048, 39.7961716 ], [ 19.7022445, 39.7955109 ], [ 19.7036802, 39.7934437 ], [ 19.7094285, 39.7930695 ], [ 19.7103612, 39.7924599 ], [ 19.7094907, 39.7926808 ], [ 19.7091427, 39.7912529 ], [ 19.7104811, 39.7901364 ], [ 19.7153061, 39.789423 ], [ 19.7393425, 39.7946213 ], [ 19.7495526, 39.7991558 ], [ 19.7554776, 39.7964298 ], [ 19.7576113, 39.7961127 ], [ 19.7587097, 39.7969483 ], [ 19.7594459, 39.7963975 ], [ 19.7594032, 39.7959102 ], [ 19.7586914, 39.7967276 ], [ 19.7578736, 39.7960168 ], [ 19.7589031, 39.7947647 ], [ 19.7621519, 39.7941156 ], [ 19.7772192, 39.7985803 ], [ 19.7809505, 39.7971766 ], [ 19.7828393, 39.7943059 ], [ 19.7874113, 39.7914572 ], [ 19.7953801, 39.7902082 ], [ 19.808904, 39.7946461 ], [ 19.8187524, 39.7997346 ], [ 19.8329184, 39.8097319 ], [ 19.8429644, 39.8176876 ], [ 19.8427332, 39.8182959 ], [ 19.8430676, 39.8188775 ], [ 19.8430086, 39.8181287 ], [ 19.8435947, 39.8180576 ], [ 19.8432669, 39.8185747 ], [ 19.8472442, 39.8222353 ], [ 19.8538587, 39.8206683 ], [ 19.8558314, 39.8183784 ], [ 19.8603302, 39.8187312 ], [ 19.8605367, 39.8161357 ], [ 19.8614816, 39.815691 ], [ 19.865189, 39.815596 ], [ 19.8655608, 39.8166348 ], [ 19.8673478, 39.8155001 ], [ 19.8689125, 39.8160293 ], [ 19.8744392, 39.8155968 ], [ 19.8784733, 39.8099588 ], [ 19.8781165, 39.8081538 ], [ 19.8795006, 39.8058924 ], [ 19.8790528, 39.8039783 ], [ 19.8810402, 39.8028675 ], [ 19.8814602, 39.8006624 ], [ 19.8886381, 39.7968273 ], [ 19.8905805, 39.7971601 ], [ 19.8957362, 39.79453 ], [ 19.8958922, 39.7935242 ], [ 19.8993677, 39.7955211 ], [ 19.9034237, 39.7945116 ], [ 19.9032193, 39.7920588 ], [ 19.9061999, 39.792621 ], [ 19.9080976, 39.7918565 ], [ 19.9095554, 39.7926374 ], [ 19.9102803, 39.789736 ], [ 19.9093616, 39.788753 ], [ 19.9105927, 39.7881903 ], [ 19.9178436, 39.7882039 ], [ 19.9183878, 39.7894854 ], [ 19.9155916, 39.7908252 ], [ 19.91685, 39.7927354 ], [ 19.9197166, 39.7932312 ], [ 19.9187179, 39.794564 ], [ 19.9192272, 39.795372 ], [ 19.9204391, 39.7937116 ], [ 19.9226289, 39.793944 ], [ 19.9225707, 39.7915772 ], [ 19.9231418, 39.791449 ], [ 19.9220789, 39.7908236 ], [ 19.9225694, 39.7900796 ], [ 19.9232914, 39.79001 ], [ 19.923474, 39.7911751 ], [ 19.9247122, 39.7912059 ], [ 19.9259275, 39.7890675 ], [ 19.9275916, 39.7889991 ], [ 19.9266447, 39.7862404 ], [ 19.9269341, 39.7848027 ], [ 19.9281285, 39.7850221 ], [ 19.9296085, 39.7834978 ], [ 19.9342977, 39.7830671 ], [ 19.9348855, 39.7818275 ], [ 19.9373744, 39.780803 ], [ 19.9377019, 39.7791823 ], [ 19.9403565, 39.7790476 ], [ 19.9429527, 39.7808199 ], [ 19.9422304, 39.7817013 ], [ 19.9433179, 39.7829464 ], [ 19.9410716, 39.784044 ], [ 19.9404565, 39.7857526 ], [ 19.9407557, 39.7888239 ], [ 19.9426379, 39.7883979 ], [ 19.9428795, 39.7873799 ], [ 19.9446307, 39.78784 ], [ 19.9434831, 39.7864467 ], [ 19.9446942, 39.7852053 ], [ 19.9481024, 39.7857865 ], [ 19.9468923, 39.7845635 ], [ 19.9477199, 39.783207 ], [ 19.9496456, 39.7823126 ], [ 19.9479806, 39.7802589 ], [ 19.9482773, 39.7795882 ], [ 19.9534479, 39.7793299 ], [ 19.9545453, 39.7785885 ], [ 19.9537988, 39.7777722 ], [ 19.9540135, 39.7766402 ], [ 19.9567956, 39.775859 ], [ 19.9549262, 39.7731063 ], [ 19.9550817, 39.7720467 ], [ 19.9535774, 39.7714346 ], [ 19.9531094, 39.7695934 ], [ 19.9555844, 39.7694494 ], [ 19.9533133, 39.7674053 ], [ 19.9551657, 39.7662019 ], [ 19.9534336, 39.7657118 ], [ 19.9495113, 39.7671541 ], [ 19.9479718, 39.7669195 ], [ 19.9477917, 39.765827 ], [ 19.9488451, 39.7661046 ], [ 19.9504931, 39.7645174 ], [ 19.9490743, 39.7627383 ], [ 19.9485613, 39.7631549 ], [ 19.9474646, 39.7619242 ], [ 19.9458727, 39.7620931 ], [ 19.9464159, 39.7602629 ], [ 19.9447403, 39.7594223 ], [ 19.9448551, 39.7585701 ], [ 19.9473459, 39.7578557 ], [ 19.9446339, 39.7559172 ], [ 19.9470336, 39.7549507 ], [ 19.9451425, 39.7539769 ], [ 19.9428027, 39.7547687 ], [ 19.9399255, 39.7530739 ], [ 19.9397542, 39.7512726 ], [ 19.9416509, 39.7485217 ], [ 19.93885, 39.7463733 ], [ 19.9388158, 39.7454996 ], [ 19.9402071, 39.7443244 ], [ 19.9411836, 39.7446491 ], [ 19.9413116, 39.7439526 ], [ 19.9393618, 39.7423692 ], [ 19.9361518, 39.7442544 ], [ 19.9332942, 39.7433819 ], [ 19.9331808, 39.7406936 ], [ 19.9353591, 39.7390143 ], [ 19.9331094, 39.7380797 ], [ 19.9322156, 39.7391207 ], [ 19.9313558, 39.7389405 ], [ 19.9293583, 39.7359622 ], [ 19.9309747, 39.7346257 ], [ 19.9270845, 39.7326992 ], [ 19.923608, 39.7327047 ], [ 19.9228901, 39.7316676 ], [ 19.9176098, 39.729557 ], [ 19.9168689, 39.7285603 ], [ 19.9146938, 39.7285775 ], [ 19.9086619, 39.7262323 ], [ 19.9072233, 39.7264651 ], [ 19.9038672, 39.7241446 ], [ 19.8985359, 39.7244614 ], [ 19.8959899, 39.7233545 ], [ 19.8965591, 39.7239509 ], [ 19.8922816, 39.7234352 ], [ 19.8900385, 39.7241252 ], [ 19.879906, 39.7224848 ], [ 19.8751744, 39.7199239 ], [ 19.8717062, 39.7190809 ], [ 19.8653847, 39.7139294 ], [ 19.864267, 39.7126265 ], [ 19.8648034, 39.7119693 ], [ 19.8633746, 39.7109752 ], [ 19.8555201, 39.7085092 ], [ 19.8453552, 39.7074318 ], [ 19.8437991, 39.7059859 ], [ 19.8393045, 39.699254 ], [ 19.8380618, 39.6943111 ], [ 19.8388657, 39.6935235 ], [ 19.8396775, 39.6952767 ], [ 19.8401956, 39.6925672 ], [ 19.8416618, 39.6923736 ], [ 19.8443385, 39.6899239 ], [ 19.8466435, 39.6891115 ], [ 19.8481277, 39.6871109 ], [ 19.8448521, 39.6880605 ], [ 19.8432474, 39.6862664 ], [ 19.8406402, 39.679903 ], [ 19.8411782, 39.6766602 ], [ 19.8431186, 39.6752287 ], [ 19.8462396, 39.6751994 ], [ 19.8472589, 39.6733242 ], [ 19.8488571, 39.6731855 ], [ 19.8515819, 39.6677182 ], [ 19.8546069, 39.6668546 ], [ 19.8557391, 39.66929 ], [ 19.8583306, 39.6694756 ], [ 19.8597322, 39.6686188 ], [ 19.8625919, 39.6646097 ], [ 19.862226, 39.6640892 ], [ 19.8615874, 39.6658377 ], [ 19.8590943, 39.6664897 ], [ 19.8570358, 39.6660216 ], [ 19.8547646, 39.6629125 ], [ 19.8532143, 39.6625349 ], [ 19.8536925, 39.6592888 ], [ 19.8518989, 39.6582637 ], [ 19.8485662, 39.6585358 ], [ 19.8499728, 39.659603 ], [ 19.8466311, 39.6630245 ], [ 19.8446096, 39.6622571 ], [ 19.8422118, 39.6593499 ], [ 19.8392436, 39.6590781 ], [ 19.844677, 39.6583538 ], [ 19.8446472, 39.6556246 ], [ 19.8435625, 39.6545772 ], [ 19.8477503, 39.6529626 ], [ 19.8474216, 39.6510262 ], [ 19.8500639, 39.6467314 ], [ 19.8525942, 39.6459896 ], [ 19.8534894, 39.6465598 ], [ 19.852968, 39.6471067 ], [ 19.8581349, 39.6494994 ], [ 19.8580586, 39.650437 ], [ 19.8553896, 39.6503792 ], [ 19.8549275, 39.6511457 ], [ 19.8552633, 39.6524163 ], [ 19.8574702, 39.6530252 ], [ 19.8571487, 39.6558456 ], [ 19.8592271, 39.6542009 ], [ 19.8600317, 39.6545088 ], [ 19.8609533, 39.6492161 ], [ 19.8614202, 39.6494872 ], [ 19.8606525, 39.6481456 ], [ 19.8612111, 39.6447618 ], [ 19.8623498, 39.6424472 ], [ 19.8648168, 39.6402689 ], [ 19.8713009, 39.6374134 ], [ 19.8748099, 39.6373511 ], [ 19.8775968, 39.6354036 ], [ 19.8782882, 39.6355123 ], [ 19.8789572, 39.6373309 ], [ 19.8794431, 39.6365732 ], [ 19.8837775, 39.6365392 ], [ 19.8875579, 39.6354664 ], [ 19.8876518, 39.6340157 ], [ 19.8890908, 39.633535 ], [ 19.8906576, 39.630882 ], [ 19.8922811, 39.630252 ], [ 19.8965283, 39.6304773 ], [ 19.8953633, 39.6310042 ], [ 19.8971433, 39.6315472 ], [ 19.8976764, 39.6307995 ], [ 19.9007389, 39.6301436 ], [ 19.9008359, 39.6329371 ], [ 19.9097768, 39.6331664 ], [ 19.9014669, 39.6325695 ], [ 19.9021384, 39.627577 ], [ 19.9053833, 39.6282296 ], [ 19.9074712, 39.6262664 ], [ 19.9118972, 39.626251 ], [ 19.9136249, 39.6275334 ], [ 19.9123065, 39.6294907 ], [ 19.9146956, 39.627219 ], [ 19.9167658, 39.6267813 ], [ 19.9182634, 39.6274664 ], [ 19.9184394, 39.6268007 ], [ 19.9205145, 39.6271208 ], [ 19.9206922, 39.6279723 ], [ 19.9257631, 39.6273021 ], [ 19.9251973, 39.626151 ], [ 19.9262184, 39.6234285 ], [ 19.9262262, 39.6247974 ], [ 19.929574, 39.6244217 ], [ 19.9294743, 39.6249988 ], [ 19.9278399, 39.6250441 ], [ 19.9275717, 39.6250923 ], [ 19.9327083, 39.6248656 ], [ 19.932978, 39.624385 ], [ 19.9317967, 39.6227142 ], [ 19.9287269, 39.6221667 ], [ 19.9258415, 39.6220348 ], [ 19.9263484, 39.6233306 ], [ 19.926227, 39.6233873 ], [ 19.9243951, 39.6199571 ], [ 19.9252621, 39.6195397 ], [ 19.9264974, 39.6204608 ], [ 19.9252748, 39.6194587 ], [ 19.9238121, 39.6193312 ], [ 19.9209111, 39.6160636 ], [ 19.9208268, 39.6136685 ], [ 19.9217009, 39.6120758 ], [ 19.9277744, 39.6107813 ], [ 19.9282764, 39.6118034 ], [ 19.9282746, 39.6100419 ], [ 19.9265964, 39.6082689 ], [ 19.9266269, 39.6050745 ], [ 19.9277661, 39.6036366 ], [ 19.9264913, 39.6023908 ], [ 19.9271311, 39.6002294 ], [ 19.926653, 39.597304 ], [ 19.9274958, 39.5962213 ], [ 19.9248109, 39.5937306 ], [ 19.9172779, 39.5898075 ], [ 19.9177588, 39.5906567 ], [ 19.916294, 39.590631 ], [ 19.9156037, 39.5929801 ], [ 19.9155678, 39.5913595 ], [ 19.9143264, 39.5911845 ], [ 19.9122874, 39.5975857 ], [ 19.9106553, 39.5980582 ], [ 19.9116981, 39.5997851 ], [ 19.910581, 39.6046991 ], [ 19.9095938, 39.6045443 ], [ 19.9068355, 39.6069408 ], [ 19.9051509, 39.6069901 ], [ 19.9026964, 39.6056425 ], [ 19.9032427, 39.6018086 ], [ 19.9009773, 39.5990299 ], [ 19.9034227, 39.5977339 ], [ 19.9015229, 39.5955238 ], [ 19.91056, 39.5924766 ], [ 19.9107614, 39.5910168 ], [ 19.9099716, 39.590595 ], [ 19.9108636, 39.5894662 ], [ 19.9132043, 39.5877797 ], [ 19.914622, 39.58857 ], [ 19.9143879, 39.5874599 ], [ 19.9152836, 39.5867327 ], [ 19.9146655, 39.5854508 ], [ 19.9154312, 39.5828753 ], [ 19.9136139, 39.5809881 ], [ 19.9149917, 39.5788365 ], [ 19.9093373, 39.5672449 ], [ 19.910494, 39.5654302 ], [ 19.9104152, 39.5618922 ], [ 19.9129411, 39.554156 ], [ 19.9123052, 39.549086 ], [ 19.9131281, 39.5473808 ], [ 19.9140759, 39.5473211 ], [ 19.9138281, 39.5461378 ], [ 19.9149776, 39.5443072 ], [ 19.914661, 39.5422386 ], [ 19.9157502, 39.5411108 ], [ 19.916433, 39.5416604 ], [ 19.9177572, 39.5391645 ], [ 19.9172903, 39.536084 ], [ 19.9235981, 39.5278274 ], [ 19.9237715, 39.5238284 ], [ 19.9230484, 39.5219102 ], [ 19.9246574, 39.5163032 ], [ 19.9237101, 39.5094648 ], [ 19.92458, 39.5086063 ], [ 19.9239209, 39.5075605 ], [ 19.9240447, 39.5030055 ], [ 19.9276757, 39.4949652 ], [ 19.9280861, 39.4887431 ], [ 19.9293256, 39.4849529 ], [ 19.9351279, 39.4793681 ], [ 19.9344573, 39.4786542 ], [ 19.9347115, 39.4770943 ], [ 19.9372244, 39.4722777 ], [ 19.9391048, 39.4713197 ], [ 19.9429276, 39.471085 ], [ 19.9474195, 39.4687075 ], [ 19.9540147, 39.4682562 ], [ 19.9622362, 39.4646464 ], [ 19.9692862, 39.4603781 ], [ 19.9768761, 39.4594572 ], [ 19.9791217, 39.4596321 ], [ 19.979578, 39.4600157 ], [ 19.9788814, 39.4604436 ], [ 19.9894785, 39.4606439 ], [ 19.9945454, 39.4598703 ], [ 20.000494, 39.4573871 ], [ 20.00283, 39.4551725 ], [ 20.0032494, 39.4532402 ], [ 20.0024712, 39.4543376 ], [ 20.0019768, 39.4538933 ], [ 20.0018719, 39.4516604 ], [ 20.0045393, 39.4495347 ], [ 20.0043501, 39.4480094 ], [ 20.0072144, 39.4442473 ], [ 20.0071472, 39.4425706 ], [ 20.0096332, 39.4404891 ], [ 20.0100129, 39.4375914 ], [ 20.0186624, 39.4335173 ], [ 20.0263438, 39.4339513 ], [ 20.0346557, 39.4359709 ], [ 20.0463161, 39.4396892 ], [ 20.0571059, 39.4441996 ], [ 20.0602567, 39.4466131 ], [ 20.0588844, 39.4477018 ], [ 20.0588293, 39.4481644 ], [ 20.0597779, 39.4489003 ], [ 20.0602794, 39.4489899 ], [ 20.0589767, 39.447754 ], [ 20.0605098, 39.4485499 ], [ 20.060624, 39.4479031 ], [ 20.0618491, 39.4479844 ], [ 20.0672217, 39.4530348 ], [ 20.0693741, 39.4567264 ], [ 20.0698999, 39.4604426 ], [ 20.0708011, 39.4606429 ], [ 20.0721207, 39.459578 ], [ 20.0723353, 39.4534283 ], [ 20.0751295, 39.4467261 ], [ 20.0841611, 39.436742 ], [ 20.0862332, 39.4361971 ], [ 20.0874918, 39.4367101 ], [ 20.0865752, 39.4357807 ], [ 20.0871545, 39.4339101 ], [ 20.0946191, 39.4231265 ], [ 20.0956276, 39.4202858 ], [ 20.0956035, 39.4165249 ], [ 20.0970894, 39.4153894 ], [ 20.0984372, 39.4154277 ], [ 20.0971099, 39.4149785 ], [ 20.0972917, 39.4131804 ], [ 20.0987256, 39.4131556 ], [ 20.0972557, 39.4094151 ], [ 20.0995249, 39.4034506 ], [ 20.1075286, 39.3918973 ], [ 20.1109537, 39.388734 ], [ 20.117898, 39.3842563 ], [ 20.1220903, 39.3800105 ], [ 20.1219669, 39.3779123 ], [ 20.1183392, 39.3747194 ], [ 20.1151957, 39.3669085 ], [ 20.1157066, 39.3636404 ], [ 20.1115465, 39.3604043 ], [ 20.1098611, 39.3606248 ], [ 20.1017417, 39.3657662 ], [ 20.0973488, 39.3673266 ], [ 20.0905145, 39.3681709 ], [ 20.0869844, 39.366857 ], [ 20.0863253, 39.3656306 ], [ 20.0869799, 39.3648027 ], [ 20.084552, 39.3661718 ], [ 20.0836504, 39.3654862 ], [ 20.0827333, 39.3672092 ], [ 20.0806525, 39.3668179 ], [ 20.0803307, 39.3678616 ], [ 20.079037, 39.3681495 ], [ 20.0749356, 39.3716266 ], [ 20.0721187, 39.3728317 ], [ 20.0702102, 39.372737 ], [ 20.0665193, 39.3755268 ], [ 20.0599216, 39.3783409 ], [ 20.0582651, 39.3799747 ], [ 20.0459816, 39.384027 ], [ 20.0297686, 39.391916 ], [ 20.0200839, 39.3946398 ], [ 20.0170952, 39.3939909 ], [ 20.0108457, 39.3947765 ], [ 20.001462, 39.3985945 ], [ 19.9992545, 39.3986908 ], [ 19.9983761, 39.403092 ], [ 19.9947014, 39.4068204 ], [ 19.9821606, 39.4150032 ], [ 19.9726205, 39.4192513 ], [ 19.9565929, 39.4243854 ], [ 19.9525843, 39.4249485 ], [ 19.9494182, 39.4244314 ], [ 19.9483292, 39.4252595 ], [ 19.9456672, 39.4248758 ], [ 19.9453376, 39.4255826 ], [ 19.9433112, 39.4257211 ], [ 19.9441939, 39.426021 ], [ 19.9431312, 39.426069 ], [ 19.9430821, 39.4269536 ], [ 19.9378413, 39.4299656 ], [ 19.9321845, 39.4315919 ], [ 19.9264419, 39.4319545 ], [ 19.9108931, 39.4306783 ], [ 19.9062207, 39.4365379 ], [ 19.9004842, 39.4397754 ], [ 19.8971985, 39.4431638 ], [ 19.8787809, 39.4500691 ], [ 19.8731642, 39.4533145 ], [ 19.8704842, 39.4565753 ], [ 19.8686638, 39.4563697 ], [ 19.8677593, 39.457716 ], [ 19.8690164, 39.4584314 ], [ 19.8691473, 39.4598925 ], [ 19.8689917, 39.4602616 ], [ 19.8670983, 39.4615184 ], [ 19.8660474, 39.4644112 ], [ 19.8651944, 39.4650354 ], [ 19.8660182, 39.4672138 ], [ 19.8653878, 39.4692275 ], [ 19.8660801, 39.4700157 ], [ 19.8652486, 39.4727115 ], [ 19.8603255, 39.4782773 ], [ 19.8587225, 39.4835021 ], [ 19.8549213, 39.4871766 ], [ 19.8513144, 39.4929907 ], [ 19.8510626, 39.4959863 ], [ 19.8526591, 39.498054 ], [ 19.8526262, 39.5034164 ], [ 19.851458, 39.5069615 ], [ 19.8494841, 39.508365 ], [ 19.8501414, 39.5117109 ], [ 19.8487741, 39.5129366 ], [ 19.8485902, 39.5142111 ], [ 19.8496202, 39.515467 ], [ 19.8503439, 39.5189806 ], [ 19.8481604, 39.5199042 ], [ 19.8460169, 39.5237767 ], [ 19.8463463, 39.5248616 ], [ 19.8446698, 39.5256432 ], [ 19.8456682, 39.5266665 ], [ 19.8432896, 39.5273758 ], [ 19.843356, 39.5294201 ], [ 19.842247, 39.5290442 ], [ 19.8436444, 39.5310489 ], [ 19.8437018, 39.5362338 ], [ 19.8458468, 39.5365606 ], [ 19.8458047, 39.5375078 ], [ 19.8482257, 39.5388678 ], [ 19.8486088, 39.5409696 ], [ 19.8504153, 39.542253 ], [ 19.8501431, 39.5450837 ], [ 19.8436058, 39.5556065 ], [ 19.8395947, 39.5585718 ], [ 19.8394352, 39.5596407 ], [ 19.8375585, 39.5612062 ], [ 19.8343319, 39.5612569 ], [ 19.8347721, 39.561921 ], [ 19.8340055, 39.5620676 ], [ 19.8340353, 39.5639448 ], [ 19.8334251, 39.5642594 ], [ 19.8340385, 39.5643 ], [ 19.8343318, 39.5660195 ], [ 19.8323458, 39.5670045 ], [ 19.8312713, 39.5731513 ], [ 19.8300649, 39.574477 ], [ 19.826753, 39.5747339 ], [ 19.8256005, 39.5778512 ], [ 19.8242145, 39.5773039 ], [ 19.8220146, 39.5783453 ], [ 19.8224358, 39.5805681 ], [ 19.8205347, 39.5818314 ], [ 19.819255, 39.584376 ], [ 19.8176181, 39.5852932 ], [ 19.8167026, 39.5851415 ], [ 19.8166499, 39.5845741 ], [ 19.8107201, 39.589941 ], [ 19.8051143, 39.5934031 ], [ 19.8032623, 39.5939394 ], [ 19.8024152, 39.5930648 ], [ 19.7996373, 39.5954504 ], [ 19.7958244, 39.5967435 ], [ 19.7899818, 39.5965495 ], [ 19.7860445, 39.5991016 ], [ 19.7845296, 39.5990288 ], [ 19.7838884, 39.5977633 ], [ 19.7827127, 39.5975069 ], [ 19.7819812, 39.5990859 ], [ 19.7745055, 39.6014714 ], [ 19.773062, 39.6028247 ], [ 19.7728766, 39.6058664 ], [ 19.7747893, 39.6067328 ], [ 19.7752516, 39.6084113 ], [ 19.7774181, 39.6095683 ], [ 19.7767272, 39.6118369 ], [ 19.7735892, 39.6122892 ], [ 19.7720146, 39.6117614 ], [ 19.7710487, 39.6121073 ], [ 19.7710625, 39.6131402 ], [ 19.7686498, 39.614017 ], [ 19.7667027, 39.6125286 ], [ 19.7655311, 39.6130603 ], [ 19.7669154, 39.6145685 ], [ 19.7660619, 39.6158104 ], [ 19.7616331, 39.6164604 ], [ 19.7597499, 39.6182915 ], [ 19.7560978, 39.618912 ], [ 19.7565305, 39.6205527 ], [ 19.7559561, 39.6210706 ], [ 19.7550175, 39.6211071 ], [ 19.7536797, 39.6202394 ], [ 19.7523458, 39.6206593 ], [ 19.7517211, 39.620128 ], [ 19.7482391, 39.6228141 ], [ 19.7467767, 39.622979 ], [ 19.7468351, 39.6242325 ], [ 19.7447724, 39.6232831 ], [ 19.7438278, 39.6244086 ], [ 19.7423079, 39.6232867 ], [ 19.7422069, 39.6246908 ], [ 19.7417418, 39.6253958 ], [ 19.7408356, 39.6248008 ], [ 19.740804, 39.6267946 ], [ 19.7400864, 39.6273879 ], [ 19.7403577, 39.6284119 ], [ 19.7418382, 39.6286488 ], [ 19.7414211, 39.6314 ], [ 19.7410256, 39.6321804 ], [ 19.740435, 39.6323155 ], [ 19.7405063, 39.635528 ], [ 19.7358527, 39.6427108 ], [ 19.7354216, 39.6453145 ], [ 19.7312459, 39.6483366 ], [ 19.7303658, 39.6498195 ], [ 19.730909, 39.6507939 ], [ 19.7285561, 39.6525937 ], [ 19.72609, 39.6535075 ], [ 19.7256658, 39.652691 ], [ 19.724401, 39.653418 ], [ 19.7227932, 39.6524394 ], [ 19.7206061, 39.6537047 ], [ 19.7220504, 39.6557456 ], [ 19.7238341, 39.6560758 ], [ 19.7231273, 39.6568807 ], [ 19.7259011, 39.6574275 ], [ 19.7263029, 39.6585297 ], [ 19.7265176, 39.6605296 ], [ 19.723885, 39.6642714 ], [ 19.7240649, 39.665357 ], [ 19.7225461, 39.6646435 ], [ 19.7219395, 39.6659411 ], [ 19.7238708, 39.6655341 ], [ 19.7237655, 39.6667712 ], [ 19.7243938, 39.666176 ], [ 19.7259255, 39.6670942 ], [ 19.7263421, 39.6700085 ], [ 19.7275916, 39.6704277 ], [ 19.7273789, 39.6714261 ], [ 19.7288793, 39.671871 ], [ 19.7294876, 39.6735056 ], [ 19.729184, 39.6741222 ], [ 19.7248442, 39.6738384 ], [ 19.7218838, 39.6727893 ], [ 19.7207316, 39.6738407 ], [ 19.7188024, 39.673831 ], [ 19.7125256, 39.6703129 ], [ 19.7151605, 39.6732647 ], [ 19.7125209, 39.6745583 ], [ 19.7109372, 39.6736722 ], [ 19.711126, 39.6750257 ], [ 19.7096858, 39.6756585 ], [ 19.7080236, 39.6745574 ], [ 19.7085565, 39.6737472 ], [ 19.70699, 39.6733391 ], [ 19.7072694, 39.672255 ], [ 19.7087, 39.6723098 ], [ 19.7089255, 39.6729719 ], [ 19.7081306, 39.669968 ], [ 19.7050449, 39.6687348 ], [ 19.7049233, 39.6699662 ], [ 19.7035132, 39.6710392 ], [ 19.7041664, 39.6718822 ], [ 19.7028288, 39.6721276 ], [ 19.7021295, 39.6716658 ], [ 19.7027442, 39.6693871 ], [ 19.7003087, 39.6683725 ], [ 19.6999414, 39.669457 ], [ 19.6985936, 39.6692521 ], [ 19.6997746, 39.671766 ], [ 19.7007256, 39.6719702 ], [ 19.7006848, 39.673245 ], [ 19.6975512, 39.6731091 ], [ 19.6973505, 39.6741262 ], [ 19.6952406, 39.6743789 ], [ 19.6916606, 39.6729246 ], [ 19.6907674, 39.6732871 ], [ 19.690298, 39.6738239 ], [ 19.6894343, 39.6741773 ], [ 19.6892604, 39.6753683 ], [ 19.6849438, 39.6751907 ], [ 19.6833878, 39.6778876 ], [ 19.6821543, 39.6774801 ], [ 19.6804844, 39.6789898 ], [ 19.6782511, 39.6785363 ], [ 19.6757182, 39.6802437 ], [ 19.6730485, 39.6802741 ], [ 19.6739484, 39.6822366 ], [ 19.6730037, 39.6829868 ], [ 19.6741926, 39.6840456 ], [ 19.6749359, 39.6879614 ], [ 19.6745659, 39.6886232 ], [ 19.6758372, 39.6904993 ], [ 19.6751612, 39.6907475 ], [ 19.6743271, 39.6940156 ], [ 19.677655, 39.6986872 ], [ 19.677238, 39.6999609 ], [ 19.678411, 39.7036568 ], [ 19.6810783, 39.7050414 ], [ 19.681336, 39.7076329 ], [ 19.683815, 39.7088399 ], [ 19.6824169, 39.7137234 ], [ 19.6788455, 39.7172871 ], [ 19.6740626, 39.7200746 ], [ 19.668705, 39.7217636 ], [ 19.6642944, 39.722176 ], [ 19.6626862, 39.7196206 ], [ 19.6597847, 39.7177228 ], [ 19.6594419, 39.7156916 ], [ 19.6582092, 39.7154521 ], [ 19.6592697, 39.7142168 ], [ 19.6579853, 39.7141108 ], [ 19.6570329, 39.7104941 ], [ 19.6534165, 39.710678 ], [ 19.6523654, 39.7150111 ], [ 19.6556331, 39.7136503 ], [ 19.6576893, 39.7148404 ], [ 19.6524217, 39.7173387 ], [ 19.6534957, 39.7174414 ], [ 19.6545999, 39.7182416 ], [ 19.656834, 39.7211887 ], [ 19.6559877, 39.7243298 ], [ 19.6575835, 39.7262758 ], [ 19.6549964, 39.7293373 ], [ 19.6553108, 39.7341675 ], [ 19.64547, 39.7463307 ], [ 19.6411815, 39.7499564 ], [ 19.6397986, 39.7507173 ], [ 19.6347623, 39.7501195 ], [ 19.6284992, 39.7523686 ] ] ] ] } }
]
}
