{
"type": "FeatureCollection",
"name": "cyprus",
"crs": { "type": "name", "properties": { "name": "urn:ogc:def:crs:OGC:1.3:CRS84" } },
"features": [
{ "type": "Feature", "properties": { }, "geometry": { "type": "MultiPolygon", "coordinates": [ [ [ [ 33.740526, 34.982462 ], [ 33.743984, 34.981717 ], [ 33.749053, 34.981986 ], [ 33.749319, 34.981418 ], [ 33.7476591, 34.9793082 ], [ 33.7466356, 34.9792847 ], [ 33.7480196, 34.9790427 ], [ 33.7463078, 34.9785254 ], [ 33.746701, 34.979057 ], [ 33.7455423, 34.9791129 ], [ 33.7459758, 34.9781406 ], [ 33.743565, 34.9792942 ], [ 33.7424324, 34.9812945 ], [ 33.74053, 34.981753 ], [ 33.740526, 34.982462 ] ] ], [ [ [ 33.743664, 34.987509 ], [ 33.745476, 34.987432 ], [ 33.748789, 34.982384 ], [ 33.74589, 34.98193 ], [ 33.740862, 34.982747 ], [ 33.740506, 34.983488 ], [ 33.743664, 34.987509 ] ] ], [ [ [ 33.757053, 34.998857 ], [ 33.760004, 35.000924 ], [ 33.761451, 35.000749 ], [ 33.773173, 34.997636 ], [ 33.775295, 34.995513 ], [ 33.785128, 34.995724 ], [ 33.791913, 34.988978 ], [ 33.78978, 34.988438 ], [ 33.785607, 34.989602 ], [ 33.78368, 34.988474 ], [ 33.783344, 34.98694 ], [ 33.782274, 34.987256 ], [ 33.782387, 34.988623 ], [ 33.780896, 34.988511 ], [ 33.780241, 34.987248 ], [ 33.779894, 34.988098 ], [ 33.778495, 34.987924 ], [ 33.777548, 34.989912 ], [ 33.767235, 34.991971 ], [ 33.766259, 34.995386 ], [ 33.760724, 34.996984 ], [ 33.761331, 34.997648 ], [ 33.759806, 34.998431 ], [ 33.757053, 34.998857 ] ] ], [ [ [ 33.734439, 35.012079 ], [ 33.738681, 35.022128 ], [ 33.74291, 35.023067 ], [ 33.749833, 35.022456 ], [ 33.749304, 35.013225 ], [ 33.744514, 35.012097 ], [ 33.741369, 35.010399 ], [ 33.735645, 35.011001 ], [ 33.736612, 35.011891 ], [ 33.734439, 35.012079 ] ] ], [ [ [ 32.0266848, 35.1073249 ], [ 32.035175, 35.1435291 ], [ 32.0455373, 35.1759599 ], [ 32.050991, 35.188487 ], [ 32.0574328, 35.2006942 ], [ 32.0648355, 35.2125288 ], [ 32.0823939, 35.2348793 ], [ 32.1033675, 35.2551544 ], [ 32.1150251, 35.2644033 ], [ 32.1404329, 35.2809247 ], [ 32.1682624, 35.2945789 ], [ 32.1980356, 35.3051308 ], [ 32.213492, 35.3091844 ], [ 32.245212, 35.3147595 ], [ 32.2775507, 35.3168847 ], [ 32.3099509, 35.3155232 ], [ 32.3418538, 35.3106986 ], [ 32.362822, 35.3054205 ], [ 32.3767602, 35.3183304 ], [ 32.3884578, 35.3275528 ], [ 32.4139405, 35.3440167 ], [ 32.4418372, 35.357608 ], [ 32.4716687, 35.3680926 ], [ 32.5600635, 35.3892089 ], [ 32.5925721, 35.3947714 ], [ 32.6247201, 35.3985337 ], [ 32.6711886, 35.3991209 ], [ 32.6715374, 35.4136533 ], [ 32.6729616, 35.4269048 ], [ 32.6754421, 35.4400515 ], [ 32.678969, 35.4530372 ], [ 32.6835276, 35.4658062 ], [ 32.6890987, 35.4783035 ], [ 32.6956589, 35.4904757 ], [ 32.7031806, 35.5022704 ], [ 32.7209763, 35.5245264 ], [ 32.7421832, 35.5446894 ], [ 32.7539548, 35.553876 ], [ 32.7795822, 35.5702622 ], [ 32.8076174, 35.5837686 ], [ 32.8375787, 35.5941627 ], [ 32.8531217, 35.5981345 ], [ 32.8689508, 35.6012655 ], [ 32.901193, 35.6049545 ], [ 32.93375, 35.6051662 ], [ 32.949971, 35.6039646 ], [ 32.9700612, 35.6012445 ], [ 33.1560597, 35.5694561 ], [ 33.3020164, 35.5538335 ], [ 33.5534532, 35.5620315 ], [ 33.6731535, 35.6016612 ], [ 33.937128, 35.6663969 ], [ 34.0264094, 35.7231413 ], [ 34.0396994, 35.730854 ], [ 34.0679975, 35.7440686 ], [ 34.3372559, 35.8410927 ], [ 34.5279422, 35.9030289 ], [ 34.5436251, 35.9067842 ], [ 34.5757305, 35.9117483 ], [ 34.5920147, 35.9129357 ], [ 34.624695, 35.9126959 ], [ 34.6570549, 35.9089793 ], [ 34.67294, 35.905835 ], [ 34.6885369, 35.9018501 ], [ 34.7185984, 35.8914312 ], [ 34.7467224, 35.8779019 ], [ 34.7599052, 35.8700417 ], [ 34.7842297, 35.8522992 ], [ 34.7952672, 35.8424935 ], [ 34.8148566, 35.8212234 ], [ 34.8233249, 35.8098507 ], [ 34.8308596, 35.7980506 ], [ 34.8374288, 35.785874 ], [ 34.8430047, 35.773373 ], [ 34.8475638, 35.7606013 ], [ 34.8510871, 35.7476138 ], [ 34.8535598, 35.7344662 ], [ 34.8549721, 35.7212147 ], [ 34.8553182, 35.7079163 ], [ 34.8545973, 35.6946277 ], [ 34.8528129, 35.6814061 ], [ 34.8499733, 35.6683078 ], [ 34.8460909, 35.655389 ], [ 34.8411831, 35.6427048 ], [ 34.8297536, 35.6205004 ], [ 34.7929818, 35.5594298 ], [ 34.7851536, 35.547767 ], [ 34.7667921, 35.5258175 ], [ 34.7466108, 35.5064722 ], [ 34.723384, 35.4878644 ], [ 34.7107085, 35.4795299 ], [ 34.5548391, 35.3915507 ], [ 34.4609357, 35.3323306 ], [ 34.2881837, 35.2378745 ], [ 34.27214, 35.215445 ], [ 34.2626251, 35.204675 ], [ 34.2522748, 35.194438 ], [ 34.2305182, 35.1766451 ], [ 34.2799737, 35.1119422 ], [ 34.2875224, 35.1001736 ], [ 34.3060106, 35.0660573 ], [ 34.3152776, 35.0437044 ], [ 34.3258653, 35.0121945 ], [ 34.3294391, 34.9992199 ], [ 34.331973, 34.9860807 ], [ 34.3334567, 34.9728331 ], [ 34.3338842, 34.959534 ], [ 34.3332545, 34.9462404 ], [ 34.3315705, 34.933009 ], [ 34.3288401, 34.9198967 ], [ 34.3250753, 34.9069594 ], [ 34.3164173, 34.8854733 ], [ 34.3055295, 34.8647496 ], [ 34.2892352, 34.8417977 ], [ 34.2797613, 34.8310286 ], [ 34.2583636, 34.8111333 ], [ 34.2340105, 34.7937068 ], [ 34.207118, 34.7790457 ], [ 34.1928613, 34.772832 ], [ 34.1630307, 34.7627707 ], [ 34.1318695, 34.7560006 ], [ 34.0999075, 34.7526369 ], [ 34.0676875, 34.7527367 ], [ 34.035757, 34.7562983 ], [ 33.9865233, 34.7659733 ], [ 33.9832178, 34.8546821 ], [ 33.9807151, 34.8751471 ], [ 33.944512, 34.9285976 ], [ 33.9390494, 34.9377393 ], [ 33.929288, 34.9496932 ], [ 33.9207791, 34.9583502 ], [ 33.9121007, 34.9618638 ], [ 33.8926522, 34.9671524 ], [ 33.8600647, 34.973761 ], [ 33.8473687, 34.9716495 ], [ 33.8402937, 34.9717682 ], [ 33.8346204, 34.9745595 ], [ 33.8377492, 34.9784473 ], [ 33.8399251, 34.9776544 ], [ 33.8461993, 34.9850752 ], [ 33.8549052, 34.9845491 ], [ 33.8551308, 34.9900383 ], [ 33.8537403, 34.9955827 ], [ 33.8537014, 35.0024193 ], [ 33.8365619, 35.0031905 ], [ 33.8328626, 35.0067859 ], [ 33.8275221, 35.0086074 ], [ 33.826726, 35.0315873 ], [ 33.8208169, 35.0379694 ], [ 33.8025864, 35.0440285 ], [ 33.8001519, 35.04594 ], [ 33.7919827, 35.0484829 ], [ 33.7975014, 35.0588444 ], [ 33.8204145, 35.071474 ], [ 33.8248215, 35.0707631 ], [ 33.8294504, 35.0685037 ], [ 33.8331773, 35.0647415 ], [ 33.8399183, 35.0611356 ], [ 33.8479353, 35.0629576 ], [ 33.8551006, 35.0659604 ], [ 33.8632827, 35.0714942 ], [ 33.8682339, 35.0782814 ], [ 33.8742736, 35.0812672 ], [ 33.8932026, 35.0678945 ], [ 33.9024175, 35.0771653 ], [ 33.9060027, 35.078046 ], [ 33.9110232, 35.0806451 ], [ 33.9165044, 35.0867664 ], [ 33.9107034, 35.0915076 ], [ 33.9082067, 35.0958834 ], [ 33.9075332, 35.0955667 ], [ 33.905773, 35.0980176 ], [ 33.9017599, 35.0957742 ], [ 33.9002261, 35.0969556 ], [ 33.8994316, 35.1037822 ], [ 33.8983419, 35.1046494 ], [ 33.8935883, 35.1141558 ], [ 33.8859953, 35.1160193 ], [ 33.8839102, 35.123617 ], [ 33.8723899, 35.1237157 ], [ 33.8682565, 35.1043031 ], [ 33.8667589, 35.1011916 ], [ 33.8678929, 35.1004359 ], [ 33.8685467, 35.0967419 ], [ 33.8676943, 35.0947622 ], [ 33.8734258, 35.0824513 ], [ 33.8669973, 35.078538 ], [ 33.8612, 35.0714527 ], [ 33.8556512, 35.0677755 ], [ 33.8471008, 35.0636822 ], [ 33.839404, 35.0623383 ], [ 33.8334941, 35.0657235 ], [ 33.8301596, 35.0691049 ], [ 33.8256798, 35.0714367 ], [ 33.8192557, 35.0727294 ], [ 33.7967098, 35.059534 ], [ 33.7915599, 35.0497924 ], [ 33.7899617, 35.0485458 ], [ 33.7818391, 35.0460689 ], [ 33.7733016, 35.0485905 ], [ 33.76433, 35.0393554 ], [ 33.7441236, 35.0518862 ], [ 33.7407283, 35.0531091 ], [ 33.7377246, 35.056202 ], [ 33.7327548, 35.053695 ], [ 33.7325734, 35.0526552 ], [ 33.7173843, 35.042657 ], [ 33.7122742, 35.0410115 ], [ 33.7120491, 35.0380424 ], [ 33.7053797, 35.0386219 ], [ 33.7052444, 35.0400453 ], [ 33.7079875, 35.0451744 ], [ 33.7031637, 35.0471234 ], [ 33.7029409, 35.0483499 ], [ 33.705694, 35.0492503 ], [ 33.7090729, 35.0479803 ], [ 33.711486, 35.0579755 ], [ 33.7165759, 35.0701303 ], [ 33.7124703, 35.0742652 ], [ 33.7053924, 35.0756302 ], [ 33.693338, 35.0661543 ], [ 33.6901873, 35.0662001 ], [ 33.6773835, 35.063003 ], [ 33.6743572, 35.0573624 ], [ 33.6735152, 35.0493268 ], [ 33.674627, 35.0450903 ], [ 33.6786583, 35.0412959 ], [ 33.679191, 35.0394608 ], [ 33.6885791, 35.0380096 ], [ 33.6999623, 35.0327518 ], [ 33.7043345, 35.0296559 ], [ 33.7041024, 35.0261204 ], [ 33.7015583, 35.0235764 ], [ 33.6958977, 35.020432 ], [ 33.6957221, 35.0182151 ], [ 33.6976196, 35.017461 ], [ 33.6981242, 35.0139947 ], [ 33.7099053, 35.0086888 ], [ 33.7117426, 35.0085185 ], [ 33.7135283, 35.0035265 ], [ 33.7102193, 34.9964276 ], [ 33.7027962, 34.9988618 ], [ 33.7009525, 34.9981258 ], [ 33.7010114, 34.9789422 ], [ 33.7155614, 34.9296159 ], [ 33.7161599, 34.9236791 ], [ 33.7431605, 34.8940761 ], [ 33.7593011, 34.879748 ], [ 33.7728987, 34.8579481 ], [ 33.8116439, 34.7840178 ], [ 33.8357357, 34.7401438 ], [ 33.8098354, 34.705943 ], [ 33.7902116, 34.6848594 ], [ 33.7674343, 34.6660678 ], [ 33.741893, 34.6498879 ], [ 33.7282205, 34.6428653 ], [ 33.7045677, 34.6329447 ], [ 33.4631354, 34.5435114 ], [ 33.444251, 34.5377311 ], [ 33.3915831, 34.5238417 ], [ 33.3262987, 34.5091206 ], [ 33.2677321, 34.4992906 ], [ 33.2309852, 34.5449126 ], [ 33.2053154, 34.5678765 ], [ 33.1710623, 34.593649 ], [ 33.1514557, 34.6063085 ], [ 33.1192167, 34.612985 ], [ 33.0669961, 34.6171336 ], [ 33.0139196, 34.6443263 ], [ 33.0031889, 34.6440934 ], [ 33.0028301, 34.6446823 ], [ 32.9970671, 34.6432548 ], [ 32.9902809, 34.6431912 ], [ 32.9904863, 34.6421496 ], [ 32.9868212, 34.6429512 ], [ 32.9804018, 34.6418603 ], [ 32.9722094, 34.6392129 ], [ 32.9690573, 34.6391341 ], [ 32.9673004, 34.6345586 ], [ 32.9631057, 34.6323424 ], [ 32.9625861, 34.6332198 ], [ 32.9609867, 34.632697 ], [ 32.9604009, 34.6341859 ], [ 32.9589467, 34.6337459 ], [ 32.9572938, 34.6345096 ], [ 32.9566155, 34.6358845 ], [ 32.9551406, 34.63533 ], [ 32.9540502, 34.6371403 ], [ 32.9547605, 34.6374253 ], [ 32.9548343, 34.6390443 ], [ 32.9538263, 34.6389761 ], [ 32.9535018, 34.6409112 ], [ 32.9554902, 34.643061 ], [ 32.9529115, 34.646539 ], [ 32.9544782, 34.6470449 ], [ 32.9527163, 34.6509924 ], [ 32.9614823, 34.6560147 ], [ 32.9615378, 34.6571348 ], [ 32.9637351, 34.6585366 ], [ 32.9677892, 34.6573014 ], [ 32.9690618, 34.6548697 ], [ 32.9729758, 34.6537948 ], [ 32.9804084, 34.6533501 ], [ 32.9898992, 34.6553005 ], [ 32.9899758, 34.6590984 ], [ 32.9879947, 34.671217 ], [ 32.9896837, 34.6798092 ], [ 32.9702286, 34.6818069 ], [ 32.9641329, 34.6836866 ], [ 32.9555543, 34.6839671 ], [ 32.9413043, 34.6742195 ], [ 32.9398644, 34.6703327 ], [ 32.9375722, 34.6707332 ], [ 32.9359799, 34.6653854 ], [ 32.9334607, 34.6642389 ], [ 32.9283237, 34.668214 ], [ 32.9302622, 34.6709498 ], [ 32.9235412, 34.6729377 ], [ 32.9153887, 34.6737683 ], [ 32.9096177, 34.6641232 ], [ 32.9061982, 34.6634273 ], [ 32.8964849, 34.6651443 ], [ 32.8934433, 34.6670059 ], [ 32.8891817, 34.6681752 ], [ 32.883621, 34.6721736 ], [ 32.881289, 34.6757339 ], [ 32.8789079, 34.6777132 ], [ 32.8765914, 34.6792286 ], [ 32.8744578, 34.6791435 ], [ 32.8610392, 34.6876085 ], [ 32.8602058, 34.6923071 ], [ 32.8581434, 34.6959545 ], [ 32.8581581, 34.704816 ], [ 32.8516044, 34.7055941 ], [ 32.8252581, 34.7060697 ], [ 32.8186357, 34.6962045 ], [ 32.8090339, 34.692124 ], [ 32.8035881, 34.6924647 ], [ 32.8008434, 34.6895961 ], [ 32.799531, 34.6894678 ], [ 32.7988584, 34.6866228 ], [ 32.7993504, 34.6853616 ], [ 32.7983659, 34.6831234 ], [ 32.792514, 34.6768544 ], [ 32.7916093, 34.6769206 ], [ 32.7899689, 34.6789488 ], [ 32.7744866, 34.6783182 ], [ 32.7678498, 34.6817994 ], [ 32.7639901, 34.682183 ], [ 32.7597854, 34.6813578 ], [ 32.7545141, 34.6495475 ], [ 32.7767337, 34.6039877 ], [ 32.7441537, 34.4389993 ], [ 32.6917017, 34.4386708 ], [ 32.6598364, 34.4418679 ], [ 32.6441597, 34.444751 ], [ 32.5741258, 34.4636409 ], [ 32.4113987, 34.5124163 ], [ 32.3890603, 34.5201402 ], [ 32.3610204, 34.533127 ], [ 32.2647913, 34.5877254 ], [ 32.2444959, 34.6005726 ], [ 32.2214173, 34.6190961 ], [ 32.2014502, 34.6399483 ], [ 32.1849372, 34.6627739 ], [ 32.138544, 34.7507989 ], [ 32.1155513, 34.773545 ], [ 32.1059501, 34.7842332 ], [ 32.0893814, 34.8070456 ], [ 32.0824855, 34.8190725 ], [ 32.0765561, 34.8314453 ], [ 32.0716191, 34.8441111 ], [ 32.0676961, 34.8570159 ], [ 32.0648042, 34.8701045 ], [ 32.0603276, 34.9111527 ], [ 32.037113, 34.9693222 ], [ 32.0292499, 34.9963847 ], [ 32.026347, 35.0094721 ], [ 32.0237234, 35.034517 ], [ 32.0227581, 35.0676399 ], [ 32.0230135, 35.0809418 ], [ 32.0243267, 35.0942015 ], [ 32.0266848, 35.1073249 ] ] ] ] } }
]
}
