{
"type": "FeatureCollection",
"name": "elba",
"crs": { "type": "name", "properties": { "name": "urn:ogc:def:crs:OGC:1.3:CRS84" } },
"features": [
{ "type": "Feature", "properties": { }, "geometry": { "type": "MultiPolygon", "coordinates": [ [ [ [ 10.3192274, 42.7341701 ], [ 10.3190352, 42.734119 ], [ 10.3191909, 42.7342103 ], [ 10.3192274, 42.7341701 ] ] ], [ [ [ 10.3193512, 42.7342669 ], [ 10.3192405, 42.7343209 ], [ 10.3193411, 42.7343358 ], [ 10.3193512, 42.7342669 ] ] ], [ [ [ 10.3195702, 42.7346172 ], [ 10.3196825, 42.7341206 ], [ 10.3192408, 42.7345102 ], [ 10.3195702, 42.7346172 ] ] ], [ [ [ 10.3194434, 42.7347246 ], [ 10.3194357, 42.7348179 ], [ 10.3195814, 42.7347503 ], [ 10.3194434, 42.7347246 ] ] ], [ [ [ 10.3189927, 42.7359442 ], [ 10.318981, 42.7360661 ], [ 10.3191307, 42.7359699 ], [ 10.3189927, 42.7359442 ] ] ], [ [ [ 10.3187892, 42.736116 ], [ 10.3185997, 42.7361864 ], [ 10.3188243, 42.7361314 ], [ 10.3187892, 42.736116 ] ] ], [ [ [ 10.3204727, 42.7547971 ], [ 10.3204939, 42.7548269 ], [ 10.3205041, 42.7547967 ], [ 10.3204727, 42.7547971 ] ] ], [ [ [ 10.2985521, 42.7551037 ], [ 10.2984967, 42.7550802 ], [ 10.2984974, 42.7550978 ], [ 10.2985521, 42.7551037 ] ] ], [ [ [ 10.298211, 42.7554977 ], [ 10.2983594, 42.7552128 ], [ 10.2981259, 42.7554372 ], [ 10.298211, 42.7554977 ] ] ], [ [ [ 10.2971064, 42.7554866 ], [ 10.297259, 42.7553546 ], [ 10.297109, 42.7554099 ], [ 10.2971064, 42.7554866 ] ] ], [ [ [ 10.2972742, 42.7555159 ], [ 10.2972267, 42.7555476 ], [ 10.297271, 42.7555606 ], [ 10.2972742, 42.7555159 ] ] ], [ [ [ 10.2970175, 42.7556157 ], [ 10.2971768, 42.7556251 ], [ 10.2970119, 42.7555151 ], [ 10.2970175, 42.7556157 ] ] ], [ [ [ 10.311143, 42.7556825 ], [ 10.3111438, 42.7555524 ], [ 10.3110478, 42.7556167 ], [ 10.311143, 42.7556825 ] ] ], [ [ [ 10.2970239, 42.7557176 ], [ 10.2973504, 42.7559225 ], [ 10.2973752, 42.7556389 ], [ 10.2970239, 42.7557176 ] ] ], [ [ [ 10.2978165, 42.7557792 ], [ 10.2980631, 42.7559097 ], [ 10.2982201, 42.7557004 ], [ 10.2978165, 42.7557792 ] ] ], [ [ [ 10.3204851, 42.7560076 ], [ 10.3204723, 42.7560394 ], [ 10.3204971, 42.7560269 ], [ 10.3204851, 42.7560076 ] ] ], [ [ [ 10.3198062, 42.7569688 ], [ 10.3197501, 42.7569736 ], [ 10.3198051, 42.7569811 ], [ 10.3198062, 42.7569688 ] ] ], [ [ [ 10.3197033, 42.7569591 ], [ 10.319706, 42.7569791 ], [ 10.3197361, 42.756966 ], [ 10.3197033, 42.7569591 ] ] ], [ [ [ 10.2980064, 42.7574123 ], [ 10.2980193, 42.757439 ], [ 10.2980425, 42.757413 ], [ 10.2980064, 42.7574123 ] ] ], [ [ [ 10.2980489, 42.7574584 ], [ 10.2980183, 42.7574891 ], [ 10.2980623, 42.757478 ], [ 10.2980489, 42.7574584 ] ] ], [ [ [ 10.3194104, 42.7577704 ], [ 10.3193482, 42.7577709 ], [ 10.3193516, 42.757782 ], [ 10.3194104, 42.7577704 ] ] ], [ [ [ 10.3193185, 42.7577791 ], [ 10.3192493, 42.7577815 ], [ 10.3193219, 42.7577905 ], [ 10.3193185, 42.7577791 ] ] ], [ [ [ 10.2985218, 42.7579547 ], [ 10.298533, 42.7579686 ], [ 10.2985413, 42.7579418 ], [ 10.2985218, 42.7579547 ] ] ], [ [ [ 10.2985533, 42.7579667 ], [ 10.2985683, 42.7579854 ], [ 10.2985754, 42.757973 ], [ 10.2985533, 42.7579667 ] ] ], [ [ [ 10.2984689, 42.7580661 ], [ 10.2985004, 42.7580812 ], [ 10.2985228, 42.7580695 ], [ 10.2984689, 42.7580661 ] ] ], [ [ [ 10.2988532, 42.7583874 ], [ 10.2988503, 42.7583331 ], [ 10.2988055, 42.7583723 ], [ 10.2988532, 42.7583874 ] ] ], [ [ [ 10.2992518, 42.7588479 ], [ 10.2992045, 42.7588575 ], [ 10.299251, 42.7588758 ], [ 10.2992518, 42.7588479 ] ] ], [ [ [ 10.2994092, 42.7590518 ], [ 10.2993952, 42.7590673 ], [ 10.2994183, 42.7590697 ], [ 10.2994092, 42.7590518 ] ] ], [ [ [ 10.1029455, 42.7657973 ], [ 10.1043856, 42.7723443 ], [ 10.1034659, 42.7750441 ], [ 10.1037963, 42.7786292 ], [ 10.1028133, 42.7827582 ], [ 10.1038662, 42.7853267 ], [ 10.1033686, 42.7865571 ], [ 10.1043002, 42.7866871 ], [ 10.1038783, 42.7877946 ], [ 10.1063302, 42.791259 ], [ 10.1092135, 42.7919103 ], [ 10.1101758, 42.7935855 ], [ 10.1092704, 42.7940132 ], [ 10.110299, 42.7950387 ], [ 10.1141636, 42.7951515 ], [ 10.1182724, 42.7982316 ], [ 10.1195402, 42.7975621 ], [ 10.1204899, 42.7980221 ], [ 10.1204648, 42.798719 ], [ 10.122486, 42.7998646 ], [ 10.1207318, 42.801725 ], [ 10.1212933, 42.8028754 ], [ 10.1279649, 42.803668 ], [ 10.1362201, 42.8068144 ], [ 10.1383807, 42.8083524 ], [ 10.139879, 42.808176 ], [ 10.1394062, 42.8084308 ], [ 10.1400518, 42.8092099 ], [ 10.1411226, 42.8087091 ], [ 10.141121, 42.8073019 ], [ 10.1431932, 42.8066183 ], [ 10.1472932, 42.8070837 ], [ 10.1470622, 42.8081257 ], [ 10.152038, 42.8068763 ], [ 10.1575806, 42.8082089 ], [ 10.1622197, 42.8067549 ], [ 10.1636773, 42.8076592 ], [ 10.1662955, 42.8076257 ], [ 10.1662852, 42.8082079 ], [ 10.1678968, 42.8081025 ], [ 10.1701849, 42.8059466 ], [ 10.1726419, 42.8071086 ], [ 10.1745037, 42.8061798 ], [ 10.177317, 42.8080795 ], [ 10.1789978, 42.8079111 ], [ 10.1783188, 42.8094917 ], [ 10.1789934, 42.8112073 ], [ 10.1828542, 42.8106622 ], [ 10.1859126, 42.8122125 ], [ 10.1867517, 42.8108238 ], [ 10.188016, 42.8107581 ], [ 10.188512, 42.8094175 ], [ 10.1893688, 42.8100997 ], [ 10.1926654, 42.8091191 ], [ 10.1934595, 42.8100875 ], [ 10.1948817, 42.8101851 ], [ 10.1991539, 42.8086852 ], [ 10.1948478, 42.8099016 ], [ 10.1940901, 42.8093534 ], [ 10.1985265, 42.8058976 ], [ 10.1986916, 42.8065289 ], [ 10.2000092, 42.8057878 ], [ 10.2026525, 42.8069973 ], [ 10.2059545, 42.8070134 ], [ 10.2111092, 42.8022398 ], [ 10.2128748, 42.8017605 ], [ 10.212381, 42.8005315 ], [ 10.2133875, 42.798364 ], [ 10.2160431, 42.7970306 ], [ 10.2198559, 42.79304 ], [ 10.2233766, 42.7927831 ], [ 10.2238237, 42.791617 ], [ 10.2255812, 42.7916063 ], [ 10.2280157, 42.7895626 ], [ 10.2319666, 42.7881721 ], [ 10.234686, 42.7890273 ], [ 10.2356142, 42.7887901 ], [ 10.2359227, 42.7875741 ], [ 10.2372101, 42.7875473 ], [ 10.2371933, 42.7889212 ], [ 10.2384587, 42.7898356 ], [ 10.2407385, 42.7873821 ], [ 10.2417809, 42.7872682 ], [ 10.2463762, 42.7889952 ], [ 10.2490266, 42.7910919 ], [ 10.2488288, 42.7940642 ], [ 10.2460578, 42.7941927 ], [ 10.2466275, 42.7973304 ], [ 10.2478109, 42.798956 ], [ 10.2504132, 42.8000455 ], [ 10.2523691, 42.7993548 ], [ 10.2547351, 42.7997048 ], [ 10.2572297, 42.8009618 ], [ 10.2573595, 42.7992371 ], [ 10.2599547, 42.7989878 ], [ 10.2613409, 42.7978164 ], [ 10.262373, 42.8001397 ], [ 10.2658769, 42.7997105 ], [ 10.2694687, 42.803455 ], [ 10.2694427, 42.8047626 ], [ 10.2679895, 42.8054153 ], [ 10.2677053, 42.8077601 ], [ 10.2649721, 42.8080537 ], [ 10.2637087, 42.8095144 ], [ 10.2637443, 42.8106681 ], [ 10.2625476, 42.8113973 ], [ 10.2644213, 42.8131153 ], [ 10.2720126, 42.8140025 ], [ 10.2750542, 42.8169634 ], [ 10.2752976, 42.8186397 ], [ 10.2745916, 42.8189623 ], [ 10.2748567, 42.819916 ], [ 10.2698435, 42.8243345 ], [ 10.2636389, 42.8243647 ], [ 10.2620322, 42.825793 ], [ 10.2623768, 42.8267907 ], [ 10.2603383, 42.8271408 ], [ 10.2632915, 42.8300316 ], [ 10.2673256, 42.8288222 ], [ 10.2691675, 42.8252477 ], [ 10.270292, 42.8257189 ], [ 10.2745778, 42.8250541 ], [ 10.2779602, 42.8226525 ], [ 10.2832264, 42.8238375 ], [ 10.2860952, 42.8224484 ], [ 10.2869686, 42.8234094 ], [ 10.2952748, 42.8186886 ], [ 10.2991164, 42.8194976 ], [ 10.3060672, 42.8189274 ], [ 10.3158341, 42.8213568 ], [ 10.3160054, 42.8201895 ], [ 10.3183676, 42.8183285 ], [ 10.3209828, 42.8174684 ], [ 10.3327985, 42.8177077 ], [ 10.3347833, 42.8163954 ], [ 10.3342373, 42.8145646 ], [ 10.3314112, 42.8119548 ], [ 10.3296858, 42.8120129 ], [ 10.3319514, 42.8135656 ], [ 10.3310189, 42.814344 ], [ 10.3292429, 42.8140013 ], [ 10.3281878, 42.8132447 ], [ 10.3284882, 42.8127483 ], [ 10.3252152, 42.8140476 ], [ 10.3232403, 42.8129023 ], [ 10.3245836, 42.8120817 ], [ 10.3230447, 42.8123494 ], [ 10.3228487, 42.8113578 ], [ 10.3241608, 42.8108133 ], [ 10.3226889, 42.8112437 ], [ 10.3222234, 42.8106264 ], [ 10.3232157, 42.8100451 ], [ 10.3217978, 42.8106307 ], [ 10.3167248, 42.8101796 ], [ 10.3176124, 42.8089595 ], [ 10.3164362, 42.8103535 ], [ 10.3134771, 42.8098688 ], [ 10.3158141, 42.8086755 ], [ 10.3172471, 42.8089078 ], [ 10.3129861, 42.8067415 ], [ 10.315329, 42.8053573 ], [ 10.3135368, 42.8022891 ], [ 10.3156432, 42.805379 ], [ 10.3150549, 42.8065763 ], [ 10.3156514, 42.8069073 ], [ 10.3156265, 42.8075008 ], [ 10.3160159, 42.807801 ], [ 10.3175976, 42.804551 ], [ 10.316626, 42.8039071 ], [ 10.3166153, 42.8025471 ], [ 10.3202455, 42.8019589 ], [ 10.3191993, 42.8029371 ], [ 10.3194767, 42.8037772 ], [ 10.3267485, 42.8015649 ], [ 10.3319158, 42.8022956 ], [ 10.3344265, 42.800162 ], [ 10.3350888, 42.7986275 ], [ 10.3372194, 42.7976432 ], [ 10.3402578, 42.7965828 ], [ 10.3457129, 42.7965635 ], [ 10.3578712, 42.7994437 ], [ 10.358023, 42.8012495 ], [ 10.3613672, 42.8030148 ], [ 10.361633, 42.8044643 ], [ 10.3591505, 42.805603 ], [ 10.3589635, 42.8075096 ], [ 10.3573333, 42.8088636 ], [ 10.3578675, 42.8098127 ], [ 10.3622941, 42.8093908 ], [ 10.3629798, 42.8104695 ], [ 10.3625495, 42.811839 ], [ 10.3584372, 42.8129707 ], [ 10.3595632, 42.8170261 ], [ 10.3605823, 42.8179822 ], [ 10.3672528, 42.8170428 ], [ 10.3690593, 42.8184652 ], [ 10.3694479, 42.8204113 ], [ 10.3718475, 42.8212725 ], [ 10.3739157, 42.8271942 ], [ 10.3759335, 42.8281103 ], [ 10.3773031, 42.8258813 ], [ 10.3797285, 42.8263724 ], [ 10.3788978, 42.8278587 ], [ 10.3799451, 42.8285874 ], [ 10.3808073, 42.832942 ], [ 10.3857035, 42.8335594 ], [ 10.3831151, 42.8365628 ], [ 10.3850784, 42.8372105 ], [ 10.3882687, 42.8411412 ], [ 10.3880583, 42.8441072 ], [ 10.3911329, 42.8439237 ], [ 10.3908828, 42.8458112 ], [ 10.3918096, 42.8464444 ], [ 10.3900602, 42.8486827 ], [ 10.3903486, 42.850791 ], [ 10.3942608, 42.8535108 ], [ 10.3945504, 42.8560422 ], [ 10.3967458, 42.8581247 ], [ 10.3991591, 42.8584478 ], [ 10.3998369, 42.8598066 ], [ 10.4040923, 42.8612518 ], [ 10.4033456, 42.8625883 ], [ 10.404376, 42.8630458 ], [ 10.4032854, 42.8640328 ], [ 10.4040065, 42.8661733 ], [ 10.404974, 42.8664232 ], [ 10.4045971, 42.8675118 ], [ 10.4074488, 42.8692913 ], [ 10.4079459, 42.8711563 ], [ 10.41294, 42.8729218 ], [ 10.414477, 42.8719503 ], [ 10.41477, 42.8693897 ], [ 10.4175025, 42.8672847 ], [ 10.4235781, 42.8677744 ], [ 10.4235249, 42.8662406 ], [ 10.4206781, 42.8655831 ], [ 10.4222256, 42.8646444 ], [ 10.4205868, 42.8635163 ], [ 10.421493, 42.8628403 ], [ 10.420594, 42.8624525 ], [ 10.4207611, 42.8614406 ], [ 10.4214978, 42.8614509 ], [ 10.4209747, 42.8606336 ], [ 10.4219148, 42.8602526 ], [ 10.4213137, 42.8597201 ], [ 10.4230621, 42.8590423 ], [ 10.4233423, 42.8597072 ], [ 10.4223774, 42.8600437 ], [ 10.4221796, 42.8605668 ], [ 10.4233901, 42.8597383 ], [ 10.424696, 42.8606964 ], [ 10.4232397, 42.8589468 ], [ 10.4247075, 42.8576638 ], [ 10.4336895, 42.8564485 ], [ 10.43524, 42.8551207 ], [ 10.434487, 42.8540618 ], [ 10.4350268, 42.8529481 ], [ 10.4372972, 42.8521304 ], [ 10.439127, 42.8496954 ], [ 10.4412803, 42.8493075 ], [ 10.4429546, 42.8472553 ], [ 10.4441434, 42.8472361 ], [ 10.4427802, 42.8422005 ], [ 10.4396375, 42.839819 ], [ 10.439371, 42.8380782 ], [ 10.4357249, 42.8328568 ], [ 10.4350691, 42.8298257 ], [ 10.4319695, 42.8263409 ], [ 10.4307478, 42.8202645 ], [ 10.428963, 42.8174472 ], [ 10.4289519, 42.8165456 ], [ 10.4298003, 42.8163522 ], [ 10.4297749, 42.8159175 ], [ 10.42877, 42.8164038 ], [ 10.4285193, 42.8157439 ], [ 10.4296481, 42.8146816 ], [ 10.4307074, 42.8146616 ], [ 10.4311461, 42.8161628 ], [ 10.4316752, 42.8153875 ], [ 10.4310592, 42.8143447 ], [ 10.4296788, 42.8142216 ], [ 10.4295849, 42.8126567 ], [ 10.4304796, 42.8117303 ], [ 10.4294909, 42.8114325 ], [ 10.4303129, 42.8090411 ], [ 10.4292623, 42.8077232 ], [ 10.4294015, 42.8060184 ], [ 10.4303283, 42.8056852 ], [ 10.4319381, 42.8029435 ], [ 10.4360225, 42.8023933 ], [ 10.4360029, 42.8001269 ], [ 10.4370848, 42.7990516 ], [ 10.4341852, 42.7950188 ], [ 10.4302136, 42.7945473 ], [ 10.4297222, 42.7936251 ], [ 10.4306931, 42.7907942 ], [ 10.4327911, 42.7900664 ], [ 10.4324172, 42.7869881 ], [ 10.4330628, 42.7846045 ], [ 10.4342147, 42.7836312 ], [ 10.4338098, 42.7820228 ], [ 10.4350553, 42.7812042 ], [ 10.4342732, 42.7783687 ], [ 10.4352365, 42.7781974 ], [ 10.4340975, 42.7776818 ], [ 10.4346306, 42.7769959 ], [ 10.4339017, 42.7751565 ], [ 10.4265393, 42.7744103 ], [ 10.4219228, 42.7730143 ], [ 10.4193631, 42.7737096 ], [ 10.4182734, 42.7726517 ], [ 10.4189015, 42.7718837 ], [ 10.4182169, 42.7712035 ], [ 10.4155729, 42.7706839 ], [ 10.415322, 42.7682508 ], [ 10.4144445, 42.7673708 ], [ 10.4111702, 42.7677554 ], [ 10.4105013, 42.7671242 ], [ 10.4084496, 42.7693749 ], [ 10.4066515, 42.7689984 ], [ 10.4065559, 42.7669226 ], [ 10.4057984, 42.7664528 ], [ 10.4061633, 42.7634124 ], [ 10.4012297, 42.7629667 ], [ 10.3993153, 42.7636495 ], [ 10.3981016, 42.7628212 ], [ 10.3989134, 42.7639031 ], [ 10.3981971, 42.7652243 ], [ 10.3971212, 42.765182 ], [ 10.3951471, 42.7640448 ], [ 10.3951284, 42.7623666 ], [ 10.3929189, 42.7627821 ], [ 10.387997, 42.7614587 ], [ 10.3852713, 42.759067 ], [ 10.3870733, 42.7578993 ], [ 10.3917318, 42.7584751 ], [ 10.3926907, 42.7576672 ], [ 10.3936082, 42.758461 ], [ 10.3967517, 42.7571824 ], [ 10.4024568, 42.757496 ], [ 10.403047, 42.7555822 ], [ 10.4059318, 42.7534989 ], [ 10.408697, 42.7549014 ], [ 10.4100355, 42.7546304 ], [ 10.41022, 42.7539686 ], [ 10.4089042, 42.7536184 ], [ 10.4081051, 42.7522129 ], [ 10.4099828, 42.750897 ], [ 10.4073979, 42.7501956 ], [ 10.4061735, 42.7486987 ], [ 10.4083905, 42.7457143 ], [ 10.4112021, 42.7457205 ], [ 10.4108094, 42.7440388 ], [ 10.413199, 42.743254 ], [ 10.4149387, 42.7439152 ], [ 10.4146552, 42.7434186 ], [ 10.415755, 42.7429354 ], [ 10.418666, 42.7439288 ], [ 10.4205122, 42.7423667 ], [ 10.4223497, 42.7431368 ], [ 10.4233996, 42.7418593 ], [ 10.4231939, 42.7402913 ], [ 10.4250523, 42.7405647 ], [ 10.428204, 42.7371009 ], [ 10.4323518, 42.7345886 ], [ 10.4337583, 42.7346858 ], [ 10.4338364, 42.7337242 ], [ 10.4326919, 42.7339501 ], [ 10.4328292, 42.7312654 ], [ 10.4312008, 42.7293732 ], [ 10.434254, 42.7269831 ], [ 10.4346021, 42.7252903 ], [ 10.4335537, 42.7237497 ], [ 10.4354276, 42.720522 ], [ 10.4349479, 42.718108 ], [ 10.432452, 42.7160598 ], [ 10.4328357, 42.7150628 ], [ 10.4316941, 42.7123305 ], [ 10.4276039, 42.7112008 ], [ 10.4246253, 42.7083641 ], [ 10.422036, 42.707497 ], [ 10.419456, 42.7078389 ], [ 10.4172071, 42.710954 ], [ 10.4164409, 42.7107258 ], [ 10.4144084, 42.7128124 ], [ 10.4146805, 42.7143296 ], [ 10.4139212, 42.7152774 ], [ 10.4125485, 42.7156649 ], [ 10.412044, 42.7150327 ], [ 10.4111186, 42.7164015 ], [ 10.4083878, 42.715986 ], [ 10.4064274, 42.7139737 ], [ 10.4046787, 42.7145253 ], [ 10.3993353, 42.7133919 ], [ 10.3962442, 42.7102799 ], [ 10.3934692, 42.711239 ], [ 10.3918613, 42.7138046 ], [ 10.3885715, 42.7139958 ], [ 10.387082, 42.7153318 ], [ 10.3845606, 42.7140462 ], [ 10.3771958, 42.7190471 ], [ 10.3762417, 42.7190085 ], [ 10.3756567, 42.7210445 ], [ 10.3771519, 42.7218806 ], [ 10.376949, 42.7232294 ], [ 10.3761117, 42.7241534 ], [ 10.3741022, 42.7243587 ], [ 10.3740765, 42.7251721 ], [ 10.3727936, 42.7253006 ], [ 10.3721651, 42.7262798 ], [ 10.3751932, 42.7273244 ], [ 10.3750871, 42.7289534 ], [ 10.3737303, 42.7299555 ], [ 10.3740753, 42.7310224 ], [ 10.3717913, 42.7323166 ], [ 10.368457, 42.7311152 ], [ 10.3664562, 42.7314208 ], [ 10.3661739, 42.7321449 ], [ 10.3684842, 42.7354625 ], [ 10.368452, 42.736552 ], [ 10.3670416, 42.73774 ], [ 10.3671892, 42.7411345 ], [ 10.3599729, 42.7461019 ], [ 10.36123, 42.7478655 ], [ 10.3587028, 42.7482672 ], [ 10.358482, 42.7497273 ], [ 10.35801, 42.7500205 ], [ 10.3592248, 42.7503573 ], [ 10.3593518, 42.7512335 ], [ 10.3568469, 42.7521187 ], [ 10.357112, 42.7538493 ], [ 10.3578889, 42.7539412 ], [ 10.3573886, 42.7552346 ], [ 10.3582018, 42.7565253 ], [ 10.3581994, 42.7582685 ], [ 10.3557568, 42.7601834 ], [ 10.3529978, 42.760958 ], [ 10.3524496, 42.7607134 ], [ 10.3522595, 42.7603466 ], [ 10.3514631, 42.7611568 ], [ 10.3510028, 42.7609933 ], [ 10.3509289, 42.7607669 ], [ 10.3507439, 42.761193 ], [ 10.3506486, 42.7611152 ], [ 10.3505353, 42.7612969 ], [ 10.3498027, 42.7615925 ], [ 10.34983, 42.7618918 ], [ 10.3489562, 42.7616379 ], [ 10.3492631, 42.7624064 ], [ 10.3489312, 42.7627393 ], [ 10.3477951, 42.7629982 ], [ 10.3479768, 42.7623527 ], [ 10.3476272, 42.7630436 ], [ 10.3471584, 42.7631235 ], [ 10.3456753, 42.7626705 ], [ 10.3446004, 42.7639231 ], [ 10.3399457, 42.7640733 ], [ 10.3381936, 42.7633216 ], [ 10.3381093, 42.7631558 ], [ 10.3356095, 42.763614 ], [ 10.3333813, 42.763148 ], [ 10.3328694, 42.7627847 ], [ 10.3326811, 42.7622304 ], [ 10.3328967, 42.7593764 ], [ 10.331502, 42.7612244 ], [ 10.3287857, 42.7615969 ], [ 10.3284161, 42.7609388 ], [ 10.3285075, 42.760094 ], [ 10.3271476, 42.7612908 ], [ 10.32373, 42.7621999 ], [ 10.3208388, 42.7616511 ], [ 10.3183606, 42.7600282 ], [ 10.3181166, 42.7588506 ], [ 10.3186883, 42.7584421 ], [ 10.3193679, 42.7590702 ], [ 10.3187358, 42.7582722 ], [ 10.3196595, 42.7568962 ], [ 10.3204792, 42.7562639 ], [ 10.3203975, 42.7547907 ], [ 10.3207677, 42.753247 ], [ 10.3219525, 42.7517865 ], [ 10.3217304, 42.7506446 ], [ 10.3244154, 42.7479564 ], [ 10.3257697, 42.7439359 ], [ 10.3254546, 42.7420439 ], [ 10.3220497, 42.7390238 ], [ 10.321853, 42.737055 ], [ 10.3193375, 42.7360809 ], [ 10.3180557, 42.7364423 ], [ 10.3160722, 42.7389826 ], [ 10.31576, 42.7420311 ], [ 10.3140914, 42.7444185 ], [ 10.3148668, 42.7453099 ], [ 10.3141459, 42.7457402 ], [ 10.3146667, 42.7463676 ], [ 10.3140203, 42.748028 ], [ 10.3142483, 42.7515036 ], [ 10.3136615, 42.7534477 ], [ 10.3121872, 42.7538403 ], [ 10.3121098, 42.7548395 ], [ 10.3111686, 42.7551773 ], [ 10.3127587, 42.7567308 ], [ 10.3125336, 42.7576888 ], [ 10.3093568, 42.759317 ], [ 10.301895, 42.7597488 ], [ 10.2994355, 42.759401 ], [ 10.2979502, 42.7578072 ], [ 10.2977575, 42.7560746 ], [ 10.294889, 42.7564676 ], [ 10.2907792, 42.7526181 ], [ 10.2888193, 42.7460396 ], [ 10.2904812, 42.7441173 ], [ 10.2901386, 42.7391388 ], [ 10.287032, 42.7356255 ], [ 10.2838386, 42.7358925 ], [ 10.2830514, 42.7348946 ], [ 10.2830444, 42.7365805 ], [ 10.2813668, 42.7379914 ], [ 10.2789786, 42.7363455 ], [ 10.2780111, 42.7380794 ], [ 10.2753817, 42.7379578 ], [ 10.2751245, 42.7373311 ], [ 10.2719317, 42.7377303 ], [ 10.2703969, 42.7366428 ], [ 10.2700473, 42.7389009 ], [ 10.2663341, 42.7411479 ], [ 10.2665109, 42.7432573 ], [ 10.264844, 42.7451108 ], [ 10.2601754, 42.7439273 ], [ 10.2563328, 42.7440665 ], [ 10.2546726, 42.7457295 ], [ 10.2495182, 42.7466787 ], [ 10.2456787, 42.7483558 ], [ 10.2448316, 42.750067 ], [ 10.2429104, 42.7502274 ], [ 10.237208, 42.7477272 ], [ 10.2353362, 42.7445325 ], [ 10.2358827, 42.7429778 ], [ 10.237923, 42.743442 ], [ 10.2384173, 42.7426391 ], [ 10.2398546, 42.7432716 ], [ 10.2385903, 42.7423632 ], [ 10.2385228, 42.7410402 ], [ 10.234929, 42.738583 ], [ 10.2353489, 42.7376743 ], [ 10.2346566, 42.7366957 ], [ 10.2373256, 42.7346066 ], [ 10.2408917, 42.7345719 ], [ 10.2406459, 42.727902 ], [ 10.2396255, 42.7268506 ], [ 10.2366725, 42.7261095 ], [ 10.2280995, 42.7280401 ], [ 10.2234129, 42.7286629 ], [ 10.2226975, 42.7281143 ], [ 10.219393, 42.7296357 ], [ 10.2136864, 42.73049 ], [ 10.2038633, 42.7357759 ], [ 10.1989357, 42.7353737 ], [ 10.1974474, 42.734538 ], [ 10.1941222, 42.735613 ], [ 10.1879759, 42.7345847 ], [ 10.1882474, 42.7364944 ], [ 10.1854119, 42.7373182 ], [ 10.1842119, 42.7370614 ], [ 10.1843867, 42.7362502 ], [ 10.1825972, 42.7347855 ], [ 10.1797219, 42.7346071 ], [ 10.1771223, 42.7363034 ], [ 10.1755058, 42.7346455 ], [ 10.1616845, 42.7317427 ], [ 10.1575003, 42.7320247 ], [ 10.1544086, 42.7334711 ], [ 10.1531193, 42.7321457 ], [ 10.1532461, 42.7311499 ], [ 10.157868, 42.7280487 ], [ 10.1587355, 42.7256342 ], [ 10.1566226, 42.7263874 ], [ 10.1550076, 42.7283803 ], [ 10.1504151, 42.731004 ], [ 10.1428524, 42.7322393 ], [ 10.1417127, 42.7315872 ], [ 10.1401469, 42.7329197 ], [ 10.1371414, 42.7316855 ], [ 10.1355313, 42.7342933 ], [ 10.1334768, 42.7350319 ], [ 10.1319735, 42.7374891 ], [ 10.1224792, 42.7416769 ], [ 10.1219117, 42.7440236 ], [ 10.1189491, 42.7456503 ], [ 10.1186712, 42.7486557 ], [ 10.1167451, 42.7507925 ], [ 10.1143095, 42.7512907 ], [ 10.1149799, 42.7537461 ], [ 10.1134288, 42.7577293 ], [ 10.1109277, 42.7597631 ], [ 10.1088884, 42.7597219 ], [ 10.1061744, 42.761331 ], [ 10.1051952, 42.7629026 ], [ 10.1054721, 42.7650197 ], [ 10.1029455, 42.7657973 ] ] ], [ [ [ 10.3236716, 42.7490074 ], [ 10.3234989, 42.7490126 ], [ 10.3234962, 42.7490316 ], [ 10.3236716, 42.7490074 ] ] ], [ [ [ 10.3231682, 42.7492282 ], [ 10.3232418, 42.7493223 ], [ 10.3233182, 42.7492382 ], [ 10.3231682, 42.7492282 ] ] ], [ [ [ 10.3211894, 42.752914 ], [ 10.3211226, 42.7529285 ], [ 10.3212393, 42.7529677 ], [ 10.3211894, 42.752914 ] ] ], [ [ [ 10.3209655, 42.7536127 ], [ 10.3211209, 42.7535042 ], [ 10.3210279, 42.7534671 ], [ 10.3209655, 42.7536127 ] ] ], [ [ [ 10.320508, 42.7558187 ], [ 10.3204901, 42.7558374 ], [ 10.3205135, 42.7558337 ], [ 10.320508, 42.7558187 ] ] ], [ [ [ 10.3205508, 42.7558454 ], [ 10.3205334, 42.755867 ], [ 10.3205858, 42.7558681 ], [ 10.3205508, 42.7558454 ] ] ], [ [ [ 10.3323981, 42.7597169 ], [ 10.3323149, 42.7596728 ], [ 10.3323191, 42.7597015 ], [ 10.3323981, 42.7597169 ] ] ], [ [ [ 10.3321321, 42.7597725 ], [ 10.3322669, 42.7598978 ], [ 10.3323362, 42.759789 ], [ 10.3321321, 42.7597725 ] ] ], [ [ [ 10.3321176, 42.7601578 ], [ 10.3320819, 42.7600584 ], [ 10.3320403, 42.7601592 ], [ 10.3321176, 42.7601578 ] ] ], [ [ [ 10.3319103, 42.7604131 ], [ 10.3318587, 42.7604802 ], [ 10.3318703, 42.760487 ], [ 10.3319103, 42.7604131 ] ] ], [ [ [ 10.3284726, 42.7607973 ], [ 10.3284321, 42.7608196 ], [ 10.3284643, 42.7608492 ], [ 10.3284726, 42.7607973 ] ] ], [ [ [ 10.3310513, 42.7611552 ], [ 10.3310677, 42.7611733 ], [ 10.3310821, 42.7611595 ], [ 10.3310513, 42.7611552 ] ] ], [ [ [ 10.3306487, 42.7612383 ], [ 10.3306285, 42.7612573 ], [ 10.33065, 42.7612434 ], [ 10.3306487, 42.7612383 ] ] ], [ [ [ 10.3329176, 42.7625307 ], [ 10.3329348, 42.7625159 ], [ 10.3329175, 42.7625187 ], [ 10.3329176, 42.7625307 ] ] ], [ [ [ 10.3330484, 42.7625751 ], [ 10.3330711, 42.762574 ], [ 10.3330362, 42.7625654 ], [ 10.3330484, 42.7625751 ] ] ], [ [ [ 10.3364429, 42.762716 ], [ 10.3364232, 42.7627312 ], [ 10.3364454, 42.7627435 ], [ 10.3364429, 42.762716 ] ] ], [ [ [ 10.3368831, 42.7627662 ], [ 10.3368474, 42.7627936 ], [ 10.336869, 42.7628129 ], [ 10.3368831, 42.7627662 ] ] ], [ [ [ 10.3329405, 42.7627861 ], [ 10.3329216, 42.7627818 ], [ 10.3329368, 42.7627956 ], [ 10.3329405, 42.7627861 ] ] ], [ [ [ 10.3330221, 42.7627824 ], [ 10.3330215, 42.7627897 ], [ 10.333033, 42.7627919 ], [ 10.3330221, 42.7627824 ] ] ], [ [ [ 10.3363577, 42.762803 ], [ 10.3365495, 42.7628196 ], [ 10.3364933, 42.7626665 ], [ 10.3364771, 42.7627684 ], [ 10.3363577, 42.762803 ] ] ], [ [ [ 10.3369113, 42.7628774 ], [ 10.3368453, 42.7628749 ], [ 10.3369507, 42.762939 ], [ 10.3369113, 42.7628774 ] ] ], [ [ [ 10.3363002, 42.7630831 ], [ 10.3363018, 42.7630682 ], [ 10.336294, 42.7630782 ], [ 10.3363002, 42.7630831 ] ] ], [ [ [ 10.3377932, 42.7630733 ], [ 10.3378439, 42.7630778 ], [ 10.3377944, 42.7630568 ], [ 10.3377932, 42.7630733 ] ] ], [ [ [ 10.3363472, 42.7631632 ], [ 10.3363734, 42.7631682 ], [ 10.3363744, 42.7631613 ], [ 10.3363472, 42.7631632 ] ] ], [ [ [ 10.3362715, 42.7631934 ], [ 10.3362641, 42.7631545 ], [ 10.3362566, 42.7631541 ], [ 10.3362715, 42.7631934 ] ] ], [ [ [ 10.3362693, 42.7632836 ], [ 10.3362767, 42.7632729 ], [ 10.3362586, 42.7632751 ], [ 10.3362693, 42.7632836 ] ] ], [ [ [ 10.3362419, 42.7633209 ], [ 10.336239, 42.7633094 ], [ 10.3362331, 42.7633202 ], [ 10.3362419, 42.7633209 ] ] ], [ [ [ 10.3387105, 42.7634087 ], [ 10.3386041, 42.7633481 ], [ 10.3387255, 42.7634397 ], [ 10.3387105, 42.7634087 ] ] ], [ [ [ 10.338975, 42.7634286 ], [ 10.3389424, 42.7634488 ], [ 10.3389844, 42.7634489 ], [ 10.338975, 42.7634286 ] ] ], [ [ [ 10.3488175, 42.7616795 ], [ 10.348832, 42.7616544 ], [ 10.3488086, 42.7616619 ], [ 10.3488175, 42.7616795 ] ] ], [ [ [ 10.3488094, 42.7616902 ], [ 10.3487836, 42.7616987 ], [ 10.3487992, 42.7617047 ], [ 10.3488094, 42.7616902 ] ] ], [ [ [ 10.3488582, 42.7617011 ], [ 10.3489169, 42.7617209 ], [ 10.3488679, 42.7616528 ], [ 10.3488582, 42.7617011 ] ] ], [ [ [ 10.3489257, 42.7618822 ], [ 10.3489048, 42.761883 ], [ 10.3489124, 42.7618965 ], [ 10.3489257, 42.7618822 ] ] ], [ [ [ 10.3490048, 42.7619932 ], [ 10.3489834, 42.7619995 ], [ 10.3490007, 42.7620034 ], [ 10.3490048, 42.7619932 ] ] ], [ [ [ 10.3490183, 42.7620281 ], [ 10.3489799, 42.7620384 ], [ 10.3490036, 42.7620597 ], [ 10.3490183, 42.7620281 ] ] ], [ [ [ 10.3481265, 42.7623505 ], [ 10.3481258, 42.7623335 ], [ 10.3481144, 42.7623414 ], [ 10.3481265, 42.7623505 ] ] ], [ [ [ 10.3491697, 42.7623392 ], [ 10.349171, 42.7623713 ], [ 10.3491949, 42.762345 ], [ 10.3491697, 42.7623392 ] ] ], [ [ [ 10.3481517, 42.7623688 ], [ 10.3481541, 42.7623437 ], [ 10.3481375, 42.7623494 ], [ 10.3481517, 42.7623688 ] ] ], [ [ [ 10.3481194, 42.7623798 ], [ 10.3480905, 42.7623584 ], [ 10.3480882, 42.7623788 ], [ 10.3481194, 42.7623798 ] ] ], [ [ [ 10.3476635, 42.7625002 ], [ 10.3476932, 42.7624887 ], [ 10.3476561, 42.7624822 ], [ 10.3476635, 42.7625002 ] ] ], [ [ [ 10.3481955, 42.7626225 ], [ 10.34822, 42.7625589 ], [ 10.3481761, 42.7625573 ], [ 10.3481955, 42.7626225 ] ] ], [ [ [ 10.3463813, 42.7625817 ], [ 10.3463375, 42.7626202 ], [ 10.3463551, 42.7626296 ], [ 10.3463813, 42.7625817 ] ] ], [ [ [ 10.348216, 42.7626383 ], [ 10.3482119, 42.7626268 ], [ 10.348206, 42.7626313 ], [ 10.348216, 42.7626383 ] ] ], [ [ [ 10.3482558, 42.7626268 ], [ 10.348225, 42.7626465 ], [ 10.3482692, 42.7626436 ], [ 10.3482558, 42.7626268 ] ] ], [ [ [ 10.3482978, 42.7626394 ], [ 10.3482794, 42.7626473 ], [ 10.3482941, 42.76265 ], [ 10.3482978, 42.7626394 ] ] ], [ [ [ 10.3483152, 42.7626633 ], [ 10.34831, 42.7626445 ], [ 10.3482999, 42.7626521 ], [ 10.3483152, 42.7626633 ] ] ], [ [ [ 10.3482427, 42.7626578 ], [ 10.3482338, 42.7626654 ], [ 10.3482563, 42.7626557 ], [ 10.3482427, 42.7626578 ] ] ], [ [ [ 10.3482623, 42.76266 ], [ 10.348281, 42.7626683 ], [ 10.3482832, 42.7626527 ], [ 10.3482623, 42.76266 ] ] ], [ [ [ 10.3482374, 42.7626772 ], [ 10.3482396, 42.762666 ], [ 10.3482346, 42.7626699 ], [ 10.3482374, 42.7626772 ] ] ], [ [ [ 10.348247, 42.7626804 ], [ 10.3482314, 42.7626886 ], [ 10.3482474, 42.7626904 ], [ 10.348247, 42.7626804 ] ] ], [ [ [ 10.348265, 42.7627252 ], [ 10.348244, 42.7627309 ], [ 10.3482595, 42.7627472 ], [ 10.348265, 42.7627252 ] ] ], [ [ [ 10.3475732, 42.762839 ], [ 10.3476071, 42.7628409 ], [ 10.3475538, 42.7628046 ], [ 10.3475732, 42.762839 ] ] ], [ [ [ 10.3473248, 42.7629314 ], [ 10.3473408, 42.7629992 ], [ 10.3473584, 42.7629782 ], [ 10.3473248, 42.7629314 ] ] ], [ [ [ 10.3390182, 42.7633931 ], [ 10.3390655, 42.7633467 ], [ 10.3389677, 42.7633004 ], [ 10.3390182, 42.7633931 ] ] ], [ [ [ 10.3391232, 42.7635007 ], [ 10.3391593, 42.7635324 ], [ 10.3391643, 42.7635246 ], [ 10.3391232, 42.7635007 ] ] ], [ [ [ 10.3430171, 42.7637483 ], [ 10.3430631, 42.7636072 ], [ 10.3429398, 42.7636474 ], [ 10.3430171, 42.7637483 ] ] ], [ [ [ 10.3397433, 42.7639108 ], [ 10.3396835, 42.7639381 ], [ 10.3397089, 42.7639653 ], [ 10.3397433, 42.7639108 ] ] ], [ [ [ 10.3415412, 42.7639884 ], [ 10.3414934, 42.7639546 ], [ 10.3414905, 42.7639739 ], [ 10.3415412, 42.7639884 ] ] ], [ [ [ 10.3582975, 42.7477109 ], [ 10.3584845, 42.7480569 ], [ 10.3584851, 42.7476411 ], [ 10.3582975, 42.7477109 ] ] ], [ [ [ 10.3583783, 42.7480598 ], [ 10.3583105, 42.7480852 ], [ 10.3583307, 42.7481208 ], [ 10.3583783, 42.7480598 ] ] ], [ [ [ 10.3582471, 42.7495036 ], [ 10.3582593, 42.7495321 ], [ 10.3582726, 42.7495079 ], [ 10.3582471, 42.7495036 ] ] ], [ [ [ 10.3567417, 42.752263 ], [ 10.3567145, 42.7521654 ], [ 10.356662, 42.7522343 ], [ 10.3567417, 42.752263 ] ] ], [ [ [ 10.3575223, 42.7542775 ], [ 10.3574132, 42.7542224 ], [ 10.3573995, 42.7542323 ], [ 10.3575223, 42.7542775 ] ] ], [ [ [ 10.3575361, 42.7543587 ], [ 10.3575705, 42.7543484 ], [ 10.357536, 42.7543486 ], [ 10.3575361, 42.7543587 ] ] ], [ [ [ 10.3574426, 42.7550683 ], [ 10.3574082, 42.7550865 ], [ 10.3574395, 42.7550867 ], [ 10.3574426, 42.7550683 ] ] ], [ [ [ 10.3573899, 42.7554105 ], [ 10.3573935, 42.7553299 ], [ 10.357342, 42.7553188 ], [ 10.3573899, 42.7554105 ] ] ], [ [ [ 10.3580678, 42.757001 ], [ 10.3580734, 42.7570439 ], [ 10.3581014, 42.7570278 ], [ 10.3580678, 42.757001 ] ] ], [ [ [ 10.3579641, 42.7576915 ], [ 10.3579565, 42.757747 ], [ 10.3579761, 42.7577461 ], [ 10.3579641, 42.7576915 ] ] ], [ [ [ 10.3522079, 42.7603296 ], [ 10.3521957, 42.7603533 ], [ 10.3522235, 42.7603443 ], [ 10.3522079, 42.7603296 ] ] ], [ [ [ 10.3521019, 42.760462 ], [ 10.3520945, 42.7604707 ], [ 10.3521211, 42.7604713 ], [ 10.3521019, 42.760462 ] ] ], [ [ [ 10.3509913, 42.7605597 ], [ 10.3509829, 42.7605453 ], [ 10.3509707, 42.7605463 ], [ 10.3509913, 42.7605597 ] ] ], [ [ [ 10.3509924, 42.7606132 ], [ 10.3509308, 42.7606038 ], [ 10.3509772, 42.7606453 ], [ 10.3509924, 42.7606132 ] ] ], [ [ [ 10.3509484, 42.7606481 ], [ 10.3509725, 42.7606755 ], [ 10.3509799, 42.7606723 ], [ 10.3509484, 42.7606481 ] ] ], [ [ [ 10.3510171, 42.7606946 ], [ 10.351028, 42.7606721 ], [ 10.3510208, 42.7606701 ], [ 10.3510171, 42.7606946 ] ] ], [ [ [ 10.3508754, 42.7607218 ], [ 10.3509043, 42.7606881 ], [ 10.3508881, 42.7606789 ], [ 10.3508754, 42.7607218 ] ] ], [ [ [ 10.3527131, 42.7607763 ], [ 10.3527656, 42.7607738 ], [ 10.352716, 42.7607341 ], [ 10.3527131, 42.7607763 ] ] ], [ [ [ 10.3511167, 42.7609031 ], [ 10.3510996, 42.7609023 ], [ 10.3511085, 42.760909 ], [ 10.3511167, 42.7609031 ] ] ], [ [ [ 10.3510401, 42.7609476 ], [ 10.3510235, 42.7609567 ], [ 10.3510294, 42.7609648 ], [ 10.3510401, 42.7609476 ] ] ], [ [ [ 10.3510576, 42.760971 ], [ 10.3510606, 42.7609566 ], [ 10.351051, 42.7609596 ], [ 10.3510576, 42.760971 ] ] ], [ [ [ 10.3510733, 42.7609858 ], [ 10.3510714, 42.7609742 ], [ 10.3510647, 42.7609814 ], [ 10.3510733, 42.7609858 ] ] ], [ [ [ 10.3505351, 42.7611998 ], [ 10.3505593, 42.7611934 ], [ 10.3505376, 42.7611876 ], [ 10.3505351, 42.7611998 ] ] ], [ [ [ 10.3505389, 42.7612216 ], [ 10.3505388, 42.761209 ], [ 10.3505283, 42.7612168 ], [ 10.3505389, 42.7612216 ] ] ], [ [ [ 10.3499697, 42.7614514 ], [ 10.3499272, 42.7613772 ], [ 10.3498731, 42.7614652 ], [ 10.3499697, 42.7614514 ] ] ], [ [ [ 10.3498812, 42.7615042 ], [ 10.3498669, 42.7615072 ], [ 10.3498839, 42.761511 ], [ 10.3498812, 42.7615042 ] ] ], [ [ [ 10.3499137, 42.7615438 ], [ 10.3499167, 42.7615037 ], [ 10.3498903, 42.7615138 ], [ 10.3499137, 42.7615438 ] ] ], [ [ [ 10.3493595, 42.7616364 ], [ 10.3493356, 42.7616414 ], [ 10.3493501, 42.7616478 ], [ 10.3493595, 42.7616364 ] ] ] ] } }
]
}
