{
"type": "FeatureCollection",
"name": "formentera",
"crs": { "type": "name", "properties": { "name": "urn:ogc:def:crs:OGC:1.3:CRS84" } },
"features": [
{ "type": "Feature", "properties": { }, "geometry": { "type": "MultiPolygon", "coordinates": [ [ [ [ 1.3846452, 38.7132005 ], [ 1.3844913, 38.7132593 ], [ 1.3846964, 38.7133027 ], [ 1.3846452, 38.7132005 ] ] ], [ [ [ 1.4306404, 38.7513559 ], [ 1.43148, 38.7509408 ], [ 1.4305834, 38.7509905 ], [ 1.4306404, 38.7513559 ] ] ], [ [ [ 1.430963, 38.7528185 ], [ 1.4310347, 38.7526531 ], [ 1.4307945, 38.7527139 ], [ 1.430963, 38.7528185 ] ] ], [ [ [ 1.4305522, 38.7546957 ], [ 1.4312399, 38.7535079 ], [ 1.4308863, 38.7532473 ], [ 1.429835, 38.7540396 ], [ 1.4305522, 38.7546957 ] ] ], [ [ [ 1.4304659, 38.7555642 ], [ 1.4299254, 38.7553609 ], [ 1.429744, 38.7555606 ], [ 1.4299305, 38.7557346 ], [ 1.4304659, 38.7555642 ] ] ], [ [ [ 1.4159196, 38.7734198 ], [ 1.4171997, 38.7749862 ], [ 1.4176149, 38.7747017 ], [ 1.4173221, 38.7738179 ], [ 1.4159196, 38.7734198 ] ] ], [ [ [ 1.4272967, 38.7765316 ], [ 1.4270127, 38.7759945 ], [ 1.4254824, 38.7767833 ], [ 1.425746, 38.7770077 ], [ 1.4272967, 38.7765316 ] ] ], [ [ [ 1.4169582, 38.785594 ], [ 1.4214089, 38.7896676 ], [ 1.4201338, 38.7898694 ], [ 1.4203282, 38.7906189 ], [ 1.422055, 38.7906513 ], [ 1.4225348, 38.7914612 ], [ 1.4211104, 38.7938437 ], [ 1.4190473, 38.7951336 ], [ 1.4217947, 38.7974505 ], [ 1.4259551, 38.7956103 ], [ 1.4241997, 38.7952775 ], [ 1.4261809, 38.7939478 ], [ 1.4247561, 38.7934846 ], [ 1.4279402, 38.7901423 ], [ 1.4298187, 38.786097 ], [ 1.4318131, 38.7841506 ], [ 1.4312169, 38.783672 ], [ 1.4321036, 38.7814399 ], [ 1.4315573, 38.7788161 ], [ 1.4335917, 38.7752193 ], [ 1.4296943, 38.7767514 ], [ 1.4296101, 38.7790042 ], [ 1.428554, 38.7807312 ], [ 1.4258172, 38.7822332 ], [ 1.424141, 38.7823128 ], [ 1.4228829, 38.7801965 ], [ 1.4199585, 38.7786031 ], [ 1.4190959, 38.7789569 ], [ 1.4203169, 38.779898 ], [ 1.4196557, 38.7803251 ], [ 1.420166, 38.7808163 ], [ 1.4192616, 38.7808313 ], [ 1.4179214, 38.7827139 ], [ 1.4169582, 38.785594 ] ] ], [ [ [ 1.4174179, 38.7950159 ], [ 1.4199282, 38.7929243 ], [ 1.4200837, 38.7917306 ], [ 1.4187174, 38.7914348 ], [ 1.4172463, 38.7925088 ], [ 1.4167468, 38.7947025 ], [ 1.4174179, 38.7950159 ] ] ], [ [ [ 1.4236635, 38.7976237 ], [ 1.4239058, 38.7970641 ], [ 1.4233099, 38.7974336 ], [ 1.4236635, 38.7976237 ] ] ], [ [ [ 1.4233244, 38.7979719 ], [ 1.4233026, 38.7977107 ], [ 1.4231502, 38.797826 ], [ 1.4233244, 38.7979719 ] ] ], [ [ [ 1.4213964, 38.798601 ], [ 1.4224028, 38.7996384 ], [ 1.4237567, 38.7982439 ], [ 1.4213964, 38.798601 ] ] ], [ [ [ 1.3801811, 38.7180139 ], [ 1.380291, 38.7192549 ], [ 1.3810737, 38.7200581 ], [ 1.387676, 38.7221181 ], [ 1.3866327, 38.7238252 ], [ 1.3907429, 38.7252306 ], [ 1.3925856, 38.7271293 ], [ 1.3928607, 38.7279416 ], [ 1.3922143, 38.728186 ], [ 1.3940613, 38.7287204 ], [ 1.3946997, 38.7301353 ], [ 1.3964833, 38.7308731 ], [ 1.3951685, 38.7316268 ], [ 1.3944786, 38.7332897 ], [ 1.396368, 38.7343861 ], [ 1.3966866, 38.7354456 ], [ 1.3979752, 38.7337919 ], [ 1.3973508, 38.7326646 ], [ 1.3982504, 38.7303693 ], [ 1.4017904, 38.7278311 ], [ 1.4078672, 38.7285966 ], [ 1.4121603, 38.7310186 ], [ 1.4103906, 38.7289549 ], [ 1.4050881, 38.7267017 ], [ 1.4056359, 38.723547 ], [ 1.4070801, 38.7220162 ], [ 1.4094897, 38.7212014 ], [ 1.410636, 38.7220345 ], [ 1.412483, 38.7211543 ], [ 1.41921, 38.7224065 ], [ 1.4199905, 38.7241095 ], [ 1.416553, 38.7275345 ], [ 1.4163025, 38.7288887 ], [ 1.417094, 38.7298922 ], [ 1.4163663, 38.7313193 ], [ 1.4146694, 38.732317 ], [ 1.4120325, 38.7317106 ], [ 1.4147057, 38.734939 ], [ 1.4146172, 38.7358648 ], [ 1.4160051, 38.7356008 ], [ 1.416287, 38.7347374 ], [ 1.4190626, 38.7347222 ], [ 1.4167259, 38.7343565 ], [ 1.4167441, 38.7335251 ], [ 1.4155057, 38.7341282 ], [ 1.4151867, 38.7331806 ], [ 1.4172084, 38.7325571 ], [ 1.4178343, 38.7333056 ], [ 1.4180444, 38.7325397 ], [ 1.420552, 38.7328389 ], [ 1.4188094, 38.7332979 ], [ 1.4219362, 38.7331413 ], [ 1.4284041, 38.7380455 ], [ 1.4301872, 38.7412355 ], [ 1.4317697, 38.7445372 ], [ 1.431208, 38.7462772 ], [ 1.432106, 38.7468483 ], [ 1.4308508, 38.7472496 ], [ 1.4314215, 38.7480748 ], [ 1.4305084, 38.7492337 ], [ 1.4328274, 38.7495752 ], [ 1.4334129, 38.7521185 ], [ 1.4318604, 38.7537692 ], [ 1.4338905, 38.7553377 ], [ 1.4354158, 38.7596266 ], [ 1.4343955, 38.7661415 ], [ 1.4321657, 38.771171 ], [ 1.4339212, 38.772012 ], [ 1.435428, 38.7670477 ], [ 1.4362805, 38.7572374 ], [ 1.4397524, 38.7442623 ], [ 1.441152, 38.7432629 ], [ 1.4405941, 38.7427104 ], [ 1.4412166, 38.7410122 ], [ 1.4424593, 38.740501 ], [ 1.4419859, 38.7398006 ], [ 1.4434032, 38.7385964 ], [ 1.4430115, 38.7379495 ], [ 1.4447827, 38.7372017 ], [ 1.4441614, 38.7363167 ], [ 1.4465353, 38.734141 ], [ 1.4468615, 38.7325994 ], [ 1.4497158, 38.7304077 ], [ 1.4521747, 38.7303472 ], [ 1.4528554, 38.7289803 ], [ 1.4551836, 38.7297906 ], [ 1.455918, 38.7287984 ], [ 1.454336, 38.7288599 ], [ 1.4540866, 38.7279614 ], [ 1.4560864, 38.725057 ], [ 1.4580117, 38.7240086 ], [ 1.4588958, 38.7245188 ], [ 1.4604679, 38.7235094 ], [ 1.4627866, 38.7234633 ], [ 1.4627814, 38.7227584 ], [ 1.4637583, 38.7224985 ], [ 1.4647754, 38.7231162 ], [ 1.4650205, 38.7225044 ], [ 1.4727126, 38.7281207 ], [ 1.47068, 38.7244258 ], [ 1.4712675, 38.7230701 ], [ 1.4706865, 38.7207279 ], [ 1.4712071, 38.7191011 ], [ 1.4727654, 38.7186541 ], [ 1.4723395, 38.7170441 ], [ 1.4730799, 38.7174147 ], [ 1.4749463, 38.7165376 ], [ 1.475472, 38.7143285 ], [ 1.4787336, 38.7116755 ], [ 1.4784324, 38.7095211 ], [ 1.4795355, 38.7078653 ], [ 1.4778298, 38.7052049 ], [ 1.478523, 38.7041129 ], [ 1.477768, 38.7024718 ], [ 1.4792604, 38.7024285 ], [ 1.4823385, 38.6990408 ], [ 1.4939579, 38.6900487 ], [ 1.5120698, 38.679555 ], [ 1.5146629, 38.6789937 ], [ 1.5146623, 38.678247 ], [ 1.5167014, 38.6784451 ], [ 1.5165065, 38.6775541 ], [ 1.5178254, 38.6780098 ], [ 1.5216733, 38.6766244 ], [ 1.5276591, 38.6731402 ], [ 1.5294441, 38.6736299 ], [ 1.5301732, 38.6724812 ], [ 1.5346986, 38.6767559 ], [ 1.5446944, 38.6822029 ], [ 1.5513347, 38.6846 ], [ 1.5542226, 38.6876092 ], [ 1.5603336, 38.6907469 ], [ 1.5657342, 38.6919497 ], [ 1.5678567, 38.6912269 ], [ 1.5691267, 38.6916029 ], [ 1.5697639, 38.6887169 ], [ 1.5710525, 38.6882495 ], [ 1.5736287, 38.6852268 ], [ 1.5776133, 38.6841239 ], [ 1.5785028, 38.6808551 ], [ 1.5822751, 38.6775195 ], [ 1.581228, 38.6762892 ], [ 1.5820693, 38.6749481 ], [ 1.5812764, 38.6741857 ], [ 1.5820707, 38.6735273 ], [ 1.582076, 38.671509 ], [ 1.5846296, 38.669915 ], [ 1.5844327, 38.6674804 ], [ 1.5836843, 38.6671998 ], [ 1.5846001, 38.6666425 ], [ 1.5838372, 38.6653926 ], [ 1.5847498, 38.6629776 ], [ 1.5759108, 38.658647 ], [ 1.5737091, 38.6521395 ], [ 1.5707866, 38.6505877 ], [ 1.5596672, 38.6520058 ], [ 1.5500053, 38.6516409 ], [ 1.5406912, 38.6527586 ], [ 1.5371951, 38.6514914 ], [ 1.5241964, 38.6530505 ], [ 1.5228429, 38.6541357 ], [ 1.5234638, 38.6555219 ], [ 1.519881, 38.6564776 ], [ 1.5200288, 38.6574745 ], [ 1.5171346, 38.6594469 ], [ 1.5176336, 38.6598629 ], [ 1.5160927, 38.6616499 ], [ 1.5103762, 38.6658207 ], [ 1.4951926, 38.6741112 ], [ 1.4824489, 38.6797487 ], [ 1.4645787, 38.6849015 ], [ 1.4567347, 38.6854917 ], [ 1.4467959, 38.6849111 ], [ 1.4421386, 38.6838943 ], [ 1.4363077, 38.6788844 ], [ 1.4355852, 38.6791904 ], [ 1.4331582, 38.6715403 ], [ 1.4310661, 38.6698566 ], [ 1.4312537, 38.6675841 ], [ 1.4301821, 38.6671438 ], [ 1.4302093, 38.6655333 ], [ 1.4247225, 38.666248 ], [ 1.4230355, 38.6639852 ], [ 1.420779, 38.6638825 ], [ 1.4200476, 38.6617865 ], [ 1.4180888, 38.6613357 ], [ 1.4167664, 38.6596979 ], [ 1.4170626, 38.6585541 ], [ 1.4159618, 38.6570085 ], [ 1.4123008, 38.6549836 ], [ 1.40727, 38.6491642 ], [ 1.4029351, 38.6464786 ], [ 1.39917, 38.6452931 ], [ 1.3944378, 38.6412719 ], [ 1.388599, 38.6404498 ], [ 1.3882426, 38.6412246 ], [ 1.385448, 38.6414303 ], [ 1.3844902, 38.64311 ], [ 1.3850313, 38.6437807 ], [ 1.384163, 38.6445445 ], [ 1.3837049, 38.6483054 ], [ 1.3855581, 38.6528877 ], [ 1.3869302, 38.6600187 ], [ 1.386548, 38.6623654 ], [ 1.3877722, 38.6660966 ], [ 1.3871194, 38.6665239 ], [ 1.3868847, 38.6700922 ], [ 1.3850326, 38.6722806 ], [ 1.386128, 38.6740715 ], [ 1.3841593, 38.6754063 ], [ 1.384618, 38.6790376 ], [ 1.3822657, 38.6825133 ], [ 1.3829394, 38.6837859 ], [ 1.3816659, 38.6854898 ], [ 1.3829148, 38.6864412 ], [ 1.3828155, 38.6879415 ], [ 1.3809115, 38.6896909 ], [ 1.3815393, 38.6916923 ], [ 1.3806365, 38.6924875 ], [ 1.3885167, 38.6929469 ], [ 1.3896305, 38.6951964 ], [ 1.3894438, 38.6965663 ], [ 1.3906095, 38.6978123 ], [ 1.390462, 38.6994371 ], [ 1.3903107, 38.7002836 ], [ 1.3887695, 38.7010648 ], [ 1.3892464, 38.7039995 ], [ 1.3879203, 38.7096772 ], [ 1.3867577, 38.7105706 ], [ 1.3870126, 38.711753 ], [ 1.3862622, 38.7131018 ], [ 1.3848476, 38.7133819 ], [ 1.3847536, 38.7144629 ], [ 1.3832828, 38.7148082 ], [ 1.3811981, 38.7178582 ], [ 1.3801811, 38.7180139 ] ] ], [ [ [ 1.4593684, 38.7245343 ], [ 1.4601356, 38.7244588 ], [ 1.4601463, 38.7242882 ], [ 1.4593684, 38.7245343 ] ] ], [ [ [ 1.4586868, 38.7264062 ], [ 1.4588641, 38.7262251 ], [ 1.4585402, 38.7263631 ], [ 1.4586868, 38.7264062 ] ] ], [ [ [ 1.4559196, 38.7262931 ], [ 1.456963, 38.7263938 ], [ 1.4573353, 38.7261472 ], [ 1.4559196, 38.7262931 ] ] ], [ [ [ 1.4569866, 38.7282004 ], [ 1.4566754, 38.7282673 ], [ 1.4570509, 38.7282506 ], [ 1.4569866, 38.7282004 ] ] ], [ [ [ 1.4569222, 38.7285603 ], [ 1.4567505, 38.728351 ], [ 1.4567183, 38.7285101 ], [ 1.4569222, 38.7285603 ] ] ], [ [ [ 1.4526843, 38.7309289 ], [ 1.4532422, 38.7304518 ], [ 1.4533066, 38.7299329 ], [ 1.4525985, 38.7302677 ], [ 1.4526843, 38.7309289 ] ] ], [ [ [ 1.4525234, 38.7313222 ], [ 1.4522551, 38.7312888 ], [ 1.4523839, 38.7313808 ], [ 1.4525234, 38.7313222 ] ] ], [ [ [ 1.4310933, 38.7502203 ], [ 1.4314247, 38.7500226 ], [ 1.4308827, 38.7501807 ], [ 1.4310933, 38.7502203 ] ] ], [ [ [ 1.4814003, 38.7877217 ], [ 1.4833624, 38.7875763 ], [ 1.484441, 38.7870775 ], [ 1.4814003, 38.7877217 ] ] ], [ [ [ 1.4741279, 38.7991379 ], [ 1.4757345, 38.8009689 ], [ 1.4770202, 38.8044712 ], [ 1.4786128, 38.8048594 ], [ 1.4772484, 38.802366 ], [ 1.4775185, 38.8005864 ], [ 1.4796671, 38.7993012 ], [ 1.4823262, 38.7989348 ], [ 1.4786529, 38.7958355 ], [ 1.4803346, 38.7880055 ], [ 1.4776541, 38.7899638 ], [ 1.4741827, 38.7969037 ], [ 1.4741279, 38.7991379 ] ] ] ] } }
]
}
