{
"type": "FeatureCollection",
"name": "fuerteventura",
"crs": { "type": "name", "properties": { "name": "urn:ogc:def:crs:OGC:1.3:CRS84" } },
"features": [
{ "type": "Feature", "properties": { }, "geometry": { "type": "MultiPolygon", "coordinates": [ [ [ [ -13.8615134, 28.3864766 ], [ -13.8613415, 28.3869534 ], [ -13.8606203, 28.3870551 ], [ -13.8615134, 28.3864766 ] ] ], [ [ [ -13.8616784, 28.3870479 ], [ -13.8615095, 28.3869984 ], [ -13.8616712, 28.3869684 ], [ -13.8616784, 28.3870479 ] ] ], [ [ [ -13.8617707, 28.3872518 ], [ -13.8617182, 28.3871727 ], [ -13.861797, 28.3871583 ], [ -13.8617707, 28.3872518 ] ] ], [ [ [ -13.8604593, 28.3880157 ], [ -13.8601342, 28.3883077 ], [ -13.8603735, 28.3879581 ], [ -13.8604593, 28.3880157 ] ] ], [ [ [ -13.8605745, 28.3885083 ], [ -13.8604684, 28.388409 ], [ -13.8605745, 28.3884189 ], [ -13.8605745, 28.3885083 ] ] ], [ [ [ -13.860658, 28.3886593 ], [ -13.8605406, 28.3886653 ], [ -13.8606242, 28.3886295 ], [ -13.860658, 28.3886593 ] ] ], [ [ [ -14.509549, 28.0674654 ], [ -14.5078561, 28.0699712 ], [ -14.5066997, 28.0699931 ], [ -14.5058066, 28.0727148 ], [ -14.5021533, 28.0745466 ], [ -14.5023216, 28.0782723 ], [ -14.5014583, 28.0801153 ], [ -14.4971143, 28.0825589 ], [ -14.494044, 28.0825818 ], [ -14.4924023, 28.0844049 ], [ -14.4922243, 28.0857344 ], [ -14.4929771, 28.0859368 ], [ -14.4921407, 28.0859636 ], [ -14.4920109, 28.0868161 ], [ -14.4940823, 28.0908395 ], [ -14.4922927, 28.0940484 ], [ -14.4928446, 28.0960134 ], [ -14.4953081, 28.0970449 ], [ -14.4992142, 28.1010432 ], [ -14.4987954, 28.1019508 ], [ -14.497102, 28.1023951 ], [ -14.4964666, 28.1038233 ], [ -14.4934126, 28.1037074 ], [ -14.4936615, 28.1060044 ], [ -14.4913386, 28.11042 ], [ -14.4900644, 28.1103061 ], [ -14.4891861, 28.1089207 ], [ -14.4867003, 28.1084274 ], [ -14.4868876, 28.1052763 ], [ -14.4861546, 28.1052407 ], [ -14.4856682, 28.1037571 ], [ -14.482683, 28.1030388 ], [ -14.4819671, 28.1006365 ], [ -14.4810177, 28.099955 ], [ -14.4773188, 28.1013054 ], [ -14.4759751, 28.1028404 ], [ -14.4769013, 28.1036967 ], [ -14.4743559, 28.1048009 ], [ -14.4730903, 28.1045541 ], [ -14.4731532, 28.1037422 ], [ -14.4716199, 28.1040101 ], [ -14.4714244, 28.1038997 ], [ -14.4717244, 28.1025469 ], [ -14.4686713, 28.104203 ], [ -14.466624, 28.1037482 ], [ -14.4667668, 28.1021665 ], [ -14.4611309, 28.101258 ], [ -14.4597355, 28.10232 ], [ -14.4602246, 28.1028559 ], [ -14.4573168, 28.1037699 ], [ -14.4562759, 28.1054466 ], [ -14.4526423, 28.1033968 ], [ -14.4508472, 28.1002037 ], [ -14.4461956, 28.1017093 ], [ -14.4441213, 28.1004543 ], [ -14.4421918, 28.1004088 ], [ -14.4373097, 28.1017122 ], [ -14.4337228, 28.1015664 ], [ -14.4245423, 28.1031346 ], [ -14.4168627, 28.1055313 ], [ -14.4158146, 28.1065698 ], [ -14.4153338, 28.1061102 ], [ -14.3870638, 28.1121928 ], [ -14.3688185, 28.1182265 ], [ -14.3580972, 28.1235731 ], [ -14.3575446, 28.1253179 ], [ -14.3588019, 28.1253998 ], [ -14.3578299, 28.1270819 ], [ -14.3568809, 28.1258936 ], [ -14.3557804, 28.125844 ], [ -14.3408331, 28.1312799 ], [ -14.3279791, 28.1371915 ], [ -14.3076302, 28.148898 ], [ -14.3060886, 28.1514435 ], [ -14.3033378, 28.1522828 ], [ -14.3022434, 28.1534431 ], [ -14.3016584, 28.155539 ], [ -14.2988554, 28.158983 ], [ -14.295795, 28.1597098 ], [ -14.2936748, 28.1615905 ], [ -14.2895174, 28.1631405 ], [ -14.2878075, 28.1649793 ], [ -14.2868468, 28.1648654 ], [ -14.2855675, 28.1663875 ], [ -14.2823823, 28.1677511 ], [ -14.2789176, 28.1710054 ], [ -14.2672994, 28.1786312 ], [ -14.2619667, 28.183913 ], [ -14.2477186, 28.1927764 ], [ -14.2428347, 28.1987634 ], [ -14.2418304, 28.2013115 ], [ -14.2402561, 28.2016918 ], [ -14.2399677, 28.2028257 ], [ -14.2383712, 28.2029823 ], [ -14.2351833, 28.2057146 ], [ -14.2333776, 28.2061279 ], [ -14.2327652, 28.2082757 ], [ -14.2309778, 28.2101597 ], [ -14.2279541, 28.2106605 ], [ -14.2225599, 28.215158 ], [ -14.222893, 28.216419 ], [ -14.2213704, 28.2172381 ], [ -14.2211737, 28.2181508 ], [ -14.2214127, 28.2190678 ], [ -14.2225171, 28.2192419 ], [ -14.2211899, 28.2200196 ], [ -14.2199828, 28.2196182 ], [ -14.2185993, 28.2208409 ], [ -14.2180114, 28.2231315 ], [ -14.2149908, 28.226218 ], [ -14.2150959, 28.2287246 ], [ -14.2138627, 28.230121 ], [ -14.2142213, 28.2325625 ], [ -14.2129541, 28.233743 ], [ -14.2139135, 28.235138 ], [ -14.2127771, 28.2370367 ], [ -14.2139835, 28.2421378 ], [ -14.2124342, 28.2437323 ], [ -14.2130748, 28.245302 ], [ -14.2137255, 28.2449428 ], [ -14.2137467, 28.2469963 ], [ -14.2123966, 28.2488048 ], [ -14.2128731, 28.2495767 ], [ -14.2112374, 28.2509936 ], [ -14.2113735, 28.2528922 ], [ -14.2093737, 28.255632 ], [ -14.2097588, 28.2563533 ], [ -14.2089926, 28.2569856 ], [ -14.2095627, 28.2576455 ], [ -14.2082757, 28.2601042 ], [ -14.2108595, 28.2640473 ], [ -14.211925, 28.2643132 ], [ -14.2109332, 28.2673847 ], [ -14.209074, 28.268671 ], [ -14.2083053, 28.270667 ], [ -14.209149, 28.2718874 ], [ -14.2089099, 28.2746626 ], [ -14.2101252, 28.2764368 ], [ -14.2099734, 28.279678 ], [ -14.2109915, 28.2797864 ], [ -14.2116234, 28.2816601 ], [ -14.2112588, 28.2848089 ], [ -14.2115577, 28.2854489 ], [ -14.2121674, 28.2850573 ], [ -14.2120103, 28.2867786 ], [ -14.2142386, 28.2877809 ], [ -14.2113684, 28.2902343 ], [ -14.2123022, 28.2927311 ], [ -14.2111636, 28.2948374 ], [ -14.2117172, 28.2946713 ], [ -14.2115988, 28.2953497 ], [ -14.2099363, 28.2971094 ], [ -14.2107733, 28.2982931 ], [ -14.210084, 28.2993904 ], [ -14.2074754, 28.3004762 ], [ -14.2069528, 28.3017129 ], [ -14.2075563, 28.3022937 ], [ -14.2071569, 28.3035236 ], [ -14.2080143, 28.3035981 ], [ -14.2070513, 28.3050184 ], [ -14.2083284, 28.3046436 ], [ -14.2075284, 28.3066476 ], [ -14.2092304, 28.3072041 ], [ -14.2087811, 28.3092855 ], [ -14.2095997, 28.3088848 ], [ -14.2088798, 28.3094842 ], [ -14.2099272, 28.3095204 ], [ -14.2091583, 28.3101993 ], [ -14.2098431, 28.3103727 ], [ -14.2087446, 28.3134358 ], [ -14.2067187, 28.3152571 ], [ -14.2070367, 28.3165913 ], [ -14.2048121, 28.3201311 ], [ -14.2041621, 28.3222705 ], [ -14.2048006, 28.3222252 ], [ -14.2047755, 28.3236778 ], [ -14.2040111, 28.3241114 ], [ -14.205012, 28.3242171 ], [ -14.2038928, 28.3281547 ], [ -14.201563, 28.3294527 ], [ -14.2011875, 28.3311547 ], [ -14.2003275, 28.3312902 ], [ -14.1990513, 28.3339127 ], [ -14.1968805, 28.3340079 ], [ -14.1944549, 28.3355672 ], [ -14.1935669, 28.3352323 ], [ -14.1908391, 28.3375226 ], [ -14.1902291, 28.3369548 ], [ -14.188768, 28.3374563 ], [ -14.1876342, 28.3383245 ], [ -14.1883205, 28.3388257 ], [ -14.187496, 28.3399264 ], [ -14.1862469, 28.3406679 ], [ -14.1853396, 28.3402148 ], [ -14.1769822, 28.3467035 ], [ -14.1763022, 28.3481679 ], [ -14.1776098, 28.349294 ], [ -14.1772014, 28.3503904 ], [ -14.1765053, 28.3494844 ], [ -14.1744657, 28.3528462 ], [ -14.1736683, 28.352701 ], [ -14.1735, 28.3557498 ], [ -14.1719727, 28.3554481 ], [ -14.1715717, 28.3623433 ], [ -14.1699665, 28.3628374 ], [ -14.169765, 28.3621967 ], [ -14.164601, 28.3659304 ], [ -14.1634812, 28.3669984 ], [ -14.1634038, 28.3683441 ], [ -14.1622212, 28.3687117 ], [ -14.1627034, 28.3705645 ], [ -14.1619951, 28.3706638 ], [ -14.1611561, 28.3726937 ], [ -14.1625995, 28.3735399 ], [ -14.1627915, 28.3754019 ], [ -14.1633766, 28.3752911 ], [ -14.1620259, 28.3777878 ], [ -14.1627676, 28.3793384 ], [ -14.1622054, 28.3795544 ], [ -14.1618369, 28.3802212 ], [ -14.1625625, 28.3847078 ], [ -14.1619088, 28.384923 ], [ -14.1627977, 28.3856908 ], [ -14.161731, 28.3885676 ], [ -14.1621702, 28.3881842 ], [ -14.1626651, 28.3896549 ], [ -14.1620109, 28.3897658 ], [ -14.1623036, 28.3913099 ], [ -14.1615173, 28.3922931 ], [ -14.1584338, 28.3921905 ], [ -14.1556207, 28.3949183 ], [ -14.1554669, 28.3969989 ], [ -14.1571154, 28.3973408 ], [ -14.1565036, 28.398758 ], [ -14.157693, 28.4000344 ], [ -14.1565716, 28.4032687 ], [ -14.1550378, 28.4040742 ], [ -14.1548078, 28.4051416 ], [ -14.158183, 28.4064094 ], [ -14.1583661, 28.407811 ], [ -14.1572812, 28.4101458 ], [ -14.1578015, 28.4117132 ], [ -14.1572848, 28.4126043 ], [ -14.1569213, 28.411863 ], [ -14.1565529, 28.4135827 ], [ -14.1520681, 28.4205131 ], [ -14.1498283, 28.4211258 ], [ -14.1492177, 28.4228178 ], [ -14.150852, 28.4229974 ], [ -14.1513458, 28.430108 ], [ -14.1507889, 28.431655 ], [ -14.1484095, 28.4324035 ], [ -14.1465738, 28.4343004 ], [ -14.1473387, 28.4385667 ], [ -14.1461015, 28.4387344 ], [ -14.1450881, 28.4404475 ], [ -14.1445299, 28.4397795 ], [ -14.1441335, 28.4406704 ], [ -14.1432481, 28.4403176 ], [ -14.1427123, 28.441987 ], [ -14.1426218, 28.4413474 ], [ -14.1410285, 28.4420038 ], [ -14.1408454, 28.4441963 ], [ -14.1388557, 28.4469051 ], [ -14.1387885, 28.4461027 ], [ -14.1379387, 28.4471169 ], [ -14.136602, 28.4465399 ], [ -14.1328678, 28.4515543 ], [ -14.1305868, 28.4520751 ], [ -14.1305219, 28.4533672 ], [ -14.1295274, 28.4533665 ], [ -14.1287871, 28.4548383 ], [ -14.1288551, 28.4540012 ], [ -14.1272696, 28.4567865 ], [ -14.1264064, 28.4562278 ], [ -14.1261628, 28.4572406 ], [ -14.1230555, 28.4578077 ], [ -14.1224255, 28.459523 ], [ -14.1227742, 28.4582625 ], [ -14.1193171, 28.4617293 ], [ -14.1181809, 28.4609192 ], [ -14.1132283, 28.4652819 ], [ -14.1123328, 28.4647276 ], [ -14.1099029, 28.4691234 ], [ -14.1089299, 28.4699499 ], [ -14.1090414, 28.4687985 ], [ -14.1051013, 28.4730221 ], [ -14.1047059, 28.4721487 ], [ -14.1035977, 28.4722337 ], [ -14.1029691, 28.4741214 ], [ -14.1025019, 28.4736419 ], [ -14.1004878, 28.4752081 ], [ -14.099279, 28.4784369 ], [ -14.0980454, 28.4788713 ], [ -14.0971295, 28.4821827 ], [ -14.0945998, 28.4855443 ], [ -14.094765, 28.4879082 ], [ -14.0925952, 28.4916585 ], [ -14.0917342, 28.4915374 ], [ -14.0914191, 28.4942548 ], [ -14.0897171, 28.4942743 ], [ -14.0902126, 28.4967377 ], [ -14.0878693, 28.5006594 ], [ -14.0878669, 28.501703 ], [ -14.0880714, 28.5007079 ], [ -14.0889819, 28.500106 ], [ -14.087289, 28.5056878 ], [ -14.086711, 28.505906 ], [ -14.086574, 28.50422 ], [ -14.0848445, 28.5072435 ], [ -14.0844132, 28.5067527 ], [ -14.0837468, 28.5075264 ], [ -14.0822845, 28.5116827 ], [ -14.0827067, 28.513038 ], [ -14.0817006, 28.5135716 ], [ -14.0813286, 28.5129831 ], [ -14.0802643, 28.5139992 ], [ -14.078782, 28.5188304 ], [ -14.0738049, 28.5239256 ], [ -14.0745515, 28.5246656 ], [ -14.0741949, 28.5266212 ], [ -14.0728542, 28.5284616 ], [ -14.0722648, 28.5282102 ], [ -14.0705152, 28.5325796 ], [ -14.0708274, 28.5336334 ], [ -14.0697939, 28.5346718 ], [ -14.0703641, 28.5357358 ], [ -14.0684784, 28.5378095 ], [ -14.0699973, 28.5382718 ], [ -14.0693332, 28.5409082 ], [ -14.0681776, 28.5418225 ], [ -14.0654705, 28.5412419 ], [ -14.0637637, 28.5432099 ], [ -14.0653632, 28.5457689 ], [ -14.0651634, 28.548663 ], [ -14.0667922, 28.5502145 ], [ -14.066655, 28.5509724 ], [ -14.0639172, 28.5542246 ], [ -14.0611069, 28.5532985 ], [ -14.0581794, 28.5559705 ], [ -14.058787, 28.5592261 ], [ -14.0568586, 28.5608963 ], [ -14.0570587, 28.5627206 ], [ -14.0560555, 28.5641065 ], [ -14.0566904, 28.5641377 ], [ -14.0565199, 28.5653117 ], [ -14.052836, 28.5666192 ], [ -14.0526176, 28.5681804 ], [ -14.0507814, 28.5691534 ], [ -14.050706, 28.5708671 ], [ -14.0490741, 28.5710295 ], [ -14.0461245, 28.575974 ], [ -14.0436137, 28.5774723 ], [ -14.0443621, 28.5784023 ], [ -14.0432718, 28.5784033 ], [ -14.0439427, 28.5789851 ], [ -14.0429092, 28.5797395 ], [ -14.0430923, 28.5805812 ], [ -14.0427773, 28.580155 ], [ -14.0414305, 28.5812123 ], [ -14.0415936, 28.5804941 ], [ -14.0397078, 28.5820343 ], [ -14.0385349, 28.5836337 ], [ -14.0391477, 28.5849542 ], [ -14.0381639, 28.5857579 ], [ -14.038505, 28.5876171 ], [ -14.0360239, 28.5892849 ], [ -14.0334098, 28.5929439 ], [ -14.032982, 28.5971491 ], [ -14.0338141, 28.6013382 ], [ -14.0347805, 28.6033111 ], [ -14.0366094, 28.6041296 ], [ -14.0361199, 28.6044268 ], [ -14.0368162, 28.6075557 ], [ -14.0388402, 28.611179 ], [ -14.0376151, 28.6127551 ], [ -14.0384087, 28.6132402 ], [ -14.0386683, 28.6152563 ], [ -14.0370993, 28.6160103 ], [ -14.0369038, 28.6190978 ], [ -14.0358237, 28.6194386 ], [ -14.0357128, 28.6206675 ], [ -14.0340356, 28.620518 ], [ -14.0333735, 28.6228047 ], [ -14.0315849, 28.6248817 ], [ -14.0328312, 28.6283388 ], [ -14.0319668, 28.6281247 ], [ -14.0318583, 28.6293302 ], [ -14.0300475, 28.6294949 ], [ -14.0316332, 28.6299339 ], [ -14.0308552, 28.6309078 ], [ -14.0321736, 28.6311294 ], [ -14.0323822, 28.6319068 ], [ -14.0315942, 28.6320872 ], [ -14.0307319, 28.6339767 ], [ -14.0284216, 28.6336035 ], [ -14.0268377, 28.635753 ], [ -14.0272047, 28.6376853 ], [ -14.0261456, 28.6388145 ], [ -14.0273395, 28.6395721 ], [ -14.0264152, 28.6398807 ], [ -14.0267156, 28.6408191 ], [ -14.0244739, 28.6431221 ], [ -14.0252729, 28.6452875 ], [ -14.0211895, 28.6481829 ], [ -14.0195163, 28.650337 ], [ -14.0183844, 28.6529204 ], [ -14.0190915, 28.6556613 ], [ -14.0150981, 28.6611692 ], [ -14.01029, 28.6709788 ], [ -14.0092841, 28.6755512 ], [ -14.0094842, 28.6783537 ], [ -14.0105652, 28.6787333 ], [ -14.0116808, 28.6812324 ], [ -14.0129943, 28.6817602 ], [ -14.0119985, 28.6807797 ], [ -14.0129335, 28.6806822 ], [ -14.0140721, 28.6829071 ], [ -14.0114337, 28.6831675 ], [ -14.0141038, 28.6860035 ], [ -14.0130348, 28.689444 ], [ -14.0121636, 28.6898919 ], [ -14.0128987, 28.6916775 ], [ -14.0153242, 28.69309 ], [ -14.017557, 28.6920171 ], [ -14.0160444, 28.6935006 ], [ -14.0171827, 28.6940424 ], [ -14.0182906, 28.6932386 ], [ -14.0186828, 28.694656 ], [ -14.0167576, 28.6957246 ], [ -14.017822, 28.6971078 ], [ -14.0165703, 28.6983616 ], [ -14.0174182, 28.699042 ], [ -14.0171489, 28.7009902 ], [ -14.0185846, 28.7017081 ], [ -14.0175542, 28.7019441 ], [ -14.0177468, 28.7027049 ], [ -14.0192242, 28.7031402 ], [ -14.018194, 28.7038595 ], [ -14.0186918, 28.7057898 ], [ -14.0179404, 28.7070379 ], [ -14.0160988, 28.7062965 ], [ -14.0161696, 28.7054448 ], [ -14.0146532, 28.704435 ], [ -14.0148874, 28.7053163 ], [ -14.0137335, 28.7071994 ], [ -14.0147137, 28.7082477 ], [ -14.0140411, 28.7091418 ], [ -14.0141541, 28.7095181 ], [ -14.0157437, 28.7093126 ], [ -14.0160589, 28.7085806 ], [ -14.0185535, 28.7098005 ], [ -14.0173484, 28.7123764 ], [ -14.0151672, 28.7118421 ], [ -14.0141229, 28.7127773 ], [ -14.0161719, 28.7136218 ], [ -14.015533, 28.7159241 ], [ -14.0130021, 28.7168142 ], [ -14.0130827, 28.7140858 ], [ -14.0124525, 28.7140798 ], [ -14.0129943, 28.7122387 ], [ -14.0122936, 28.7114363 ], [ -14.0106756, 28.7122603 ], [ -14.0098309, 28.7111594 ], [ -14.0076904, 28.7116685 ], [ -14.0073649, 28.710739 ], [ -14.0062628, 28.7106312 ], [ -14.004167, 28.7120783 ], [ -14.0053607, 28.7126793 ], [ -14.0048788, 28.7134352 ], [ -14.0061626, 28.7136931 ], [ -14.0060383, 28.7145132 ], [ -14.0045627, 28.7147108 ], [ -14.0041338, 28.715542 ], [ -14.0025891, 28.715318 ], [ -14.0022266, 28.7176092 ], [ -14.0005597, 28.7178663 ], [ -14.0001708, 28.7189724 ], [ -13.9978138, 28.7201526 ], [ -13.999446, 28.7220895 ], [ -13.9988781, 28.7228926 ], [ -13.9993675, 28.7237836 ], [ -13.9985916, 28.7241516 ], [ -13.9982362, 28.7233472 ], [ -13.995364, 28.7228571 ], [ -13.9929571, 28.7240009 ], [ -13.9889451, 28.7238751 ], [ -13.9870495, 28.724913 ], [ -13.9871932, 28.7271979 ], [ -13.9851432, 28.7271073 ], [ -13.9847604, 28.7286808 ], [ -13.9833971, 28.72846 ], [ -13.9832427, 28.7293511 ], [ -13.9808917, 28.7270258 ], [ -13.9799456, 28.7279965 ], [ -13.9822947, 28.7301495 ], [ -13.9804773, 28.73102 ], [ -13.9799779, 28.7321119 ], [ -13.9769171, 28.7309632 ], [ -13.9779526, 28.7335908 ], [ -13.9771077, 28.7347653 ], [ -13.974227, 28.7340539 ], [ -13.9729386, 28.7312634 ], [ -13.9715221, 28.7309189 ], [ -13.9706202, 28.7313284 ], [ -13.9699809, 28.7332079 ], [ -13.9706708, 28.734141 ], [ -13.9689499, 28.7351245 ], [ -13.9647643, 28.7333865 ], [ -13.9619491, 28.7341575 ], [ -13.9616944, 28.7362764 ], [ -13.9607699, 28.7369363 ], [ -13.9595342, 28.7364256 ], [ -13.9587409, 28.7376245 ], [ -13.95755, 28.7371069 ], [ -13.9577232, 28.7355544 ], [ -13.9568104, 28.7351599 ], [ -13.9538075, 28.7375916 ], [ -13.9540788, 28.7382404 ], [ -13.951804, 28.7392711 ], [ -13.9513353, 28.7412703 ], [ -13.950023, 28.7409503 ], [ -13.9472152, 28.7434106 ], [ -13.9464756, 28.7427557 ], [ -13.9458729, 28.7437253 ], [ -13.9443563, 28.7435888 ], [ -13.9416696, 28.7461964 ], [ -13.9401644, 28.7454093 ], [ -13.940808, 28.7441049 ], [ -13.9397473, 28.7431782 ], [ -13.939127, 28.739205 ], [ -13.9378029, 28.7390249 ], [ -13.9370989, 28.7395263 ], [ -13.9383635, 28.7412848 ], [ -13.9374032, 28.7420285 ], [ -13.936199, 28.7414611 ], [ -13.9351019, 28.7419606 ], [ -13.9348795, 28.7444583 ], [ -13.9337962, 28.7445328 ], [ -13.934392, 28.7467983 ], [ -13.9331736, 28.7482869 ], [ -13.9317765, 28.7493294 ], [ -13.9295747, 28.7493506 ], [ -13.9268675, 28.7515244 ], [ -13.9226136, 28.7512377 ], [ -13.9222763, 28.7498454 ], [ -13.9207849, 28.7496409 ], [ -13.9194891, 28.7473041 ], [ -13.9174793, 28.7474682 ], [ -13.9162378, 28.7465621 ], [ -13.9151025, 28.7474888 ], [ -13.9153442, 28.7485371 ], [ -13.9144089, 28.7487907 ], [ -13.910642, 28.7472595 ], [ -13.9108157, 28.748184 ], [ -13.9097146, 28.7488091 ], [ -13.9079919, 28.7471072 ], [ -13.907586, 28.7483661 ], [ -13.9041095, 28.7490147 ], [ -13.9016076, 28.7531975 ], [ -13.8994764, 28.7535895 ], [ -13.8975455, 28.7524487 ], [ -13.8956159, 28.7527511 ], [ -13.8937444, 28.7553289 ], [ -13.8938038, 28.7564099 ], [ -13.8925282, 28.75622 ], [ -13.8912936, 28.7571943 ], [ -13.8866684, 28.7565741 ], [ -13.8838203, 28.7534845 ], [ -13.8811425, 28.7531532 ], [ -13.8797933, 28.751805 ], [ -13.8784517, 28.7526712 ], [ -13.8771487, 28.7516936 ], [ -13.8771711, 28.7506656 ], [ -13.873904, 28.7490496 ], [ -13.8731693, 28.7445646 ], [ -13.8724753, 28.7440798 ], [ -13.8741467, 28.7428066 ], [ -13.8728741, 28.7425443 ], [ -13.8706586, 28.7451951 ], [ -13.86939, 28.7448077 ], [ -13.867997, 28.7465314 ], [ -13.8663033, 28.7467219 ], [ -13.8650055, 28.7457212 ], [ -13.864129, 28.7419227 ], [ -13.8606683, 28.7404405 ], [ -13.8637169, 28.7401776 ], [ -13.8643569, 28.7418053 ], [ -13.8661111, 28.740855 ], [ -13.8665777, 28.7389751 ], [ -13.867318, 28.738807 ], [ -13.8675985, 28.7360494 ], [ -13.8665878, 28.7337993 ], [ -13.865018, 28.7333679 ], [ -13.8634565, 28.7314365 ], [ -13.8609097, 28.7307457 ], [ -13.8587757, 28.7322032 ], [ -13.8555299, 28.7300667 ], [ -13.8545202, 28.7280982 ], [ -13.8528837, 28.7281408 ], [ -13.852653, 28.7271518 ], [ -13.8508235, 28.7267248 ], [ -13.8455092, 28.7276894 ], [ -13.84258, 28.7262696 ], [ -13.8418728, 28.7218921 ], [ -13.840124, 28.7198585 ], [ -13.8380798, 28.7146167 ], [ -13.836346, 28.7127869 ], [ -13.8380918, 28.710964 ], [ -13.8374234, 28.7070629 ], [ -13.8308948, 28.6939102 ], [ -13.8320211, 28.6906197 ], [ -13.8309415, 28.6879313 ], [ -13.8325612, 28.6857921 ], [ -13.8317272, 28.6806144 ], [ -13.8340207, 28.6750501 ], [ -13.8327984, 28.67212 ], [ -13.8328789, 28.669811 ], [ -13.8318802, 28.6687036 ], [ -13.8324121, 28.6664467 ], [ -13.8309837, 28.6654946 ], [ -13.8304285, 28.6638947 ], [ -13.8320997, 28.6617515 ], [ -13.8312826, 28.6606762 ], [ -13.8315487, 28.6571761 ], [ -13.8305409, 28.6565325 ], [ -13.8312633, 28.6510691 ], [ -13.8306159, 28.6500776 ], [ -13.8306182, 28.6447111 ], [ -13.8296014, 28.6424536 ], [ -13.8303313, 28.6394037 ], [ -13.829439, 28.6364973 ], [ -13.8299575, 28.6356795 ], [ -13.8283335, 28.6321647 ], [ -13.8286235, 28.6290739 ], [ -13.8257246, 28.6249372 ], [ -13.8264499, 28.6208824 ], [ -13.8255707, 28.619786 ], [ -13.8243916, 28.6202674 ], [ -13.8241399, 28.6192332 ], [ -13.8254726, 28.6166696 ], [ -13.8252452, 28.6140212 ], [ -13.823648, 28.6113646 ], [ -13.8250373, 28.6085354 ], [ -13.8241871, 28.6078269 ], [ -13.8247493, 28.6067019 ], [ -13.8245912, 28.6078449 ], [ -13.8254163, 28.6069562 ], [ -13.8261719, 28.6084857 ], [ -13.8266508, 28.6082009 ], [ -13.8271011, 28.6037041 ], [ -13.8251601, 28.5967604 ], [ -13.8237234, 28.5963912 ], [ -13.8238489, 28.5945892 ], [ -13.8224983, 28.5931526 ], [ -13.8233499, 28.5894206 ], [ -13.8259155, 28.5868888 ], [ -13.8283456, 28.5860886 ], [ -13.8270404, 28.5840844 ], [ -13.8284896, 28.582825 ], [ -13.8282228, 28.5801291 ], [ -13.8292421, 28.5787941 ], [ -13.8288205, 28.5771865 ], [ -13.8301673, 28.5756319 ], [ -13.829798, 28.5718578 ], [ -13.8270377, 28.5688491 ], [ -13.8276983, 28.5659057 ], [ -13.8296799, 28.5625438 ], [ -13.8297336, 28.5590638 ], [ -13.8259707, 28.5568214 ], [ -13.8258405, 28.5526921 ], [ -13.8261244, 28.5519886 ], [ -13.8284217, 28.5518875 ], [ -13.8299931, 28.5502936 ], [ -13.8316375, 28.5452596 ], [ -13.8350203, 28.543422 ], [ -13.8366495, 28.5435894 ], [ -13.8376307, 28.5421058 ], [ -13.8375642, 28.5392453 ], [ -13.8387686, 28.5389015 ], [ -13.8385959, 28.5373421 ], [ -13.8373146, 28.5356259 ], [ -13.8343531, 28.5340883 ], [ -13.834328, 28.5327927 ], [ -13.8358095, 28.5312385 ], [ -13.8350611, 28.5303263 ], [ -13.8349213, 28.5254579 ], [ -13.8393507, 28.521321 ], [ -13.8400281, 28.516089 ], [ -13.8438875, 28.5119826 ], [ -13.8438871, 28.5103645 ], [ -13.8427839, 28.5090091 ], [ -13.8439906, 28.5071425 ], [ -13.8432906, 28.5058409 ], [ -13.8434828, 28.5036231 ], [ -13.8455834, 28.5017252 ], [ -13.8469395, 28.5015853 ], [ -13.84794, 28.4997715 ], [ -13.8526327, 28.4999174 ], [ -13.8548172, 28.4991866 ], [ -13.8534222, 28.4918485 ], [ -13.8549908, 28.4910307 ], [ -13.8563878, 28.4988995 ], [ -13.8577559, 28.4985877 ], [ -13.8593928, 28.4963668 ], [ -13.859398, 28.49567 ], [ -13.8577642, 28.495623 ], [ -13.8584262, 28.4952936 ], [ -13.8581154, 28.4925549 ], [ -13.8586319, 28.4945929 ], [ -13.8616279, 28.4943174 ], [ -13.8609587, 28.4930346 ], [ -13.8619355, 28.4934239 ], [ -13.8627285, 28.4918049 ], [ -13.8616227, 28.4914025 ], [ -13.8632874, 28.491127 ], [ -13.8646295, 28.488896 ], [ -13.8659195, 28.483039 ], [ -13.8677208, 28.4807315 ], [ -13.865951, 28.4747874 ], [ -13.8630993, 28.4725195 ], [ -13.8627565, 28.4706535 ], [ -13.8593201, 28.467034 ], [ -13.8592049, 28.4639481 ], [ -13.85722, 28.4616187 ], [ -13.8570858, 28.4547464 ], [ -13.8585943, 28.4532022 ], [ -13.8590165, 28.4514856 ], [ -13.8577906, 28.4470521 ], [ -13.8567168, 28.4458058 ], [ -13.8568561, 28.4437094 ], [ -13.8572981, 28.4429125 ], [ -13.8588711, 28.4428531 ], [ -13.8605658, 28.4403915 ], [ -13.8621834, 28.4396958 ], [ -13.8628119, 28.4366606 ], [ -13.861376, 28.431116 ], [ -13.8581617, 28.4281486 ], [ -13.8580167, 28.4252569 ], [ -13.8520472, 28.4239177 ], [ -13.8508617, 28.4215234 ], [ -13.8500265, 28.4213935 ], [ -13.8512173, 28.4202978 ], [ -13.8515757, 28.4177426 ], [ -13.8492158, 28.4142278 ], [ -13.849444, 28.4113715 ], [ -13.8487229, 28.4101383 ], [ -13.850692, 28.4054022 ], [ -13.8529569, 28.4029118 ], [ -13.8498651, 28.4006936 ], [ -13.8522487, 28.4006716 ], [ -13.8522473, 28.3989687 ], [ -13.8534837, 28.398393 ], [ -13.8535995, 28.3960539 ], [ -13.8525754, 28.395838 ], [ -13.8523396, 28.3945612 ], [ -13.8529166, 28.3945175 ], [ -13.85334, 28.3921956 ], [ -13.8562598, 28.3913956 ], [ -13.8548724, 28.3920041 ], [ -13.8561701, 28.3945472 ], [ -13.8584103, 28.3942574 ], [ -13.859768, 28.3929379 ], [ -13.8600581, 28.3919823 ], [ -13.8589146, 28.390294 ], [ -13.8596197, 28.3889057 ], [ -13.8604807, 28.3892672 ], [ -13.861725, 28.3881871 ], [ -13.8625923, 28.3861438 ], [ -13.861446, 28.3859378 ], [ -13.8620855, 28.3853597 ], [ -13.8628343, 28.3858804 ], [ -13.8636046, 28.3849976 ], [ -13.866167, 28.3769246 ], [ -13.8664632, 28.3729589 ], [ -13.8692034, 28.3696271 ], [ -13.8686341, 28.3678177 ], [ -13.8691838, 28.3651774 ], [ -13.8701049, 28.3648718 ], [ -13.8695899, 28.3636149 ], [ -13.8706014, 28.3656456 ], [ -13.8721829, 28.3653525 ], [ -13.8721255, 28.3620708 ], [ -13.873546, 28.361197 ], [ -13.8762979, 28.3570377 ], [ -13.8761735, 28.3560319 ], [ -13.8782708, 28.3552186 ], [ -13.876571, 28.3522605 ], [ -13.8771875, 28.3509572 ], [ -13.8764502, 28.3474386 ], [ -13.878794, 28.3454341 ], [ -13.8786555, 28.3439346 ], [ -13.8794343, 28.3429738 ], [ -13.8782278, 28.3412655 ], [ -13.8794285, 28.3380876 ], [ -13.8834551, 28.3356952 ], [ -13.8859166, 28.3322596 ], [ -13.8857768, 28.3312691 ], [ -13.883737, 28.3304413 ], [ -13.8865172, 28.3274655 ], [ -13.8860882, 28.325328 ], [ -13.8883332, 28.3245823 ], [ -13.8936966, 28.3252098 ], [ -13.8953262, 28.3239599 ], [ -13.8961507, 28.3199573 ], [ -13.8937064, 28.3172567 ], [ -13.89353, 28.3160867 ], [ -13.8946347, 28.3153633 ], [ -13.893796, 28.3143446 ], [ -13.8983007, 28.3119422 ], [ -13.9001448, 28.3042694 ], [ -13.9024369, 28.3039841 ], [ -13.9034113, 28.300795 ], [ -13.9024167, 28.2995766 ], [ -13.903268, 28.2970722 ], [ -13.8991113, 28.2946095 ], [ -13.8995107, 28.2938218 ], [ -13.8980806, 28.2925474 ], [ -13.8977792, 28.2906581 ], [ -13.8986066, 28.2881874 ], [ -13.8979097, 28.2887467 ], [ -13.8967566, 28.2881867 ], [ -13.8976631, 28.2880538 ], [ -13.8972764, 28.2864416 ], [ -13.8987046, 28.2848864 ], [ -13.8980841, 28.2832492 ], [ -13.8990569, 28.2836764 ], [ -13.8997118, 28.2805769 ], [ -13.9012503, 28.2800023 ], [ -13.9016523, 28.2783604 ], [ -13.90323, 28.277427 ], [ -13.9007967, 28.2766311 ], [ -13.9008012, 28.2758399 ], [ -13.9017606, 28.2746473 ], [ -13.9049138, 28.2767483 ], [ -13.9042591, 28.2757884 ], [ -13.9050852, 28.2752791 ], [ -13.9063993, 28.2760383 ], [ -13.9100797, 28.2738565 ], [ -13.9105212, 28.2722382 ], [ -13.9096838, 28.2711684 ], [ -13.9114552, 28.2698583 ], [ -13.9125466, 28.2660084 ], [ -13.9141392, 28.2651601 ], [ -13.9142422, 28.2630765 ], [ -13.915172, 28.2621776 ], [ -13.9139324, 28.2597101 ], [ -13.9154533, 28.256233 ], [ -13.9185418, 28.2544777 ], [ -13.9184776, 28.2533675 ], [ -13.9171565, 28.2520953 ], [ -13.9218852, 28.2505644 ], [ -13.922366, 28.2476316 ], [ -13.9245878, 28.2460532 ], [ -13.9258763, 28.2427364 ], [ -13.9271188, 28.2415149 ], [ -13.9304857, 28.2403145 ], [ -13.9361819, 28.2337551 ], [ -13.9381834, 28.2334257 ], [ -13.9387214, 28.2320733 ], [ -13.9400483, 28.2326747 ], [ -13.9420283, 28.2319587 ], [ -13.9441144, 28.2295529 ], [ -13.9468005, 28.2282749 ], [ -13.9537589, 28.2271164 ], [ -13.975879, 28.2290807 ], [ -13.9803338, 28.2288425 ], [ -13.9832343, 28.227034 ], [ -13.9848406, 28.2284953 ], [ -13.9874825, 28.2279383 ], [ -13.991404, 28.2237733 ], [ -13.9922027, 28.2207173 ], [ -13.9937496, 28.2204721 ], [ -13.9955682, 28.2180703 ], [ -13.9975275, 28.2170499 ], [ -14.0001747, 28.216856 ], [ -14.0031848, 28.2151534 ], [ -14.0079401, 28.2100629 ], [ -14.0128088, 28.2077319 ], [ -14.0162651, 28.2110684 ], [ -14.0184095, 28.2113017 ], [ -14.0228499, 28.2098891 ], [ -14.0225802, 28.2064259 ], [ -14.0239223, 28.2051943 ], [ -14.0228451, 28.2065008 ], [ -14.0232055, 28.2088095 ], [ -14.0239711, 28.207679 ], [ -14.025337, 28.2076614 ], [ -14.0242609, 28.2079113 ], [ -14.0251146, 28.2084146 ], [ -14.0271446, 28.2075335 ], [ -14.0285665, 28.2063606 ], [ -14.0278909, 28.2055915 ], [ -14.0250407, 28.2064204 ], [ -14.0276177, 28.2053473 ], [ -14.0300148, 28.2073525 ], [ -14.0322903, 28.2074408 ], [ -14.0369197, 28.2057589 ], [ -14.0427502, 28.2023249 ], [ -14.0445081, 28.2029548 ], [ -14.0484208, 28.2022078 ], [ -14.0500132, 28.2033 ], [ -14.0557324, 28.201903 ], [ -14.0607294, 28.2023074 ], [ -14.0650155, 28.2013676 ], [ -14.0660655, 28.1999732 ], [ -14.0683055, 28.1989944 ], [ -14.0700306, 28.1991553 ], [ -14.0717307, 28.2014599 ], [ -14.0734397, 28.2015817 ], [ -14.0763859, 28.2002166 ], [ -14.0771174, 28.1977466 ], [ -14.0810779, 28.1979155 ], [ -14.0827291, 28.1968176 ], [ -14.0922785, 28.1942628 ], [ -14.0949051, 28.192358 ], [ -14.0967028, 28.194752 ], [ -14.1001046, 28.1944724 ], [ -14.1009264, 28.1936371 ], [ -14.1063099, 28.1924651 ], [ -14.1086922, 28.1899569 ], [ -14.1099102, 28.1901415 ], [ -14.1100295, 28.1887981 ], [ -14.1144382, 28.189056 ], [ -14.1157859, 28.191593 ], [ -14.1196129, 28.191611 ], [ -14.1253, 28.1902175 ], [ -14.129317, 28.1865912 ], [ -14.1314713, 28.1883338 ], [ -14.1337242, 28.1873116 ], [ -14.1365497, 28.1875195 ], [ -14.1381384, 28.1864444 ], [ -14.1391447, 28.1839953 ], [ -14.1427612, 28.1833047 ], [ -14.1433455, 28.182006 ], [ -14.145475, 28.1826833 ], [ -14.1461622, 28.1815847 ], [ -14.1477118, 28.1813827 ], [ -14.1490449, 28.1830372 ], [ -14.1524052, 28.1824711 ], [ -14.1563806, 28.1795182 ], [ -14.1571473, 28.1774373 ], [ -14.1587886, 28.175964 ], [ -14.1623884, 28.1775403 ], [ -14.1648897, 28.176743 ], [ -14.1654179, 28.1754307 ], [ -14.1677006, 28.1739857 ], [ -14.1728665, 28.1754738 ], [ -14.1741937, 28.1746898 ], [ -14.1756469, 28.1749785 ], [ -14.1769403, 28.1738595 ], [ -14.1795278, 28.1738076 ], [ -14.1838401, 28.1751124 ], [ -14.1883896, 28.1728673 ], [ -14.1912207, 28.1744097 ], [ -14.1983393, 28.1739222 ], [ -14.202076, 28.1720908 ], [ -14.2061156, 28.1673492 ], [ -14.2124712, 28.1644844 ], [ -14.2140828, 28.1642242 ], [ -14.2164827, 28.1655957 ], [ -14.2190225, 28.1651238 ], [ -14.2230324, 28.162145 ], [ -14.2301338, 28.1499909 ], [ -14.236396, 28.1437804 ], [ -14.2407682, 28.1342175 ], [ -14.2470222, 28.1260512 ], [ -14.2524188, 28.1164164 ], [ -14.2576303, 28.1117001 ], [ -14.2636723, 28.1101138 ], [ -14.2659106, 28.1085292 ], [ -14.2706855, 28.1027724 ], [ -14.2730612, 28.0985458 ], [ -14.2814352, 28.0920717 ], [ -14.2862484, 28.0843256 ], [ -14.2892716, 28.0833369 ], [ -14.2953326, 28.0779009 ], [ -14.2978318, 28.0769162 ], [ -14.301949, 28.073588 ], [ -14.305633, 28.0683363 ], [ -14.3126131, 28.0609214 ], [ -14.3148445, 28.0572198 ], [ -14.3183613, 28.0549434 ], [ -14.322321, 28.0489351 ], [ -14.328405, 28.0464559 ], [ -14.3315643, 28.0439541 ], [ -14.3363873, 28.0437334 ], [ -14.3518674, 28.0493191 ], [ -14.3565654, 28.0491728 ], [ -14.3610489, 28.0474795 ], [ -14.3650149, 28.0495505 ], [ -14.3608785, 28.0480915 ], [ -14.3593745, 28.0483225 ], [ -14.3584707, 28.0495182 ], [ -14.3604554, 28.050843 ], [ -14.361161, 28.0502032 ], [ -14.3608473, 28.0510466 ], [ -14.3636226, 28.0524003 ], [ -14.364206, 28.0509034 ], [ -14.3620968, 28.0500451 ], [ -14.3643586, 28.0507897 ], [ -14.364168, 28.0523304 ], [ -14.3687793, 28.0542519 ], [ -14.3708891, 28.0543974 ], [ -14.3725134, 28.0532434 ], [ -14.375362, 28.0531969 ], [ -14.3779602, 28.0521334 ], [ -14.3831206, 28.053053 ], [ -14.3860163, 28.0552141 ], [ -14.390901, 28.0556205 ], [ -14.3998721, 28.05848 ], [ -14.4093149, 28.0586496 ], [ -14.417519, 28.0620707 ], [ -14.4198599, 28.0618754 ], [ -14.4241698, 28.0645162 ], [ -14.4297929, 28.0652637 ], [ -14.4341303, 28.068194 ], [ -14.4376265, 28.0680702 ], [ -14.4400509, 28.0697421 ], [ -14.4429095, 28.069892 ], [ -14.4523627, 28.0736298 ], [ -14.4579687, 28.0736017 ], [ -14.4652985, 28.0761529 ], [ -14.4680178, 28.075451 ], [ -14.4690461, 28.0762385 ], [ -14.4715637, 28.0760876 ], [ -14.4773654, 28.0777943 ], [ -14.481171, 28.0776341 ], [ -14.4828377, 28.076323 ], [ -14.4868626, 28.075987 ], [ -14.488534, 28.074615 ], [ -14.4956955, 28.0740612 ], [ -14.5026011, 28.0719556 ], [ -14.504195, 28.0705102 ], [ -14.5044292, 28.0682471 ], [ -14.5070411, 28.0653535 ], [ -14.509549, 28.0674654 ] ] ], [ [ [ -13.8182742, 28.7372616 ], [ -13.8170202, 28.73639 ], [ -13.8176616, 28.7355692 ], [ -13.8185111, 28.7366282 ], [ -13.8182742, 28.7372616 ] ] ], [ [ [ -13.8358244, 28.7522164 ], [ -13.8349677, 28.7537642 ], [ -13.8342778, 28.7533616 ], [ -13.8338805, 28.7540866 ], [ -13.8326428, 28.7530644 ], [ -13.8313486, 28.7538608 ], [ -13.8320149, 28.7556624 ], [ -13.8294258, 28.7555232 ], [ -13.8257257, 28.7568611 ], [ -13.8229238, 28.7611631 ], [ -13.8208314, 28.7602224 ], [ -13.8190568, 28.7605936 ], [ -13.8194584, 28.7616468 ], [ -13.8180704, 28.7616062 ], [ -13.8183096, 28.7639681 ], [ -13.817157, 28.7652199 ], [ -13.814416, 28.765988 ], [ -13.8133825, 28.7649466 ], [ -13.8127992, 28.765685 ], [ -13.8131148, 28.7600684 ], [ -13.8123474, 28.7597947 ], [ -13.8129943, 28.7585292 ], [ -13.812094, 28.7579427 ], [ -13.8127984, 28.7569646 ], [ -13.8107514, 28.7558623 ], [ -13.8119432, 28.754022 ], [ -13.8110802, 28.7534979 ], [ -13.8125689, 28.750752 ], [ -13.8132254, 28.7462325 ], [ -13.8145777, 28.7450961 ], [ -13.8144435, 28.7418407 ], [ -13.8137899, 28.7413393 ], [ -13.8159202, 28.7400909 ], [ -13.8143524, 28.7394608 ], [ -13.8157713, 28.7365253 ], [ -13.8175451, 28.737052 ], [ -13.8159917, 28.7380882 ], [ -13.8168593, 28.7380638 ], [ -13.8163235, 28.7393313 ], [ -13.8177112, 28.7375346 ], [ -13.8190046, 28.7376218 ], [ -13.8191883, 28.7360353 ], [ -13.8224168, 28.7366411 ], [ -13.825722, 28.7420138 ], [ -13.8275492, 28.7413185 ], [ -13.8271512, 28.739812 ], [ -13.8294389, 28.7392136 ], [ -13.8308783, 28.739763 ], [ -13.8302609, 28.7434507 ], [ -13.8320248, 28.7452703 ], [ -13.8330765, 28.7483614 ], [ -13.8355532, 28.7506942 ], [ -13.8358244, 28.7522164 ] ] ] ] } }
]
}
