{
"type": "FeatureCollection",
"name": "gotland",
"crs": { "type": "name", "properties": { "name": "urn:ogc:def:crs:OGC:1.3:CRS84" } },
"features": [
{ "type": "Feature", "properties": { }, "geometry": { "type": "Polygon", "coordinates": [ [ [ 18.0913644, 57.2597723 ], [ 18.0921175, 57.2588842 ], [ 18.0947907, 57.2588939 ], [ 18.0960807, 57.25766 ], [ 18.0979728, 57.258344 ], [ 18.1016321, 57.2579915 ], [ 18.0982769, 57.2555123 ], [ 18.0994035, 57.2553021 ], [ 18.1015339, 57.2564871 ], [ 18.1059808, 57.2557717 ], [ 18.109303, 57.254637 ], [ 18.1084809, 57.2532883 ], [ 18.1089755, 57.2523381 ], [ 18.1118993, 57.2525791 ], [ 18.116943, 57.2514042 ], [ 18.1232531, 57.2475942 ], [ 18.1212957, 57.2461766 ], [ 18.1233033, 57.2464922 ], [ 18.1249306, 57.244746 ], [ 18.1258543, 57.2466166 ], [ 18.1279494, 57.2470178 ], [ 18.1294922, 57.2486973 ], [ 18.1317895, 57.2483946 ], [ 18.1325923, 57.2456674 ], [ 18.1303111, 57.2441449 ], [ 18.1282386, 57.2440238 ], [ 18.1299219, 57.2436749 ], [ 18.1340367, 57.2458624 ], [ 18.1346222, 57.2475166 ], [ 18.1373337, 57.2478897 ], [ 18.1398074, 57.246577 ], [ 18.1389757, 57.2456481 ], [ 18.1362398, 57.2462375 ], [ 18.137181, 57.2445855 ], [ 18.1434539, 57.2414293 ], [ 18.1465709, 57.2387675 ], [ 18.1456874, 57.2381096 ], [ 18.1485662, 57.238152 ], [ 18.1487985, 57.2372592 ], [ 18.145638, 57.2353721 ], [ 18.1464162, 57.2355172 ], [ 18.1457473, 57.2353064 ], [ 18.1491636, 57.2331337 ], [ 18.1470354, 57.23114 ], [ 18.1503493, 57.2315123 ], [ 18.1529226, 57.2302066 ], [ 18.1519074, 57.2270881 ], [ 18.1470033, 57.2271103 ], [ 18.1491396, 57.2204986 ], [ 18.150956, 57.2195333 ], [ 18.1533252, 57.2153692 ], [ 18.1525924, 57.2109977 ], [ 18.1533963, 57.2077806 ], [ 18.1512704, 57.2045358 ], [ 18.1508375, 57.1999977 ], [ 18.14931, 57.1978841 ], [ 18.1491471, 57.193161 ], [ 18.1499644, 57.1896017 ], [ 18.1503724, 57.1888133 ], [ 18.1529387, 57.1881417 ], [ 18.1539195, 57.1885895 ], [ 18.1542166, 57.1900027 ], [ 18.1524843, 57.1904658 ], [ 18.1519999, 57.1916137 ], [ 18.1567367, 57.1911055 ], [ 18.1595748, 57.1920517 ], [ 18.1619713, 57.1911108 ], [ 18.1649172, 57.1864029 ], [ 18.1672754, 57.1853319 ], [ 18.1658501, 57.1849994 ], [ 18.1664163, 57.1816425 ], [ 18.1632215, 57.1806815 ], [ 18.1647587, 57.179921 ], [ 18.1635796, 57.1787085 ], [ 18.1583761, 57.1791597 ], [ 18.1571051, 57.1801803 ], [ 18.1542175, 57.1785035 ], [ 18.154784, 57.177361 ], [ 18.1541001, 57.1763925 ], [ 18.1567205, 57.1768888 ], [ 18.1575, 57.1763759 ], [ 18.1574919, 57.1751014 ], [ 18.1606119, 57.1752037 ], [ 18.1590969, 57.1741429 ], [ 18.1597616, 57.1731928 ], [ 18.1564807, 57.1717874 ], [ 18.1539739, 57.1718269 ], [ 18.147969, 57.1692781 ], [ 18.1463527, 57.1669982 ], [ 18.1483563, 57.163935 ], [ 18.1498653, 57.1638225 ], [ 18.1488252, 57.1635552 ], [ 18.1501094, 57.1634344 ], [ 18.1492162, 57.1631235 ], [ 18.1504559, 57.162421 ], [ 18.1525196, 57.1628329 ], [ 18.1546863, 57.1617511 ], [ 18.1551686, 57.1628102 ], [ 18.1561959, 57.1630007 ], [ 18.1605115, 57.1611303 ], [ 18.161851, 57.1572614 ], [ 18.1655541, 57.1548495 ], [ 18.1683388, 57.1510445 ], [ 18.1669778, 57.1499426 ], [ 18.166753, 57.1474432 ], [ 18.1677443, 57.144814 ], [ 18.1659854, 57.1462856 ], [ 18.1655954, 57.1446555 ], [ 18.167525, 57.1432818 ], [ 18.1703941, 57.1427542 ], [ 18.1733576, 57.1447574 ], [ 18.175663, 57.1433998 ], [ 18.1749369, 57.1427305 ], [ 18.1752816, 57.1420143 ], [ 18.1755898, 57.1431212 ], [ 18.1784917, 57.1449182 ], [ 18.181893, 57.144784 ], [ 18.1859246, 57.1469012 ], [ 18.1901512, 57.1461559 ], [ 18.1928391, 57.1470771 ], [ 18.1942574, 57.144213 ], [ 18.1968581, 57.1459229 ], [ 18.2002049, 57.1448159 ], [ 18.2001872, 57.1436133 ], [ 18.201633, 57.1436558 ], [ 18.2011123, 57.1433336 ], [ 18.206189, 57.1398145 ], [ 18.2058156, 57.138909 ], [ 18.2096678, 57.1367186 ], [ 18.2085734, 57.1330369 ], [ 18.2131434, 57.1389305 ], [ 18.2130082, 57.1405139 ], [ 18.2141798, 57.1418205 ], [ 18.2175588, 57.1424119 ], [ 18.2161174, 57.1411202 ], [ 18.2187079, 57.1409141 ], [ 18.2171147, 57.1406015 ], [ 18.2180498, 57.1400115 ], [ 18.2170455, 57.1399693 ], [ 18.2176516, 57.1394015 ], [ 18.2163937, 57.1381888 ], [ 18.2183528, 57.1380276 ], [ 18.2180145, 57.1336595 ], [ 18.2170734, 57.1319669 ], [ 18.2178681, 57.125975 ], [ 18.2120922, 57.1225776 ], [ 18.2076945, 57.1218566 ], [ 18.2075113, 57.1208899 ], [ 18.2056276, 57.1209868 ], [ 18.2047695, 57.1219365 ], [ 18.2045536, 57.1212858 ], [ 18.2041945, 57.1222707 ], [ 18.2044037, 57.1212889 ], [ 18.2023977, 57.1209741 ], [ 18.2050742, 57.119988 ], [ 18.2079509, 57.1203098 ], [ 18.2063998, 57.1177928 ], [ 18.208015, 57.1180303 ], [ 18.2079884, 57.1170982 ], [ 18.214371, 57.1178473 ], [ 18.2208904, 57.1150593 ], [ 18.2205366, 57.114302 ], [ 18.2224783, 57.1141067 ], [ 18.2212372, 57.1135246 ], [ 18.2197336, 57.1140988 ], [ 18.2194865, 57.1127846 ], [ 18.2179102, 57.1126859 ], [ 18.2173705, 57.1104311 ], [ 18.2138362, 57.1086431 ], [ 18.2145204, 57.1083525 ], [ 18.2143906, 57.1068142 ], [ 18.2116801, 57.1051474 ], [ 18.2148348, 57.1038362 ], [ 18.2169685, 57.104242 ], [ 18.2171552, 57.1010788 ], [ 18.2180848, 57.1007845 ], [ 18.2169996, 57.1000706 ], [ 18.2182831, 57.0991648 ], [ 18.2151959, 57.0965811 ], [ 18.2102754, 57.09545 ], [ 18.2096968, 57.0944944 ], [ 18.211392, 57.0942231 ], [ 18.2104339, 57.0936663 ], [ 18.2111452, 57.0932497 ], [ 18.2108636, 57.0910678 ], [ 18.2064647, 57.0841407 ], [ 18.2070495, 57.083201 ], [ 18.2062456, 57.0804859 ], [ 18.2039434, 57.0771573 ], [ 18.1981772, 57.0722464 ], [ 18.1925945, 57.0697327 ], [ 18.1878527, 57.0700415 ], [ 18.1826091, 57.0694217 ], [ 18.1786723, 57.0717815 ], [ 18.1752357, 57.0722012 ], [ 18.1736104, 57.0711063 ], [ 18.1744613, 57.0694554 ], [ 18.178772, 57.0703615 ], [ 18.1821787, 57.0689008 ], [ 18.1870184, 57.069689 ], [ 18.1899898, 57.0692225 ], [ 18.1967809, 57.0671646 ], [ 18.1972233, 57.0664135 ], [ 18.1962125, 57.066216 ], [ 18.1998614, 57.0650192 ], [ 18.2020976, 57.062848 ], [ 18.2042758, 57.0633432 ], [ 18.2046127, 57.0625064 ], [ 18.2098172, 57.0606596 ], [ 18.2109322, 57.0597776 ], [ 18.210325, 57.059412 ], [ 18.2118976, 57.0588519 ], [ 18.2148102, 57.0599455 ], [ 18.2194426, 57.0599701 ], [ 18.2195864, 57.0607971 ], [ 18.2220385, 57.0622072 ], [ 18.2260022, 57.0622647 ], [ 18.2270199, 57.0636748 ], [ 18.2296396, 57.0644763 ], [ 18.2318208, 57.063934 ], [ 18.2322384, 57.0629802 ], [ 18.2316204, 57.062453 ], [ 18.2323395, 57.0616812 ], [ 18.2374764, 57.0664683 ], [ 18.2391879, 57.0660587 ], [ 18.239118, 57.0637288 ], [ 18.2406962, 57.0639482 ], [ 18.2407021, 57.0668095 ], [ 18.2504278, 57.0722923 ], [ 18.2507156, 57.0735307 ], [ 18.2493999, 57.0772137 ], [ 18.2525657, 57.0796617 ], [ 18.255561, 57.0799735 ], [ 18.2564903, 57.0811907 ], [ 18.2577311, 57.0812238 ], [ 18.2615815, 57.0858748 ], [ 18.264165, 57.0855125 ], [ 18.2648543, 57.0842806 ], [ 18.2669174, 57.0839331 ], [ 18.2661235, 57.0854892 ], [ 18.2689779, 57.0884221 ], [ 18.2713147, 57.0882589 ], [ 18.2698008, 57.0863613 ], [ 18.2703448, 57.0860582 ], [ 18.27287, 57.08742 ], [ 18.2791081, 57.0881155 ], [ 18.2843684, 57.090984 ], [ 18.2848587, 57.0921481 ], [ 18.2867406, 57.09319 ], [ 18.2877742, 57.0955296 ], [ 18.2868881, 57.0960284 ], [ 18.2913218, 57.099717 ], [ 18.2946477, 57.0993743 ], [ 18.3010861, 57.0953439 ], [ 18.300613, 57.0939019 ], [ 18.2978299, 57.0935855 ], [ 18.2978127, 57.0925418 ], [ 18.2954789, 57.0916402 ], [ 18.2944586, 57.0903815 ], [ 18.294531, 57.0864279 ], [ 18.2958233, 57.0870991 ], [ 18.2942722, 57.0861842 ], [ 18.2945788, 57.0843605 ], [ 18.2939546, 57.0836918 ], [ 18.29544, 57.0827723 ], [ 18.2951394, 57.0818081 ], [ 18.2966795, 57.0813955 ], [ 18.2976502, 57.0794724 ], [ 18.2966642, 57.0788429 ], [ 18.2939584, 57.0791907 ], [ 18.2934987, 57.0770757 ], [ 18.2959497, 57.0765975 ], [ 18.2961667, 57.0756928 ], [ 18.2978937, 57.0750375 ], [ 18.2970318, 57.0749323 ], [ 18.2977234, 57.0745654 ], [ 18.2970385, 57.0740546 ], [ 18.2983563, 57.0737618 ], [ 18.294466, 57.070239 ], [ 18.2967203, 57.0673473 ], [ 18.2950247, 57.0663431 ], [ 18.2910115, 57.0660697 ], [ 18.2921836, 57.0656699 ], [ 18.2913247, 57.0655522 ], [ 18.2913373, 57.064405 ], [ 18.2927262, 57.0622742 ], [ 18.2919196, 57.0619075 ], [ 18.2933695, 57.0613607 ], [ 18.2934969, 57.0599107 ], [ 18.2900752, 57.0587069 ], [ 18.292111, 57.0578374 ], [ 18.2922147, 57.0568187 ], [ 18.2889392, 57.054875 ], [ 18.2874181, 57.0516525 ], [ 18.2886658, 57.0507639 ], [ 18.2876247, 57.050651 ], [ 18.2879233, 57.0494876 ], [ 18.2865437, 57.048944 ], [ 18.2868476, 57.0485029 ], [ 18.2857271, 57.0485919 ], [ 18.2869921, 57.0478959 ], [ 18.2833759, 57.0452843 ], [ 18.283571, 57.0427502 ], [ 18.2825505, 57.0417008 ], [ 18.281519, 57.0420072 ], [ 18.2776405, 57.0399547 ], [ 18.2768926, 57.0402284 ], [ 18.2775611, 57.0389694 ], [ 18.2766567, 57.0386614 ], [ 18.2773285, 57.0381031 ], [ 18.2761449, 57.0375302 ], [ 18.2767634, 57.0371177 ], [ 18.2757481, 57.0362256 ], [ 18.2679582, 57.0356785 ], [ 18.2683999, 57.0353367 ], [ 18.265925, 57.0350699 ], [ 18.2653023, 57.0342976 ], [ 18.261373, 57.0339811 ], [ 18.2620353, 57.0333109 ], [ 18.2606596, 57.0328219 ], [ 18.2586899, 57.0336617 ], [ 18.2583976, 57.0347901 ], [ 18.2595092, 57.0347312 ], [ 18.2580315, 57.0348951 ], [ 18.2584415, 57.0360907 ], [ 18.2576556, 57.0353238 ], [ 18.2578973, 57.0337044 ], [ 18.2569572, 57.0332717 ], [ 18.2512226, 57.0341122 ], [ 18.2484834, 57.0337654 ], [ 18.2426824, 57.0356569 ], [ 18.2363502, 57.0325741 ], [ 18.229502, 57.0332608 ], [ 18.2248454, 57.0302788 ], [ 18.2204058, 57.0305989 ], [ 18.2204153, 57.0312852 ], [ 18.2185115, 57.0308572 ], [ 18.2111916, 57.0261263 ], [ 18.211337, 57.0249361 ], [ 18.2102013, 57.0240998 ], [ 18.2086196, 57.0237736 ], [ 18.2067751, 57.024795 ], [ 18.2032437, 57.0227789 ], [ 18.2005666, 57.0194803 ], [ 18.1972114, 57.0181278 ], [ 18.200098, 57.0170368 ], [ 18.1972157, 57.0157514 ], [ 18.1972208, 57.0144994 ], [ 18.1981596, 57.0139622 ], [ 18.1957373, 57.0136332 ], [ 18.193775, 57.012267 ], [ 18.19379, 57.0107024 ], [ 18.192723, 57.0098609 ], [ 18.1934679, 57.0091181 ], [ 18.1897567, 57.0093015 ], [ 18.1900188, 57.0081952 ], [ 18.1937074, 57.0066041 ], [ 18.1940679, 57.0077551 ], [ 18.1960334, 57.0079833 ], [ 18.1966857, 57.0092906 ], [ 18.1980888, 57.006586 ], [ 18.2019157, 57.0050338 ], [ 18.202965, 57.0029839 ], [ 18.2029022, 57.0011271 ], [ 18.2045857, 57.000472 ], [ 18.2033386, 56.9989735 ], [ 18.1976915, 56.997515 ], [ 18.1987714, 56.996941 ], [ 18.1984168, 56.9963729 ], [ 18.1959478, 56.9954418 ], [ 18.1944133, 56.9959846 ], [ 18.1935303, 56.9948796 ], [ 18.1948569, 56.9945609 ], [ 18.1951804, 56.9935074 ], [ 18.1945012, 56.9927646 ], [ 18.195241, 56.9926165 ], [ 18.1952252, 56.9913266 ], [ 18.1963667, 56.9916331 ], [ 18.1957485, 56.9924439 ], [ 18.197251, 56.9938724 ], [ 18.1973851, 56.9916477 ], [ 18.200382, 56.9884647 ], [ 18.2004804, 56.9869995 ], [ 18.1992536, 56.9856724 ], [ 18.2009434, 56.9839475 ], [ 18.2001135, 56.9832346 ], [ 18.200566, 56.9826359 ], [ 18.1923324, 56.9805892 ], [ 18.1875632, 56.9817967 ], [ 18.1825775, 56.9756643 ], [ 18.1782629, 56.9751754 ], [ 18.1814054, 56.9749484 ], [ 18.1822553, 56.9742112 ], [ 18.1779584, 56.9724904 ], [ 18.1762131, 56.9708769 ], [ 18.1741317, 56.9709681 ], [ 18.1707441, 56.9654037 ], [ 18.16954, 56.96154 ], [ 18.167431, 56.9606179 ], [ 18.1661109, 56.9609879 ], [ 18.1650087, 56.9592883 ], [ 18.1625596, 56.9578555 ], [ 18.1625867, 56.9564929 ], [ 18.1611928, 56.95665 ], [ 18.1563868, 56.9541793 ], [ 18.1585036, 56.9509309 ], [ 18.1582421, 56.9483939 ], [ 18.15257, 56.9471707 ], [ 18.1498079, 56.945591 ], [ 18.1467963, 56.9400149 ], [ 18.1425844, 56.9375498 ], [ 18.1402919, 56.9333013 ], [ 18.1319392, 56.9270087 ], [ 18.1284312, 56.9226974 ], [ 18.1235689, 56.9197176 ], [ 18.1231907, 56.9144111 ], [ 18.1244417, 56.9112436 ], [ 18.1278231, 56.9079439 ], [ 18.1288598, 56.9078707 ], [ 18.129209, 56.9092209 ], [ 18.1340349, 56.911815 ], [ 18.1428285, 56.9126592 ], [ 18.1467813, 56.9113782 ], [ 18.1489884, 56.9097627 ], [ 18.151908, 56.9099306 ], [ 18.1517538, 56.9084476 ], [ 18.1538615, 56.9071925 ], [ 18.1579634, 56.9094562 ], [ 18.1576083, 56.9106901 ], [ 18.1600957, 56.9124423 ], [ 18.1630161, 56.9132588 ], [ 18.1635378, 56.9127098 ], [ 18.1631272, 56.9132562 ], [ 18.164784, 56.913837 ], [ 18.1682408, 56.9133643 ], [ 18.1698056, 56.9113657 ], [ 18.1703512, 56.9127546 ], [ 18.1717591, 56.9134169 ], [ 18.1746658, 56.9123521 ], [ 18.1773319, 56.9135325 ], [ 18.1809118, 56.9136345 ], [ 18.1828535, 56.9116168 ], [ 18.1843019, 56.9113263 ], [ 18.1837188, 56.91025 ], [ 18.1856427, 56.9095436 ], [ 18.1862688, 56.9078691 ], [ 18.1872706, 56.9077928 ], [ 18.1865882, 56.9070454 ], [ 18.1872255, 56.9059966 ], [ 18.1867422, 56.9052397 ], [ 18.1896883, 56.9061046 ], [ 18.1932039, 56.9055673 ], [ 18.1949138, 56.9068332 ], [ 18.198215, 56.907092 ], [ 18.1988413, 56.9083263 ], [ 18.209188, 56.9112298 ], [ 18.2148949, 56.913992 ], [ 18.2184022, 56.914186 ], [ 18.221027, 56.9158379 ], [ 18.2297699, 56.9157672 ], [ 18.2311671, 56.9184558 ], [ 18.2348326, 56.9208912 ], [ 18.2384265, 56.9220071 ], [ 18.2452878, 56.922499 ], [ 18.2465219, 56.9244207 ], [ 18.2488643, 56.9253729 ], [ 18.2495741, 56.9245085 ], [ 18.2489715, 56.9254986 ], [ 18.2537719, 56.928139 ], [ 18.2613888, 56.9295665 ], [ 18.2811063, 56.9286996 ], [ 18.2863935, 56.9308547 ], [ 18.293208, 56.9296457 ], [ 18.2955748, 56.9312782 ], [ 18.2931835, 56.9347893 ], [ 18.2954827, 56.9371083 ], [ 18.3109789, 56.9385494 ], [ 18.3128114, 56.9404507 ], [ 18.3126502, 56.942214 ], [ 18.3111127, 56.9435029 ], [ 18.3115585, 56.9439396 ], [ 18.3100755, 56.9434889 ], [ 18.310241, 56.9429809 ], [ 18.3092545, 56.9432462 ], [ 18.3090235, 56.9438525 ], [ 18.3104092, 56.9440972 ], [ 18.3074657, 56.9461591 ], [ 18.3089328, 56.9474803 ], [ 18.3070096, 56.9474193 ], [ 18.3074441, 56.9480528 ], [ 18.3086359, 56.9476375 ], [ 18.3075818, 56.9482101 ], [ 18.3084595, 56.9489915 ], [ 18.3125038, 56.9504721 ], [ 18.3176797, 56.9508968 ], [ 18.3199988, 56.9502773 ], [ 18.3202268, 56.9483954 ], [ 18.3203128, 56.9501647 ], [ 18.3218918, 56.9503618 ], [ 18.3225329, 56.9494537 ], [ 18.322989, 56.9494138 ], [ 18.3223264, 56.9503571 ], [ 18.3236989, 56.9497024 ], [ 18.3243012, 56.9511267 ], [ 18.3281864, 56.9520629 ], [ 18.3215484, 56.9543299 ], [ 18.3207212, 56.9573633 ], [ 18.3188786, 56.959705 ], [ 18.3191704, 56.9618579 ], [ 18.3205764, 56.9631702 ], [ 18.3199842, 56.9635594 ], [ 18.3204605, 56.964488 ], [ 18.327908, 56.9678907 ], [ 18.3332971, 56.9686565 ], [ 18.3361842, 56.9716212 ], [ 18.3405996, 56.9732372 ], [ 18.341039, 56.9747473 ], [ 18.3438574, 56.9772832 ], [ 18.3489365, 56.9791825 ], [ 18.3520162, 56.9792118 ], [ 18.3576842, 56.9820785 ], [ 18.359955, 56.9822878 ], [ 18.3618647, 56.9838127 ], [ 18.3657357, 56.9842284 ], [ 18.3672184, 56.985169 ], [ 18.3614914, 56.985738 ], [ 18.3602404, 56.9875279 ], [ 18.3568887, 56.9889819 ], [ 18.354914, 56.9889311 ], [ 18.3551005, 56.9902479 ], [ 18.3540987, 56.9903379 ], [ 18.3542025, 56.9910456 ], [ 18.3568962, 56.9914201 ], [ 18.3570496, 56.9927861 ], [ 18.3558067, 56.9948909 ], [ 18.3623376, 56.9961671 ], [ 18.3684278, 56.9959043 ], [ 18.3748168, 56.9973637 ], [ 18.3774859, 56.9968978 ], [ 18.3779126, 56.9960508 ], [ 18.3866682, 56.9922554 ], [ 18.3867178, 56.9934607 ], [ 18.3882158, 56.9941413 ], [ 18.3950377, 56.9928526 ], [ 18.3980635, 56.9942256 ], [ 18.397279, 56.9958118 ], [ 18.3988738, 57.0000286 ], [ 18.3956646, 57.0004759 ], [ 18.3898611, 57.0032724 ], [ 18.3894529, 57.0037708 ], [ 18.390161, 57.0041084 ], [ 18.3874026, 57.0051112 ], [ 18.3869833, 57.0061077 ], [ 18.3878323, 57.006879 ], [ 18.3859912, 57.0085763 ], [ 18.3846702, 57.0079554 ], [ 18.3826484, 57.0089108 ], [ 18.3813121, 57.0086366 ], [ 18.3793699, 57.0095757 ], [ 18.3794909, 57.0102754 ], [ 18.3776326, 57.0105818 ], [ 18.3639169, 57.0073267 ], [ 18.3543409, 57.0080004 ], [ 18.3477335, 57.010399 ], [ 18.3411948, 57.0163226 ], [ 18.3379971, 57.0244923 ], [ 18.3373252, 57.0246871 ], [ 18.338014, 57.0247868 ], [ 18.3382701, 57.0261196 ], [ 18.3375594, 57.0268469 ], [ 18.3401378, 57.0280471 ], [ 18.3383696, 57.0290393 ], [ 18.3396399, 57.0303114 ], [ 18.3451873, 57.0297798 ], [ 18.3434176, 57.0325281 ], [ 18.3467859, 57.0361749 ], [ 18.3483976, 57.0408765 ], [ 18.3482158, 57.0436255 ], [ 18.3463125, 57.044702 ], [ 18.3463624, 57.0457533 ], [ 18.3480562, 57.0464186 ], [ 18.3472668, 57.0467743 ], [ 18.3473172, 57.0486944 ], [ 18.3459973, 57.0502363 ], [ 18.3460467, 57.0513669 ], [ 18.3490277, 57.0540929 ], [ 18.3512123, 57.0542526 ], [ 18.355112, 57.0529163 ], [ 18.3535166, 57.0567835 ], [ 18.3517842, 57.0584358 ], [ 18.3496159, 57.0587921 ], [ 18.3471246, 57.0574048 ], [ 18.3446581, 57.0572843 ], [ 18.3405226, 57.0585418 ], [ 18.3409336, 57.0593187 ], [ 18.3397105, 57.0599899 ], [ 18.3417119, 57.0611152 ], [ 18.3394221, 57.0638591 ], [ 18.3410596, 57.0660533 ], [ 18.3397671, 57.0674163 ], [ 18.339985, 57.0693563 ], [ 18.3392621, 57.0696506 ], [ 18.3400841, 57.0704666 ], [ 18.3400673, 57.0721296 ], [ 18.3452486, 57.0731871 ], [ 18.3503037, 57.0752575 ], [ 18.350227, 57.0768792 ], [ 18.3509946, 57.0775501 ], [ 18.3492391, 57.0787392 ], [ 18.3488907, 57.0809712 ], [ 18.3531246, 57.0811359 ], [ 18.3575851, 57.080196 ], [ 18.3586824, 57.0825243 ], [ 18.3634859, 57.0838461 ], [ 18.3638842, 57.0869156 ], [ 18.367944, 57.0899889 ], [ 18.3701121, 57.0897932 ], [ 18.3679658, 57.0905478 ], [ 18.3677869, 57.0914788 ], [ 18.3697854, 57.0915703 ], [ 18.3695518, 57.0921998 ], [ 18.3704527, 57.0927619 ], [ 18.3729303, 57.0925296 ], [ 18.3718652, 57.0938316 ], [ 18.3727382, 57.0956901 ], [ 18.3779937, 57.099182 ], [ 18.3873954, 57.100385 ], [ 18.3909687, 57.0996817 ], [ 18.393004, 57.0975495 ], [ 18.3924307, 57.0993941 ], [ 18.3940618, 57.0998131 ], [ 18.3939623, 57.1006822 ], [ 18.3966305, 57.1017355 ], [ 18.3973013, 57.1015368 ], [ 18.3965688, 57.1010144 ], [ 18.399957, 57.1008738 ], [ 18.3974017, 57.1026767 ], [ 18.3993157, 57.1033751 ], [ 18.3989643, 57.1042486 ], [ 18.4016725, 57.1055668 ], [ 18.4017224, 57.1062296 ], [ 18.415487, 57.110902 ], [ 18.4179063, 57.1110494 ], [ 18.416496, 57.1118871 ], [ 18.4172245, 57.1124748 ], [ 18.4292558, 57.1133096 ], [ 18.430175, 57.1125539 ], [ 18.4329412, 57.1124713 ], [ 18.4320075, 57.1118554 ], [ 18.4338481, 57.1117972 ], [ 18.4338969, 57.111017 ], [ 18.4361037, 57.1123545 ], [ 18.4380644, 57.1122977 ], [ 18.4408786, 57.1101253 ], [ 18.4452983, 57.1125398 ], [ 18.4487316, 57.1134078 ], [ 18.4510833, 57.1149941 ], [ 18.4514647, 57.1165744 ], [ 18.4546084, 57.1184903 ], [ 18.4538133, 57.1197367 ], [ 18.4474028, 57.1234855 ], [ 18.4445699, 57.1212589 ], [ 18.4403982, 57.1234546 ], [ 18.4373707, 57.1228851 ], [ 18.43401, 57.1208969 ], [ 18.4331866, 57.1210147 ], [ 18.4327292, 57.1230057 ], [ 18.4314868, 57.1241245 ], [ 18.4283572, 57.1225477 ], [ 18.4226841, 57.1232802 ], [ 18.4222434, 57.1240904 ], [ 18.4217831, 57.1232333 ], [ 18.4190063, 57.1229416 ], [ 18.4139363, 57.1230559 ], [ 18.4115173, 57.1239402 ], [ 18.4096681, 57.1232186 ], [ 18.4099718, 57.1218285 ], [ 18.408871, 57.1211628 ], [ 18.402968, 57.1208458 ], [ 18.4003249, 57.1198114 ], [ 18.3919264, 57.1217551 ], [ 18.3903291, 57.1240633 ], [ 18.3916241, 57.124615 ], [ 18.3905349, 57.1259125 ], [ 18.3917333, 57.1274128 ], [ 18.3906212, 57.1283669 ], [ 18.3946116, 57.1304383 ], [ 18.3933429, 57.1307548 ], [ 18.3947915, 57.1305444 ], [ 18.3972251, 57.133354 ], [ 18.39863, 57.1334385 ], [ 18.3990318, 57.1370987 ], [ 18.3982406, 57.1374188 ], [ 18.3991955, 57.1373959 ], [ 18.4007522, 57.1404132 ], [ 18.4029041, 57.1409165 ], [ 18.4038295, 57.1400938 ], [ 18.4061823, 57.1399241 ], [ 18.4095187, 57.1407034 ], [ 18.4097929, 57.1420024 ], [ 18.4127248, 57.1433646 ], [ 18.4117927, 57.1440537 ], [ 18.4135539, 57.1462199 ], [ 18.4189328, 57.148515 ], [ 18.4274777, 57.1484104 ], [ 18.4281759, 57.1510955 ], [ 18.4292721, 57.1509544 ], [ 18.4280879, 57.1513787 ], [ 18.4322633, 57.1530096 ], [ 18.4325313, 57.1543024 ], [ 18.4375687, 57.153538 ], [ 18.4405675, 57.1517652 ], [ 18.44261, 57.1521213 ], [ 18.4424989, 57.1528026 ], [ 18.4514576, 57.1544539 ], [ 18.4496956, 57.1554654 ], [ 18.4506431, 57.1621701 ], [ 18.45215, 57.1640696 ], [ 18.4533596, 57.1641298 ], [ 18.4538242, 57.1653023 ], [ 18.4551884, 57.164784 ], [ 18.4537035, 57.1640074 ], [ 18.4537062, 57.1631458 ], [ 18.4546755, 57.1635786 ], [ 18.4537378, 57.1624226 ], [ 18.454866, 57.1620494 ], [ 18.4549089, 57.1607078 ], [ 18.4565697, 57.1618955 ], [ 18.4584236, 57.1618027 ], [ 18.4596977, 57.1635357 ], [ 18.4632986, 57.1634218 ], [ 18.4631084, 57.1650711 ], [ 18.4653926, 57.1657789 ], [ 18.4678916, 57.1643883 ], [ 18.471928, 57.1639021 ], [ 18.4759001, 57.1622647 ], [ 18.4767257, 57.1634025 ], [ 18.4781234, 57.163566 ], [ 18.4776585, 57.1613853 ], [ 18.4807546, 57.1630648 ], [ 18.4802329, 57.1615552 ], [ 18.4810094, 57.1615457 ], [ 18.4840843, 57.1629954 ], [ 18.4829744, 57.164235 ], [ 18.4845119, 57.1664542 ], [ 18.486424, 57.1671855 ], [ 18.4839489, 57.1674268 ], [ 18.4836745, 57.1664277 ], [ 18.4824058, 57.1662302 ], [ 18.4806004, 57.1673075 ], [ 18.4799239, 57.1690798 ], [ 18.4821899, 57.1689842 ], [ 18.4823645, 57.1681417 ], [ 18.483299, 57.1681452 ], [ 18.4846216, 57.1695406 ], [ 18.4844809, 57.1706135 ], [ 18.4861945, 57.1707684 ], [ 18.4857809, 57.1711016 ], [ 18.4869434, 57.171747 ], [ 18.4875265, 57.1712988 ], [ 18.4871108, 57.1717233 ], [ 18.4877776, 57.1721409 ], [ 18.4892882, 57.1716744 ], [ 18.4909673, 57.1719498 ], [ 18.488932, 57.172158 ], [ 18.4903785, 57.1728474 ], [ 18.4924489, 57.1711476 ], [ 18.4918937, 57.1721061 ], [ 18.4926726, 57.1729019 ], [ 18.4890131, 57.1739304 ], [ 18.4902007, 57.1738949 ], [ 18.4894611, 57.1740891 ], [ 18.4905107, 57.175085 ], [ 18.4958575, 57.1742549 ], [ 18.4953705, 57.1751276 ], [ 18.4959661, 57.1756298 ], [ 18.4978691, 57.1756913 ], [ 18.4997, 57.17719 ], [ 18.50293, 57.17802 ], [ 18.5064518, 57.1777961 ], [ 18.5070274, 57.1790757 ], [ 18.5088416, 57.1798529 ], [ 18.5098158, 57.1798314 ], [ 18.5099703, 57.1787277 ], [ 18.5125399, 57.1813445 ], [ 18.5173356, 57.182426 ], [ 18.5172917, 57.1833796 ], [ 18.518658, 57.1831467 ], [ 18.5211675, 57.1848899 ], [ 18.5231979, 57.1851818 ], [ 18.5235675, 57.1844998 ], [ 18.5252154, 57.185903 ], [ 18.5308655, 57.1873644 ], [ 18.532363, 57.1863725 ], [ 18.5336413, 57.1878751 ], [ 18.5332833, 57.1882844 ], [ 18.5344047, 57.1881053 ], [ 18.5333061, 57.1884004 ], [ 18.5340673, 57.1892428 ], [ 18.5363254, 57.1887752 ], [ 18.5366579, 57.1894057 ], [ 18.5455836, 57.1908732 ], [ 18.5458279, 57.1918914 ], [ 18.5487357, 57.1925597 ], [ 18.5496981, 57.1936292 ], [ 18.5506369, 57.1936196 ], [ 18.5503367, 57.1925913 ], [ 18.5469566, 57.1910361 ], [ 18.5518533, 57.1921394 ], [ 18.5540696, 57.191836 ], [ 18.5543818, 57.1909377 ], [ 18.5562963, 57.1916225 ], [ 18.5558726, 57.1924433 ], [ 18.556453, 57.1930246 ], [ 18.5652115, 57.1953592 ], [ 18.5668929, 57.1947554 ], [ 18.5671263, 57.196021 ], [ 18.5751319, 57.1990813 ], [ 18.5772656, 57.2026447 ], [ 18.5796332, 57.2038896 ], [ 18.576561, 57.2030874 ], [ 18.5753899, 57.2017815 ], [ 18.5701937, 57.2006076 ], [ 18.5593765, 57.1999748 ], [ 18.5542856, 57.2010048 ], [ 18.5548422, 57.2014786 ], [ 18.5511026, 57.2002887 ], [ 18.5453273, 57.2020796 ], [ 18.545374, 57.203744 ], [ 18.5467033, 57.205352 ], [ 18.5464399, 57.2074942 ], [ 18.5488088, 57.209459 ], [ 18.5508189, 57.2127115 ], [ 18.5523112, 57.2123252 ], [ 18.55425, 57.2086017 ], [ 18.5561602, 57.2087015 ], [ 18.5570853, 57.2101002 ], [ 18.5603335, 57.2108227 ], [ 18.5610182, 57.2122331 ], [ 18.5642404, 57.2135747 ], [ 18.566619, 57.2160853 ], [ 18.5719501, 57.2177213 ], [ 18.5714637, 57.2182567 ], [ 18.5721794, 57.2177057 ], [ 18.5723278, 57.2185195 ], [ 18.5739543, 57.2192986 ], [ 18.5788391, 57.2198444 ], [ 18.5828713, 57.2192275 ], [ 18.5838312, 57.2181399 ], [ 18.5892627, 57.2181304 ], [ 18.5901993, 57.2175189 ], [ 18.5911652, 57.2170277 ], [ 18.5916775, 57.2168713 ], [ 18.591133, 57.2171754 ], [ 18.5934693, 57.2173589 ], [ 18.5919759, 57.2176383 ], [ 18.5931781, 57.2175968 ], [ 18.5930189, 57.2181909 ], [ 18.5934861, 57.2181644 ], [ 18.5934932, 57.217501 ], [ 18.5936253, 57.2174539 ], [ 18.593552, 57.2181638 ], [ 18.5933564, 57.2183723 ], [ 18.5939823, 57.2186166 ], [ 18.6033793, 57.2197011 ], [ 18.6071919, 57.220866 ], [ 18.6069006, 57.2214573 ], [ 18.6085824, 57.2220974 ], [ 18.6131271, 57.2223422 ], [ 18.6209849, 57.2205851 ], [ 18.6281958, 57.2210736 ], [ 18.6306902, 57.2227973 ], [ 18.6363352, 57.2235468 ], [ 18.640689, 57.2226306 ], [ 18.6422699, 57.2202276 ], [ 18.6426165, 57.2190855 ], [ 18.6420274, 57.2190319 ], [ 18.6432368, 57.2181394 ], [ 18.6445682, 57.2190186 ], [ 18.6491942, 57.2195969 ], [ 18.651193, 57.2212316 ], [ 18.6592933, 57.2243545 ], [ 18.6650367, 57.2243279 ], [ 18.6663759, 57.2246563 ], [ 18.6616027, 57.2253076 ], [ 18.6665937, 57.2250867 ], [ 18.6618977, 57.225857 ], [ 18.6618323, 57.2266881 ], [ 18.6643176, 57.2288287 ], [ 18.6646368, 57.2306606 ], [ 18.6691673, 57.2316563 ], [ 18.6767266, 57.2302541 ], [ 18.6769074, 57.2259235 ], [ 18.6796202, 57.2257536 ], [ 18.6828806, 57.2237551 ], [ 18.6828742, 57.2227317 ], [ 18.6792913, 57.2210553 ], [ 18.6784834, 57.2190708 ], [ 18.6789829, 57.2174713 ], [ 18.6844857, 57.2175622 ], [ 18.6876711, 57.2184855 ], [ 18.6892756, 57.2199264 ], [ 18.6893973, 57.2239424 ], [ 18.691314, 57.2251115 ], [ 18.6939158, 57.2249335 ], [ 18.694633, 57.2237736 ], [ 18.6969118, 57.2228446 ], [ 18.6969032, 57.2237751 ], [ 18.7016674, 57.2277956 ], [ 18.7022607, 57.2297315 ], [ 18.7012645, 57.2313418 ], [ 18.7025965, 57.2324561 ], [ 18.7021995, 57.2328852 ], [ 18.7056553, 57.2343537 ], [ 18.6993988, 57.2336802 ], [ 18.6954253, 57.2320967 ], [ 18.6918588, 57.232503 ], [ 18.6921327, 57.2339577 ], [ 18.6908178, 57.2345172 ], [ 18.6825325, 57.2343877 ], [ 18.67614, 57.2377485 ], [ 18.673432, 57.2375103 ], [ 18.6673957, 57.2389349 ], [ 18.6666659, 57.2395947 ], [ 18.6675347, 57.2408021 ], [ 18.6671186, 57.2425208 ], [ 18.6744939, 57.2448158 ], [ 18.6804213, 57.2440137 ], [ 18.6818048, 57.2447588 ], [ 18.6851413, 57.2438149 ], [ 18.6877003, 57.244934 ], [ 18.6912194, 57.2448028 ], [ 18.6910859, 57.2454546 ], [ 18.6913716, 57.2448243 ], [ 18.6913367, 57.2454148 ], [ 18.6983971, 57.2457838 ], [ 18.6997812, 57.2453211 ], [ 18.6995865, 57.2445354 ], [ 18.7022575, 57.2439541 ], [ 18.7031371, 57.2424473 ], [ 18.7081567, 57.2429767 ], [ 18.7101466, 57.2443583 ], [ 18.7124949, 57.2447026 ], [ 18.7093532, 57.2492506 ], [ 18.7098167, 57.2498619 ], [ 18.7082055, 57.2500786 ], [ 18.7099036, 57.2500601 ], [ 18.7087235, 57.2504901 ], [ 18.7122492, 57.2564581 ], [ 18.709913, 57.258638 ], [ 18.7096199, 57.2598828 ], [ 18.7106056, 57.261415 ], [ 18.7151036, 57.2631506 ], [ 18.7180849, 57.265441 ], [ 18.7170498, 57.2658785 ], [ 18.7181791, 57.2655832 ], [ 18.7141681, 57.2690123 ], [ 18.7134088, 57.2723972 ], [ 18.711484, 57.2750508 ], [ 18.7092483, 57.2761881 ], [ 18.7079583, 57.2765381 ], [ 18.7015293, 57.2750747 ], [ 18.6941612, 57.2751403 ], [ 18.689263, 57.2731454 ], [ 18.6842191, 57.2727839 ], [ 18.6834209, 57.274427 ], [ 18.6839528, 57.2749191 ], [ 18.6810565, 57.2750512 ], [ 18.6798192, 57.2757169 ], [ 18.6808006, 57.2762044 ], [ 18.6774656, 57.2771568 ], [ 18.6781527, 57.2777482 ], [ 18.6747589, 57.2786954 ], [ 18.6753244, 57.2793428 ], [ 18.6735608, 57.2806985 ], [ 18.6716538, 57.2807228 ], [ 18.6717782, 57.2827613 ], [ 18.6695716, 57.2824131 ], [ 18.6665632, 57.2832282 ], [ 18.6662102, 57.2852152 ], [ 18.6653763, 57.2853296 ], [ 18.6656877, 57.2862875 ], [ 18.6637225, 57.2885079 ], [ 18.6635685, 57.2907862 ], [ 18.6647465, 57.2925549 ], [ 18.6627939, 57.2928335 ], [ 18.6612586, 57.2940252 ], [ 18.6640304, 57.2949099 ], [ 18.6630803, 57.2963228 ], [ 18.6639912, 57.2980433 ], [ 18.6635449, 57.2997091 ], [ 18.6664036, 57.3041061 ], [ 18.6680687, 57.3060421 ], [ 18.6695249, 57.3061706 ], [ 18.6684847, 57.3066609 ], [ 18.6696866, 57.3061974 ], [ 18.6695128, 57.3068007 ], [ 18.6712407, 57.3081987 ], [ 18.6731102, 57.3088593 ], [ 18.6732969, 57.3104691 ], [ 18.6752796, 57.312515 ], [ 18.6790969, 57.3128919 ], [ 18.681939, 57.3143784 ], [ 18.6835148, 57.316903 ], [ 18.6842899, 57.3169223 ], [ 18.6832311, 57.3171155 ], [ 18.6835978, 57.3180419 ], [ 18.685356, 57.3194059 ], [ 18.6873666, 57.3193235 ], [ 18.691697, 57.3210011 ], [ 18.7001779, 57.3214981 ], [ 18.7041306, 57.3227808 ], [ 18.7085962, 57.3219601 ], [ 18.7074469, 57.322482 ], [ 18.7095307, 57.3230692 ], [ 18.7104124, 57.3225029 ], [ 18.7088449, 57.3218105 ], [ 18.712207, 57.3229721 ], [ 18.7144958, 57.322312 ], [ 18.7147887, 57.3230471 ], [ 18.7155622, 57.3221753 ], [ 18.7163795, 57.3249497 ], [ 18.7156035, 57.3270864 ], [ 18.7146189, 57.3284055 ], [ 18.712376, 57.3293473 ], [ 18.7159879, 57.3362279 ], [ 18.718098, 57.3369458 ], [ 18.7174371, 57.3376337 ], [ 18.7183037, 57.3389467 ], [ 18.7204017, 57.339518 ], [ 18.7203159, 57.3407136 ], [ 18.7222361, 57.3420218 ], [ 18.7252879, 57.3418583 ], [ 18.7255542, 57.3427514 ], [ 18.7279905, 57.3430943 ], [ 18.7310147, 57.3451561 ], [ 18.7389057, 57.3468329 ], [ 18.7397761, 57.347818 ], [ 18.7392032, 57.3491571 ], [ 18.741298, 57.3503411 ], [ 18.7415284, 57.352306 ], [ 18.7445572, 57.3549989 ], [ 18.7458629, 57.3578649 ], [ 18.7551892, 57.363188 ], [ 18.7776846, 57.3710003 ], [ 18.7827682, 57.3713403 ], [ 18.7919158, 57.3739836 ], [ 18.8033044, 57.3736411 ], [ 18.8059771, 57.3718178 ], [ 18.8047639, 57.3703019 ], [ 18.803448, 57.3705003 ], [ 18.8059663, 57.3697471 ], [ 18.8107136, 57.3719292 ], [ 18.8132831, 57.3742387 ], [ 18.8164082, 57.3772139 ], [ 18.8170382, 57.3783033 ], [ 18.8165442, 57.3796882 ], [ 18.8174376, 57.3805772 ], [ 18.8236544, 57.3825363 ], [ 18.8297374, 57.3832469 ], [ 18.8335971, 57.38285 ], [ 18.834411, 57.3822131 ], [ 18.8336486, 57.3819991 ], [ 18.8346156, 57.3817924 ], [ 18.8334366, 57.3816147 ], [ 18.836624, 57.3810993 ], [ 18.8371385, 57.3819628 ], [ 18.8430389, 57.3837803 ], [ 18.8466364, 57.3926614 ], [ 18.8492843, 57.3955015 ], [ 18.8632454, 57.397815 ], [ 18.8667135, 57.3991847 ], [ 18.8767325, 57.3971038 ], [ 18.881495, 57.3946405 ], [ 18.8825047, 57.3929529 ], [ 18.8823518, 57.3906475 ], [ 18.8771621, 57.3897164 ], [ 18.875998, 57.3902399 ], [ 18.8766139, 57.3897398 ], [ 18.8758076, 57.3895324 ], [ 18.8750652, 57.390258 ], [ 18.8756491, 57.3893692 ], [ 18.8746336, 57.387261 ], [ 18.8824434, 57.3824546 ], [ 18.8850695, 57.3823283 ], [ 18.8913815, 57.3874431 ], [ 18.8922216, 57.392273 ], [ 18.8935643, 57.3934384 ], [ 18.8965662, 57.3935615 ], [ 18.8979492, 57.3948278 ], [ 18.9076973, 57.3973465 ], [ 18.9114495, 57.4007225 ], [ 18.9178815, 57.4032536 ], [ 18.9186797, 57.4058881 ], [ 18.9220834, 57.4086627 ], [ 18.9230418, 57.4112269 ], [ 18.9224318, 57.4129768 ], [ 18.9247675, 57.4150487 ], [ 18.925246, 57.4176454 ], [ 18.9298363, 57.4203658 ], [ 18.9306949, 57.4218336 ], [ 18.9282959, 57.4225205 ], [ 18.9265721, 57.4242134 ], [ 18.9214689, 57.424759 ], [ 18.9173254, 57.4229643 ], [ 18.9162941, 57.4234136 ], [ 18.9172616, 57.4229123 ], [ 18.9166373, 57.4222929 ], [ 18.9153061, 57.4223149 ], [ 18.916064, 57.4221402 ], [ 18.9152482, 57.4212641 ], [ 18.9137855, 57.4214305 ], [ 18.9143951, 57.4219188 ], [ 18.9132124, 57.4218824 ], [ 18.9147859, 57.4221465 ], [ 18.9137057, 57.4223912 ], [ 18.9153073, 57.4225682 ], [ 18.9128602, 57.4223454 ], [ 18.9135333, 57.4234672 ], [ 18.9130251, 57.4238325 ], [ 18.9159692, 57.4239481 ], [ 18.9133381, 57.4239689 ], [ 18.9137289, 57.4248762 ], [ 18.9115522, 57.426094 ], [ 18.9113567, 57.4270319 ], [ 18.9024585, 57.4308007 ], [ 18.900906, 57.4341522 ], [ 18.8983518, 57.4360066 ], [ 18.8989394, 57.4376516 ], [ 18.9018753, 57.438484 ], [ 18.8988058, 57.4377037 ], [ 18.8989597, 57.4384889 ], [ 18.8980047, 57.4377031 ], [ 18.896144, 57.4380235 ], [ 18.8957473, 57.4407716 ], [ 18.893932, 57.4420644 ], [ 18.8931088, 57.4440576 ], [ 18.8862499, 57.4446643 ], [ 18.8835505, 57.443826 ], [ 18.8836452, 57.4429179 ], [ 18.8821231, 57.4420468 ], [ 18.8818052, 57.4447369 ], [ 18.8824033, 57.4449725 ], [ 18.8810681, 57.445047 ], [ 18.8799285, 57.4466437 ], [ 18.8745072, 57.4465379 ], [ 18.8713685, 57.4453812 ], [ 18.869289, 57.4432578 ], [ 18.8664246, 57.4419795 ], [ 18.867023, 57.4383095 ], [ 18.8649306, 57.4356638 ], [ 18.8582616, 57.4353326 ], [ 18.8565627, 57.4344444 ], [ 18.8542973, 57.4348362 ], [ 18.8526807, 57.4372794 ], [ 18.8531466, 57.4377368 ], [ 18.8524715, 57.4372187 ], [ 18.8529994, 57.436374 ], [ 18.8505443, 57.4357699 ], [ 18.8514981, 57.4353319 ], [ 18.8506414, 57.4355639 ], [ 18.850947, 57.43485 ], [ 18.8478046, 57.4349742 ], [ 18.8474596, 57.4357048 ], [ 18.8488892, 57.4360438 ], [ 18.848282, 57.437427 ], [ 18.8488989, 57.4378351 ], [ 18.8475554, 57.4381757 ], [ 18.8472212, 57.4395234 ], [ 18.8427322, 57.4398534 ], [ 18.8414104, 57.4417929 ], [ 18.8393457, 57.4402374 ], [ 18.8331433, 57.4402258 ], [ 18.8301183, 57.4412348 ], [ 18.8293113, 57.4417393 ], [ 18.8294859, 57.4430639 ], [ 18.8271529, 57.4443924 ], [ 18.8302369, 57.4461178 ], [ 18.8275359, 57.4467519 ], [ 18.8268702, 57.4463374 ], [ 18.827751, 57.4452757 ], [ 18.8255693, 57.4432089 ], [ 18.8245828, 57.4428304 ], [ 18.8224891, 57.4436598 ], [ 18.8213583, 57.4427908 ], [ 18.8219617, 57.4420596 ], [ 18.8202972, 57.4407504 ], [ 18.8187522, 57.4417897 ], [ 18.8193981, 57.4404989 ], [ 18.8175175, 57.4388956 ], [ 18.8120488, 57.4388599 ], [ 18.8113992, 57.4400725 ], [ 18.8119292, 57.4412677 ], [ 18.8093532, 57.441419 ], [ 18.8042061, 57.4442077 ], [ 18.8047581, 57.4450849 ], [ 18.8038767, 57.4453384 ], [ 18.8040135, 57.4462058 ], [ 18.8022191, 57.4458886 ], [ 18.7995782, 57.4470175 ], [ 18.8009627, 57.4486411 ], [ 18.7999419, 57.4493451 ], [ 18.8002938, 57.4509634 ], [ 18.7980021, 57.4514546 ], [ 18.7986432, 57.451906 ], [ 18.795536, 57.4520666 ], [ 18.7960108, 57.4518444 ], [ 18.7950761, 57.450949 ], [ 18.7901744, 57.4493851 ], [ 18.7874243, 57.4508022 ], [ 18.7863007, 57.449677 ], [ 18.7856814, 57.4495308 ], [ 18.7863836, 57.4514354 ], [ 18.7854985, 57.4525425 ], [ 18.7861537, 57.4543592 ], [ 18.7907529, 57.4582465 ], [ 18.7942864, 57.459417 ], [ 18.7959534, 57.4612517 ], [ 18.7973444, 57.4615011 ], [ 18.7985611, 57.4631848 ], [ 18.7965866, 57.4630944 ], [ 18.7971337, 57.464384 ], [ 18.7988862, 57.4653592 ], [ 18.8002695, 57.4649978 ], [ 18.8034237, 57.4678511 ], [ 18.80226, 57.4696721 ], [ 18.7977272, 57.4693751 ], [ 18.795697, 57.4710685 ], [ 18.794107, 57.4705892 ], [ 18.795951, 57.4724788 ], [ 18.7945201, 57.4723467 ], [ 18.7944727, 57.4729893 ], [ 18.7955782, 57.4732621 ], [ 18.7934139, 57.4747342 ], [ 18.781287, 57.4716555 ], [ 18.7789596, 57.4697951 ], [ 18.7733736, 57.4682523 ], [ 18.7714148, 57.4687196 ], [ 18.7675978, 57.4679055 ], [ 18.7632748, 57.4698526 ], [ 18.7609365, 57.4691036 ], [ 18.762504, 57.4703495 ], [ 18.7626783, 57.4726263 ], [ 18.764694, 57.4748455 ], [ 18.7643129, 57.4756747 ], [ 18.7653316, 57.4763577 ], [ 18.7657401, 57.4780394 ], [ 18.76706, 57.4781516 ], [ 18.7663881, 57.4792418 ], [ 18.7682511, 57.4830861 ], [ 18.7719435, 57.4838147 ], [ 18.7783314, 57.482631 ], [ 18.7766322, 57.4831114 ], [ 18.7766202, 57.4837721 ], [ 18.7801757, 57.4850389 ], [ 18.7817688, 57.4846148 ], [ 18.7812762, 57.4857782 ], [ 18.7831473, 57.4861775 ], [ 18.7838923, 57.4884266 ], [ 18.7852574, 57.4887313 ], [ 18.7790138, 57.487911 ], [ 18.779035, 57.4885596 ], [ 18.7779165, 57.4887203 ], [ 18.779101, 57.4893847 ], [ 18.7787236, 57.4898365 ], [ 18.7768557, 57.489903 ], [ 18.7768637, 57.4906297 ], [ 18.775587, 57.4910741 ], [ 18.772076, 57.4907022 ], [ 18.7731644, 57.4918489 ], [ 18.77119, 57.4915421 ], [ 18.768786, 57.4923051 ], [ 18.7680875, 57.4932664 ], [ 18.7696505, 57.4946994 ], [ 18.7680339, 57.4947894 ], [ 18.7674331, 57.4961435 ], [ 18.7681567, 57.4993993 ], [ 18.7688487, 57.4997965 ], [ 18.7682495, 57.5015313 ], [ 18.7649971, 57.5022769 ], [ 18.7615915, 57.504471 ], [ 18.7597716, 57.50445 ], [ 18.7592078, 57.5051171 ], [ 18.7599395, 57.5051508 ], [ 18.7576591, 57.5060595 ], [ 18.7576816, 57.5069585 ], [ 18.7555418, 57.5071292 ], [ 18.7555013, 57.5084198 ], [ 18.7523845, 57.5087523 ], [ 18.751346, 57.5094799 ], [ 18.7518688, 57.5099108 ], [ 18.7503198, 57.5104711 ], [ 18.7517363, 57.5110536 ], [ 18.751711, 57.5120248 ], [ 18.7549836, 57.5117835 ], [ 18.7545459, 57.5108672 ], [ 18.7582643, 57.512549 ], [ 18.7527136, 57.5136954 ], [ 18.7544297, 57.5148664 ], [ 18.7573507, 57.5147195 ], [ 18.7568955, 57.5154193 ], [ 18.75903, 57.5159065 ], [ 18.760119, 57.5183428 ], [ 18.7677866, 57.5223252 ], [ 18.7653501, 57.5230423 ], [ 18.7658391, 57.5242437 ], [ 18.7645765, 57.524523 ], [ 18.7650591, 57.5251438 ], [ 18.7681581, 57.5252289 ], [ 18.7668242, 57.526003 ], [ 18.7694694, 57.5274903 ], [ 18.7732175, 57.5266449 ], [ 18.7788751, 57.5284264 ], [ 18.7827152, 57.527729 ], [ 18.781416, 57.5287187 ], [ 18.7816495, 57.5295317 ], [ 18.7851224, 57.5313399 ], [ 18.7846941, 57.532267 ], [ 18.7828168, 57.5326641 ], [ 18.7840771, 57.5346886 ], [ 18.7832875, 57.5350752 ], [ 18.7843223, 57.5362011 ], [ 18.7854598, 57.5366555 ], [ 18.7856071, 57.5358551 ], [ 18.7870936, 57.5355437 ], [ 18.7862999, 57.5372308 ], [ 18.7890779, 57.5378633 ], [ 18.7881919, 57.5381974 ], [ 18.789177, 57.5379852 ], [ 18.7895639, 57.5387077 ], [ 18.7928331, 57.5386041 ], [ 18.7956321, 57.5402547 ], [ 18.7953631, 57.5412143 ], [ 18.7969606, 57.5406241 ], [ 18.7996171, 57.5414312 ], [ 18.801934, 57.5410912 ], [ 18.80114, 57.5421052 ], [ 18.8016035, 57.543193 ], [ 18.8024449, 57.5432405 ], [ 18.8009933, 57.5448719 ], [ 18.7989065, 57.5453094 ], [ 18.7978849, 57.5467696 ], [ 18.7952614, 57.5463016 ], [ 18.7940316, 57.5479545 ], [ 18.794093, 57.5494584 ], [ 18.7913521, 57.5500392 ], [ 18.7905517, 57.551005 ], [ 18.7924786, 57.553046 ], [ 18.7958933, 57.5536817 ], [ 18.7959764, 57.5550538 ], [ 18.7992645, 57.5555887 ], [ 18.7988984, 57.5552344 ], [ 18.8023459, 57.5542609 ], [ 18.8019423, 57.5523315 ], [ 18.802843, 57.5516128 ], [ 18.8022695, 57.5510737 ], [ 18.8046095, 57.5524918 ], [ 18.8058709, 57.5522988 ], [ 18.806457, 57.5532007 ], [ 18.8091153, 57.5531525 ], [ 18.8130303, 57.5560271 ], [ 18.8140787, 57.558152 ], [ 18.8132774, 57.5586528 ], [ 18.8154454, 57.5605402 ], [ 18.812171, 57.5607671 ], [ 18.8107714, 57.5617947 ], [ 18.807994, 57.5606916 ], [ 18.8037188, 57.5598918 ], [ 18.8025942, 57.5601519 ], [ 18.8044342, 57.5609215 ], [ 18.8037126, 57.5609776 ], [ 18.803932, 57.5623942 ], [ 18.8031665, 57.5630686 ], [ 18.8058659, 57.5640627 ], [ 18.8039835, 57.5640109 ], [ 18.8051026, 57.565132 ], [ 18.8023152, 57.5653323 ], [ 18.8015218, 57.5673239 ], [ 18.7998629, 57.5678444 ], [ 18.8005248, 57.5694535 ], [ 18.7996424, 57.5706038 ], [ 18.7998559, 57.5716552 ], [ 18.7990266, 57.5718811 ], [ 18.7995904, 57.5722933 ], [ 18.7986143, 57.5729346 ], [ 18.8007587, 57.57461 ], [ 18.7994933, 57.5747034 ], [ 18.7997175, 57.5761447 ], [ 18.7961268, 57.5767406 ], [ 18.7955045, 57.5779141 ], [ 18.7971852, 57.5791386 ], [ 18.7964449, 57.5794953 ], [ 18.7973274, 57.5805119 ], [ 18.7991706, 57.5813008 ], [ 18.7990542, 57.5824577 ], [ 18.8004937, 57.5845839 ], [ 18.8017021, 57.58494 ], [ 18.8035104, 57.5847944 ], [ 18.8039787, 57.5848691 ], [ 18.8019346, 57.5849699 ], [ 18.8038002, 57.5850884 ], [ 18.8023683, 57.5857411 ], [ 18.8045679, 57.5849707 ], [ 18.8039847, 57.5856545 ], [ 18.8003373, 57.5859833 ], [ 18.7974609, 57.5879351 ], [ 18.7982086, 57.5885962 ], [ 18.7980926, 57.5901679 ], [ 18.8006938, 57.5910187 ], [ 18.8008478, 57.5923941 ], [ 18.8030528, 57.5925187 ], [ 18.8032698, 57.5943598 ], [ 18.8077604, 57.5984907 ], [ 18.8059558, 57.5990389 ], [ 18.8088622, 57.5990116 ], [ 18.8076356, 57.6029894 ], [ 18.8042834, 57.6062192 ], [ 18.7979805, 57.6093706 ], [ 18.7839448, 57.6117235 ], [ 18.7781675, 57.6111853 ], [ 18.7758541, 57.6120457 ], [ 18.7717294, 57.611373 ], [ 18.7673027, 57.6132497 ], [ 18.7641415, 57.6162998 ], [ 18.7652326, 57.6218807 ], [ 18.7671429, 57.6242583 ], [ 18.7688847, 57.6250443 ], [ 18.7680682, 57.6264328 ], [ 18.771973, 57.6288022 ], [ 18.7742008, 57.6279656 ], [ 18.7763334, 57.6302202 ], [ 18.7761859, 57.632457 ], [ 18.7752152, 57.6331683 ], [ 18.7726448, 57.6325993 ], [ 18.7708011, 57.6348351 ], [ 18.7726008, 57.6460813 ], [ 18.7735796, 57.6478089 ], [ 18.7763854, 57.6492533 ], [ 18.7797851, 57.648254 ], [ 18.7807953, 57.6499822 ], [ 18.7818421, 57.6499853 ], [ 18.7810994, 57.6503839 ], [ 18.7839242, 57.6512938 ], [ 18.7863382, 57.6539349 ], [ 18.7903001, 57.6533977 ], [ 18.7917968, 57.6519867 ], [ 18.7948008, 57.6532723 ], [ 18.7977378, 57.6521093 ], [ 18.7976853, 57.656029 ], [ 18.7989463, 57.6564596 ], [ 18.8012172, 57.6613653 ], [ 18.8032514, 57.6620784 ], [ 18.8025197, 57.6620549 ], [ 18.8032605, 57.6624055 ], [ 18.8030797, 57.6645248 ], [ 18.8044449, 57.6661891 ], [ 18.8005724, 57.6691883 ], [ 18.7979658, 57.6701935 ], [ 18.7981434, 57.6708864 ], [ 18.798888, 57.6721704 ], [ 18.7999281, 57.6722467 ], [ 18.7992528, 57.6726123 ], [ 18.8022335, 57.6738534 ], [ 18.8061565, 57.6775502 ], [ 18.8066672, 57.6793612 ], [ 18.8060956, 57.6829121 ], [ 18.8028748, 57.69069 ], [ 18.8000628, 57.69325 ], [ 18.8010627, 57.6940912 ], [ 18.7994233, 57.6949597 ], [ 18.7981144, 57.69494 ], [ 18.7985301, 57.6945744 ], [ 18.7974063, 57.6938864 ], [ 18.7956467, 57.6949471 ], [ 18.7949762, 57.6934391 ], [ 18.7905076, 57.6925088 ], [ 18.7890351, 57.6897433 ], [ 18.7878737, 57.6929919 ], [ 18.7877181, 57.6895598 ], [ 18.7863395, 57.6902351 ], [ 18.7855294, 57.6925131 ], [ 18.7847462, 57.6896473 ], [ 18.7791002, 57.6870222 ], [ 18.7748355, 57.6876602 ], [ 18.7726951, 57.6888229 ], [ 18.7719548, 57.6920113 ], [ 18.7707639, 57.6930105 ], [ 18.7713888, 57.693214 ], [ 18.7705466, 57.6933259 ], [ 18.7698948, 57.6946504 ], [ 18.7700987, 57.6956796 ], [ 18.7732744, 57.6989333 ], [ 18.7763187, 57.6997875 ], [ 18.7762812, 57.702492 ], [ 18.7784484, 57.7042132 ], [ 18.7835607, 57.7027399 ], [ 18.7860927, 57.7000384 ], [ 18.7874526, 57.700047 ], [ 18.7878603, 57.7022197 ], [ 18.7892336, 57.7018929 ], [ 18.7896252, 57.7038592 ], [ 18.7932193, 57.701817 ], [ 18.7940615, 57.7020706 ], [ 18.792927, 57.701119 ], [ 18.7939489, 57.7002877 ], [ 18.7956119, 57.6950718 ], [ 18.7960893, 57.6966285 ], [ 18.7984872, 57.6952008 ], [ 18.7979051, 57.695046 ], [ 18.799345, 57.6950654 ], [ 18.7987159, 57.6952242 ], [ 18.800831, 57.6960083 ], [ 18.801989, 57.6988318 ], [ 18.8016584, 57.7005398 ], [ 18.8026653, 57.7019786 ], [ 18.8061584, 57.7024435 ], [ 18.8078114, 57.701281 ], [ 18.8096478, 57.70148 ], [ 18.8098496, 57.7041203 ], [ 18.8115617, 57.7056327 ], [ 18.8114651, 57.7068903 ], [ 18.8102404, 57.7058321 ], [ 18.809251, 57.7066388 ], [ 18.8096318, 57.7060098 ], [ 18.808188, 57.7058468 ], [ 18.8088368, 57.7065399 ], [ 18.8077426, 57.7068592 ], [ 18.8113523, 57.7076002 ], [ 18.8086449, 57.7075242 ], [ 18.8073809, 57.7119991 ], [ 18.8097842, 57.7117119 ], [ 18.8072826, 57.7124183 ], [ 18.8091399, 57.7126266 ], [ 18.8069617, 57.7124746 ], [ 18.8053952, 57.7162463 ], [ 18.8021105, 57.7175062 ], [ 18.8042512, 57.7184699 ], [ 18.8087189, 57.7180478 ], [ 18.8077335, 57.7154221 ], [ 18.8104451, 57.7205603 ], [ 18.8094431, 57.7207341 ], [ 18.8099556, 57.7202994 ], [ 18.8089275, 57.7183886 ], [ 18.8038149, 57.7187008 ], [ 18.8014904, 57.7181093 ], [ 18.799709, 57.7224694 ], [ 18.7997962, 57.7262713 ], [ 18.8006287, 57.7269611 ], [ 18.8106491, 57.7260817 ], [ 18.8126496, 57.7267057 ], [ 18.8121011, 57.7272457 ], [ 18.8112267, 57.7264501 ], [ 18.8080375, 57.7265329 ], [ 18.8055318, 57.7276843 ], [ 18.8056357, 57.7287821 ], [ 18.8033162, 57.7304018 ], [ 18.8011986, 57.730636 ], [ 18.8028725, 57.7341996 ], [ 18.8023128, 57.7380278 ], [ 18.8032488, 57.7388691 ], [ 18.8024332, 57.7394091 ], [ 18.8034154, 57.7393335 ], [ 18.8081377, 57.7422284 ], [ 18.8101218, 57.7396567 ], [ 18.81177, 57.7415486 ], [ 18.8115476, 57.7450298 ], [ 18.8131647, 57.7456739 ], [ 18.8130368, 57.7479591 ], [ 18.8137017, 57.7474626 ], [ 18.8172095, 57.7484038 ], [ 18.8194966, 57.7476437 ], [ 18.8217853, 57.7455356 ], [ 18.8225578, 57.7420614 ], [ 18.8231921, 57.742662 ], [ 18.8230637, 57.7449287 ], [ 18.8239069, 57.7456466 ], [ 18.8252845, 57.7446992 ], [ 18.824464, 57.7433392 ], [ 18.8274708, 57.7437006 ], [ 18.8295989, 57.742965 ], [ 18.8277524, 57.7428673 ], [ 18.8292529, 57.7422868 ], [ 18.8295425, 57.7399331 ], [ 18.8315292, 57.7378584 ], [ 18.8313131, 57.7370568 ], [ 18.8336222, 57.736332 ], [ 18.8355919, 57.7323345 ], [ 18.8358338, 57.7312791 ], [ 18.8351374, 57.7307988 ], [ 18.8361025, 57.7308439 ], [ 18.8369146, 57.7289378 ], [ 18.8385459, 57.7294236 ], [ 18.8439827, 57.7273864 ], [ 18.8481981, 57.7272077 ], [ 18.8514269, 57.7213373 ], [ 18.8512553, 57.7191033 ], [ 18.8531309, 57.716452 ], [ 18.8518212, 57.7200911 ], [ 18.8536006, 57.7239651 ], [ 18.8572736, 57.7240499 ], [ 18.8656316, 57.7214835 ], [ 18.8685569, 57.7229605 ], [ 18.8703877, 57.7276574 ], [ 18.8727427, 57.7284182 ], [ 18.8738869, 57.7305454 ], [ 18.8727551, 57.7322466 ], [ 18.8739811, 57.7327847 ], [ 18.8741174, 57.7349603 ], [ 18.8774228, 57.7361837 ], [ 18.8821545, 57.735339 ], [ 18.8835059, 57.7340182 ], [ 18.8832473, 57.7320171 ], [ 18.8841579, 57.7310144 ], [ 18.8897321, 57.7281557 ], [ 18.8895191, 57.7266198 ], [ 18.8933843, 57.7236011 ], [ 18.8927712, 57.7220195 ], [ 18.8955576, 57.7175604 ], [ 18.8974464, 57.7154413 ], [ 18.9002767, 57.7139128 ], [ 18.9076573, 57.7149035 ], [ 18.9114741, 57.7138502 ], [ 18.9125488, 57.7177496 ], [ 18.9106233, 57.7190351 ], [ 18.9088756, 57.719175 ], [ 18.9127513, 57.7237019 ], [ 18.9118029, 57.7255111 ], [ 18.9160641, 57.7297198 ], [ 18.9200856, 57.731101 ], [ 18.9253765, 57.7309288 ], [ 18.931161, 57.7331006 ], [ 18.9359155, 57.7308002 ], [ 18.9366681, 57.7272406 ], [ 18.940346, 57.7257425 ], [ 18.9431977, 57.722961 ], [ 18.9455178, 57.7232469 ], [ 18.9550606, 57.7279323 ], [ 18.9589712, 57.7277066 ], [ 18.9597346, 57.7282591 ], [ 18.957856, 57.7294106 ], [ 18.9559634, 57.7293195 ], [ 18.9574006, 57.7287059 ], [ 18.9548926, 57.7290113 ], [ 18.9547494, 57.733053 ], [ 18.9580115, 57.7361258 ], [ 18.9568287, 57.7367143 ], [ 18.956053, 57.7394566 ], [ 18.9537001, 57.7392545 ], [ 18.9537962, 57.7383711 ], [ 18.9524953, 57.7380667 ], [ 18.9497675, 57.7407028 ], [ 18.9499585, 57.7428158 ], [ 18.951269, 57.7439192 ], [ 18.9496645, 57.7444426 ], [ 18.9502235, 57.7463679 ], [ 18.9490653, 57.750452 ], [ 18.9502487, 57.7532932 ], [ 18.9491415, 57.7533368 ], [ 18.9499973, 57.7546087 ], [ 18.9495436, 57.7549395 ], [ 18.9504505, 57.754876 ], [ 18.9493798, 57.7551869 ], [ 18.949014, 57.7563033 ], [ 18.9499745, 57.7569336 ], [ 18.9532159, 57.7566043 ], [ 18.9528428, 57.757565 ], [ 18.9542344, 57.7600298 ], [ 18.9543138, 57.7624178 ], [ 18.9511595, 57.7667339 ], [ 18.9511295, 57.7705889 ], [ 18.950415, 57.7711022 ], [ 18.9499928, 57.7769627 ], [ 18.9490433, 57.7787962 ], [ 18.9491613, 57.7846298 ], [ 18.9498909, 57.7854048 ], [ 18.9508473, 57.784989 ], [ 18.9507159, 57.7857971 ], [ 18.9482381, 57.7873044 ], [ 18.9501065, 57.7865281 ], [ 18.9494708, 57.7876133 ], [ 18.9503538, 57.7888534 ], [ 18.9545037, 57.7892166 ], [ 18.958821, 57.7859355 ], [ 18.9643555, 57.7797032 ], [ 18.9656553, 57.7802437 ], [ 18.9749502, 57.7747962 ], [ 18.9765161, 57.7764942 ], [ 18.9779371, 57.7765182 ], [ 18.978391, 57.771021 ], [ 18.980699, 57.7680721 ], [ 18.981564, 57.7680334 ], [ 18.9821663, 57.7749386 ], [ 18.9816626, 57.7766322 ], [ 18.9832693, 57.7767308 ], [ 18.9828642, 57.7764262 ], [ 18.9839151, 57.7762416 ], [ 18.9857926, 57.7734394 ], [ 18.9873129, 57.7729986 ], [ 18.9906302, 57.7735289 ], [ 18.992302, 57.7759928 ], [ 18.9925405, 57.7804536 ], [ 18.9901635, 57.7865944 ], [ 18.9893288, 57.7961111 ], [ 18.9874116, 57.7986223 ], [ 18.9886851, 57.7990379 ], [ 18.9900047, 57.7982792 ], [ 18.9918769, 57.7949493 ], [ 18.9940495, 57.794238 ], [ 18.9972006, 57.7953272 ], [ 19.0016015, 57.7984033 ], [ 19.0071838, 57.8066669 ], [ 19.0104142, 57.8061593 ], [ 19.0115976, 57.8067109 ], [ 19.0114206, 57.8061193 ], [ 19.0136157, 57.8058986 ], [ 19.0131479, 57.8063548 ], [ 19.0140094, 57.8063811 ], [ 19.0149117, 57.8079352 ], [ 19.0149064, 57.8093842 ], [ 19.0131168, 57.8103953 ], [ 19.0116813, 57.8097003 ], [ 19.009911, 57.8157463 ], [ 19.0111266, 57.81556 ], [ 19.0131812, 57.8130735 ], [ 19.0160726, 57.8134615 ], [ 19.0155834, 57.8152617 ], [ 19.0164674, 57.8201023 ], [ 19.0157185, 57.8259581 ], [ 19.0173558, 57.827881 ], [ 19.0208716, 57.8295822 ], [ 19.0242973, 57.8266836 ], [ 19.0276554, 57.830599 ], [ 19.0296038, 57.8310183 ], [ 19.0303505, 57.8330153 ], [ 19.0322131, 57.8330998 ], [ 19.0366698, 57.835991 ], [ 19.038719, 57.8358522 ], [ 19.0453076, 57.8380334 ], [ 19.0478568, 57.8375845 ], [ 19.0511012, 57.8353314 ], [ 19.051687, 57.8317997 ], [ 19.0553401, 57.829292 ], [ 19.0581286, 57.8261375 ], [ 19.0618711, 57.8300159 ], [ 19.0652276, 57.8351327 ], [ 19.0696522, 57.8354908 ], [ 19.0784347, 57.8266856 ], [ 19.0788048, 57.8232862 ], [ 19.0802693, 57.8215464 ], [ 19.0769231, 57.8204732 ], [ 19.0821586, 57.8198322 ], [ 19.0846887, 57.8167358 ], [ 19.0874615, 57.8151686 ], [ 19.0929933, 57.8153489 ], [ 19.0979849, 57.816917 ], [ 19.0976132, 57.8200372 ], [ 19.0940539, 57.8239702 ], [ 19.0941778, 57.8273678 ], [ 19.092849, 57.8308907 ], [ 19.0932589, 57.8333415 ], [ 19.0925878, 57.8355482 ], [ 19.0893214, 57.839978 ], [ 19.0875908, 57.8442118 ], [ 19.0820397, 57.846399 ], [ 19.0802518, 57.8477958 ], [ 19.079908, 57.849194 ], [ 19.0692306, 57.8499543 ], [ 19.0677493, 57.8507818 ], [ 19.066766, 57.8517195 ], [ 19.0675889, 57.8520191 ], [ 19.0665401, 57.8519713 ], [ 19.0654007, 57.8536179 ], [ 19.0651379, 57.8543247 ], [ 19.0657545, 57.8543941 ], [ 19.0646993, 57.8559184 ], [ 19.0651804, 57.856413 ], [ 19.0632509, 57.8593643 ], [ 19.0640749, 57.8597506 ], [ 19.062759, 57.8597282 ], [ 19.0610864, 57.8609823 ], [ 19.0604774, 57.8632148 ], [ 19.0582833, 57.864849 ], [ 19.0594688, 57.8659997 ], [ 19.0577281, 57.8668307 ], [ 19.058298, 57.8660895 ], [ 19.0562931, 57.866213 ], [ 19.0578956, 57.8673036 ], [ 19.0586923, 57.8671218 ], [ 19.0593682, 57.8664945 ], [ 19.059807, 57.8663975 ], [ 19.0586357, 57.8672368 ], [ 19.0576915, 57.8673642 ], [ 19.0570829, 57.867227 ], [ 19.0559958, 57.8663029 ], [ 19.0530028, 57.8665558 ], [ 19.0516587, 57.8669909 ], [ 19.0522099, 57.8675435 ], [ 19.051954, 57.8680366 ], [ 19.0514736, 57.8670502 ], [ 19.0506153, 57.8673324 ], [ 19.0514382, 57.8682713 ], [ 19.0505019, 57.8674668 ], [ 19.049426, 57.8675233 ], [ 19.0502696, 57.8684192 ], [ 19.0488818, 57.868068 ], [ 19.0497112, 57.8689309 ], [ 19.0513248, 57.8686654 ], [ 19.0519226, 57.8690144 ], [ 19.0494504, 57.8690472 ], [ 19.0480332, 57.8679143 ], [ 19.0453148, 57.8673657 ], [ 19.0335949, 57.8681689 ], [ 19.0284604, 57.8699441 ], [ 19.0287565, 57.8732398 ], [ 19.0294168, 57.8733494 ], [ 19.0286996, 57.874253 ], [ 19.0319332, 57.8766396 ], [ 19.0304728, 57.8779411 ], [ 19.0303825, 57.8796879 ], [ 19.0282807, 57.8814624 ], [ 19.0251902, 57.88096 ], [ 19.0217063, 57.8827552 ], [ 19.0200098, 57.8824344 ], [ 19.0174995, 57.8863999 ], [ 19.0199028, 57.8888526 ], [ 19.023649, 57.8892843 ], [ 19.0223731, 57.8899851 ], [ 19.0238008, 57.8902658 ], [ 19.0193315, 57.8901085 ], [ 19.0186969, 57.8926324 ], [ 19.0201723, 57.8955334 ], [ 19.0216368, 57.8929335 ], [ 19.0227143, 57.89386 ], [ 19.0223291, 57.8975506 ], [ 19.0233392, 57.8994609 ], [ 19.021864, 57.9015298 ], [ 19.0227068, 57.9021792 ], [ 19.0226081, 57.9040995 ], [ 19.0238314, 57.9049211 ], [ 19.0242217, 57.9068469 ], [ 19.0282013, 57.9077322 ], [ 19.0260559, 57.9087744 ], [ 19.02342, 57.9087076 ], [ 19.022087, 57.9102155 ], [ 19.0228788, 57.9116281 ], [ 19.0217195, 57.913096 ], [ 19.0223106, 57.9136734 ], [ 19.0211251, 57.9143707 ], [ 19.016749, 57.9144733 ], [ 19.0150859, 57.9163384 ], [ 19.0144354, 57.9193653 ], [ 19.0119075, 57.9210418 ], [ 19.0093063, 57.9214797 ], [ 19.0064706, 57.9200153 ], [ 19.0041982, 57.9174385 ], [ 19.0050661, 57.9159604 ], [ 18.9898087, 57.9159067 ], [ 18.9871742, 57.91654 ], [ 18.9854758, 57.9156523 ], [ 18.9835446, 57.9162522 ], [ 18.9777651, 57.914166 ], [ 18.9721695, 57.9133011 ], [ 18.9686289, 57.9138135 ], [ 18.9676313, 57.9150437 ], [ 18.9590502, 57.9137314 ], [ 18.9575607, 57.9145186 ], [ 18.9574685, 57.9157253 ], [ 18.9527531, 57.9177222 ], [ 18.9500741, 57.9174219 ], [ 18.9495294, 57.9183657 ], [ 18.9495999, 57.9175856 ], [ 18.9470081, 57.9170589 ], [ 18.9467501, 57.9162797 ], [ 18.9455554, 57.9159154 ], [ 18.9463284, 57.9162087 ], [ 18.9447481, 57.9172376 ], [ 18.945369, 57.9184299 ], [ 18.9379444, 57.9183367 ], [ 18.9300595, 57.923555 ], [ 18.9294211, 57.9250429 ], [ 18.9278075, 57.9254243 ], [ 18.9279891, 57.9261626 ], [ 18.9258111, 57.9267479 ], [ 18.9234183, 57.9265373 ], [ 18.9232534, 57.9253488 ], [ 18.9223503, 57.924975 ], [ 18.9143836, 57.9238897 ], [ 18.9093102, 57.9245796 ], [ 18.9029126, 57.9242619 ], [ 18.9000799, 57.926434 ], [ 18.8920936, 57.9286458 ], [ 18.8852913, 57.9265868 ], [ 18.8721629, 57.9247625 ], [ 18.8572412, 57.9250348 ], [ 18.8506409, 57.9230895 ], [ 18.8483462, 57.921035 ], [ 18.844379, 57.919229 ], [ 18.8431816, 57.9166796 ], [ 18.8372631, 57.9103162 ], [ 18.8330869, 57.8992144 ], [ 18.8333685, 57.898121 ], [ 18.837151, 57.8947218 ], [ 18.8373254, 57.8926127 ], [ 18.8380372, 57.8940378 ], [ 18.8390914, 57.8934137 ], [ 18.8381977, 57.8925019 ], [ 18.8396767, 57.8937017 ], [ 18.8416312, 57.8937314 ], [ 18.8439992, 57.8921474 ], [ 18.8445608, 57.8904949 ], [ 18.8438458, 57.8877782 ], [ 18.8451346, 57.8863993 ], [ 18.8437052, 57.8834956 ], [ 18.8450522, 57.8818042 ], [ 18.8447765, 57.8805846 ], [ 18.8463273, 57.8795943 ], [ 18.8406867, 57.877663 ], [ 18.8361317, 57.8788423 ], [ 18.8328852, 57.8786066 ], [ 18.8307552, 57.8772883 ], [ 18.8256424, 57.8777625 ], [ 18.8194328, 57.8705625 ], [ 18.8135, 57.8674301 ], [ 18.8126353, 57.8653958 ], [ 18.8132747, 57.8638402 ], [ 18.8165714, 57.861123 ], [ 18.8159894, 57.8589005 ], [ 18.8124164, 57.8550652 ], [ 18.8066859, 57.8533005 ], [ 18.8078537, 57.8499575 ], [ 18.8055006, 57.8477408 ], [ 18.8055835, 57.8456305 ], [ 18.8020636, 57.8437679 ], [ 18.7991815, 57.8437703 ], [ 18.7989563, 57.8425546 ], [ 18.7993493, 57.8435912 ], [ 18.8011962, 57.8433386 ], [ 18.7990851, 57.839186 ], [ 18.8000962, 57.838908 ], [ 18.7998779, 57.8379016 ], [ 18.796793, 57.8365463 ], [ 18.7991121, 57.8362491 ], [ 18.8012711, 57.8335722 ], [ 18.8017233, 57.8315084 ], [ 18.8008837, 57.8302122 ], [ 18.7979247, 57.8289849 ], [ 18.7966662, 57.8292903 ], [ 18.7967593, 57.8287486 ], [ 18.7921765, 57.8277181 ], [ 18.7897241, 57.8287943 ], [ 18.7896531, 57.8305535 ], [ 18.7907651, 57.8312799 ], [ 18.7898942, 57.8313678 ], [ 18.7896874, 57.8325847 ], [ 18.791669, 57.833756 ], [ 18.7902126, 57.833786 ], [ 18.788791, 57.8354567 ], [ 18.7865889, 57.8422156 ], [ 18.7847838, 57.8420872 ], [ 18.7840483, 57.8455058 ], [ 18.7819573, 57.8467365 ], [ 18.7843216, 57.8483568 ], [ 18.7904365, 57.8485501 ], [ 18.788268, 57.8493045 ], [ 18.7820211, 57.8538759 ], [ 18.7819103, 57.861707 ], [ 18.7773114, 57.8659137 ], [ 18.7762396, 57.8683398 ], [ 18.7752751, 57.8738845 ], [ 18.7763072, 57.8757179 ], [ 18.7786069, 57.8766664 ], [ 18.7788537, 57.8774602 ], [ 18.7760551, 57.8813767 ], [ 18.7755326, 57.88429 ], [ 18.7727592, 57.8892665 ], [ 18.7755578, 57.8894149 ], [ 18.7726317, 57.8895248 ], [ 18.770556, 57.8917081 ], [ 18.7644937, 57.9021885 ], [ 18.7638601, 57.905219 ], [ 18.7645843, 57.907107 ], [ 18.7568059, 57.9157098 ], [ 18.7547385, 57.92086 ], [ 18.7505387, 57.9239131 ], [ 18.7463583, 57.9250623 ], [ 18.7462779, 57.9257254 ], [ 18.7455522, 57.9252358 ], [ 18.7460362, 57.9257348 ], [ 18.7447526, 57.9255366 ], [ 18.737685, 57.928695 ], [ 18.7304956, 57.9297229 ], [ 18.7226383, 57.9279718 ], [ 18.7202512, 57.9263513 ], [ 18.7206304, 57.9259416 ], [ 18.7181054, 57.924864 ], [ 18.7188258, 57.9239914 ], [ 18.7172927, 57.9236661 ], [ 18.7165996, 57.9244942 ], [ 18.7158164, 57.9230474 ], [ 18.7133627, 57.9236277 ], [ 18.7014575, 57.9216406 ], [ 18.6984582, 57.9223562 ], [ 18.6859393, 57.9138958 ], [ 18.6588018, 57.9015301 ], [ 18.6388172, 57.894636 ], [ 18.6266871, 57.8877896 ], [ 18.6231541, 57.8842871 ], [ 18.6232013, 57.8832051 ], [ 18.6214483, 57.8822237 ], [ 18.6230839, 57.8810449 ], [ 18.6230549, 57.8790815 ], [ 18.6219868, 57.8775737 ], [ 18.6203958, 57.8771878 ], [ 18.6194134, 57.8711381 ], [ 18.6159097, 57.8676344 ], [ 18.6168594, 57.8667226 ], [ 18.61638, 57.85595 ], [ 18.6141783, 57.853411 ], [ 18.613243, 57.8505757 ], [ 18.6109041, 57.8483254 ], [ 18.6109642, 57.8464846 ], [ 18.6073086, 57.8444456 ], [ 18.5956139, 57.8406416 ], [ 18.5835671, 57.8390362 ], [ 18.5706101, 57.8445261 ], [ 18.5616207, 57.845218 ], [ 18.5452412, 57.8405263 ], [ 18.5336042, 57.8324797 ], [ 18.5277111, 57.8293446 ], [ 18.5150184, 57.8288784 ], [ 18.5171325, 57.8284355 ], [ 18.5168608, 57.8270682 ], [ 18.5139431, 57.826669 ], [ 18.5143252, 57.8260632 ], [ 18.5131042, 57.8258472 ], [ 18.5134303, 57.8264184 ], [ 18.5121587, 57.8262457 ], [ 18.5143174, 57.8273645 ], [ 18.5110983, 57.826567 ], [ 18.506419, 57.8282604 ], [ 18.5049749, 57.829971 ], [ 18.5010449, 57.8310325 ], [ 18.4960238, 57.8306621 ], [ 18.4855873, 57.8285406 ], [ 18.462195, 57.8201039 ], [ 18.450853, 57.8109099 ], [ 18.4478518, 57.8053368 ], [ 18.4455438, 57.8039055 ], [ 18.4390757, 57.7958109 ], [ 18.4281698, 57.7847791 ], [ 18.4227, 57.7758363 ], [ 18.4170545, 57.7688535 ], [ 18.4158587, 57.7657212 ], [ 18.4142848, 57.7644942 ], [ 18.4142534, 57.7630963 ], [ 18.413516, 57.7629868 ], [ 18.4124413, 57.7608094 ], [ 18.4132404, 57.7605468 ], [ 18.4129743, 57.7592487 ], [ 18.411402, 57.7584848 ], [ 18.4121396, 57.7578666 ], [ 18.4109468, 57.756856 ], [ 18.4113135, 57.7558593 ], [ 18.4091462, 57.753684 ], [ 18.410199, 57.7524626 ], [ 18.4047589, 57.7471632 ], [ 18.4024512, 57.7435319 ], [ 18.4029554, 57.7427842 ], [ 18.4012729, 57.7421308 ], [ 18.4011999, 57.7410113 ], [ 18.3935256, 57.7333054 ], [ 18.392291, 57.7316159 ], [ 18.3930642, 57.7314193 ], [ 18.3921035, 57.7314322 ], [ 18.3926088, 57.730799 ], [ 18.3801762, 57.7187506 ], [ 18.374583, 57.7165293 ], [ 18.3735799, 57.715321 ], [ 18.3743837, 57.7143881 ], [ 18.37319, 57.71208 ], [ 18.3664913, 57.7066725 ], [ 18.3669736, 57.7054847 ], [ 18.3660032, 57.7049825 ], [ 18.3667974, 57.7050443 ], [ 18.3667697, 57.7042398 ], [ 18.3639688, 57.7031117 ], [ 18.3587515, 57.6983427 ], [ 18.3592408, 57.6967722 ], [ 18.3567589, 57.6966206 ], [ 18.3504533, 57.692485 ], [ 18.3516185, 57.6917218 ], [ 18.3521162, 57.6925554 ], [ 18.3539314, 57.6924061 ], [ 18.3531897, 57.6902813 ], [ 18.3503204, 57.6890717 ], [ 18.3481379, 57.6893964 ], [ 18.3444001, 57.6875353 ], [ 18.3437183, 57.6865255 ], [ 18.3450811, 57.6851374 ], [ 18.3420789, 57.6816729 ], [ 18.3398653, 57.6799408 ], [ 18.3373566, 57.6793582 ], [ 18.3325482, 57.6748635 ], [ 18.3312627, 57.6750726 ], [ 18.333218, 57.6729719 ], [ 18.3315172, 57.6718822 ], [ 18.3312466, 57.6701365 ], [ 18.329916, 57.6687996 ], [ 18.3246578, 57.6667188 ], [ 18.3241235, 57.6673916 ], [ 18.3249968, 57.6685784 ], [ 18.3197472, 57.6650194 ], [ 18.3208428, 57.6645158 ], [ 18.3202895, 57.6633912 ], [ 18.3134687, 57.6612077 ], [ 18.2886073, 57.6409794 ], [ 18.2732436, 57.6368791 ], [ 18.269801, 57.6349738 ], [ 18.2720232, 57.6354922 ], [ 18.2736048, 57.6368153 ], [ 18.2801795, 57.63832 ], [ 18.2808916, 57.6373074 ], [ 18.2821013, 57.6386922 ], [ 18.284476, 57.6392618 ], [ 18.2854684, 57.6390111 ], [ 18.2833147, 57.6375998 ], [ 18.2842225, 57.6373132 ], [ 18.28736, 57.6388278 ], [ 18.2882274, 57.6384596 ], [ 18.2827554, 57.6363535 ], [ 18.2827966, 57.6355259 ], [ 18.2814693, 57.6360725 ], [ 18.2826052, 57.6364667 ], [ 18.2826412, 57.6366258 ], [ 18.2816093, 57.6363429 ], [ 18.2812911, 57.6360632 ], [ 18.2827092, 57.6354821 ], [ 18.281545, 57.6345278 ], [ 18.2806364, 57.6346937 ], [ 18.2813052, 57.6357697 ], [ 18.2806635, 57.6363609 ], [ 18.2796005, 57.6346423 ], [ 18.278561, 57.6350736 ], [ 18.2775337, 57.6334526 ], [ 18.2765646, 57.6336275 ], [ 18.2746442, 57.6304624 ], [ 18.2732135, 57.6317974 ], [ 18.2737143, 57.6339343 ], [ 18.2732745, 57.6346278 ], [ 18.2729056, 57.6318838 ], [ 18.2736969, 57.6302224 ], [ 18.2729942, 57.6294843 ], [ 18.2665595, 57.6299309 ], [ 18.2745302, 57.6286542 ], [ 18.2736448, 57.6269143 ], [ 18.2688334, 57.6244208 ], [ 18.2582876, 57.6168033 ], [ 18.2527569, 57.6152806 ], [ 18.2424303, 57.6104416 ], [ 18.2257655, 57.6063107 ], [ 18.2148003, 57.6005564 ], [ 18.2104294, 57.5995374 ], [ 18.2026301, 57.6005611 ], [ 18.200478, 57.6001846 ], [ 18.1927778, 57.59453 ], [ 18.1750583, 57.5860247 ], [ 18.170097, 57.584567 ], [ 18.1547038, 57.5725145 ], [ 18.1385052, 57.5631867 ], [ 18.1305685, 57.5545608 ], [ 18.1124859, 57.5407801 ], [ 18.1060432, 57.5343922 ], [ 18.1051774, 57.5286431 ], [ 18.1075629, 57.5238492 ], [ 18.1089614, 57.5191479 ], [ 18.1095022, 57.5123002 ], [ 18.1115712, 57.5074478 ], [ 18.1103101, 57.502631 ], [ 18.1124049, 57.5031383 ], [ 18.1126443, 57.50252 ], [ 18.1107393, 57.5023407 ], [ 18.1123379, 57.502314 ], [ 18.1145144, 57.5002776 ], [ 18.1204107, 57.4972717 ], [ 18.1255053, 57.4923871 ], [ 18.1275983, 57.4879982 ], [ 18.1273106, 57.4855809 ], [ 18.1254967, 57.4833308 ], [ 18.1260705, 57.4820581 ], [ 18.1250142, 57.4788224 ], [ 18.1229863, 57.4770341 ], [ 18.1232679, 57.4757024 ], [ 18.1222285, 57.4738203 ], [ 18.1211172, 57.467333 ], [ 18.11876, 57.4661268 ], [ 18.1194864, 57.4651333 ], [ 18.1219289, 57.4643221 ], [ 18.1231648, 57.4627288 ], [ 18.1226262, 57.4623069 ], [ 18.1244394, 57.4610803 ], [ 18.1239424, 57.4590724 ], [ 18.1214849, 57.4588739 ], [ 18.1223652, 57.4583854 ], [ 18.1214391, 57.457939 ], [ 18.1249922, 57.456337 ], [ 18.1272691, 57.4532326 ], [ 18.1255211, 57.4512535 ], [ 18.1227636, 57.451854 ], [ 18.1207538, 57.4509337 ], [ 18.1219471, 57.4502652 ], [ 18.1208503, 57.4496178 ], [ 18.1208594, 57.443354 ], [ 18.1180919, 57.4428521 ], [ 18.1176547, 57.440688 ], [ 18.1220546, 57.4394919 ], [ 18.1263097, 57.4397847 ], [ 18.1299269, 57.4384295 ], [ 18.1316247, 57.4368233 ], [ 18.1298679, 57.4357836 ], [ 18.1304403, 57.4350436 ], [ 18.1349383, 57.4389454 ], [ 18.1375186, 57.4397396 ], [ 18.1392197, 57.4397809 ], [ 18.1409476, 57.4384465 ], [ 18.1411495, 57.4378396 ], [ 18.1401134, 57.4374986 ], [ 18.1400485, 57.4371409 ], [ 18.1418936, 57.4380031 ], [ 18.1419886, 57.4374271 ], [ 18.1396125, 57.4367625 ], [ 18.1415902, 57.4372075 ], [ 18.144944, 57.4341154 ], [ 18.1444041, 57.4335861 ], [ 18.1449454, 57.4323645 ], [ 18.1466312, 57.4313379 ], [ 18.1466247, 57.4297267 ], [ 18.148804, 57.4267073 ], [ 18.1471593, 57.4250351 ], [ 18.1473916, 57.4230853 ], [ 18.1487528, 57.4220922 ], [ 18.1481646, 57.4205692 ], [ 18.1492412, 57.4191712 ], [ 18.1482032, 57.4164642 ], [ 18.1487925, 57.4154964 ], [ 18.147744, 57.4141393 ], [ 18.1522225, 57.4110828 ], [ 18.1547641, 57.4110828 ], [ 18.1552823, 57.4100427 ], [ 18.1577049, 57.4113805 ], [ 18.1609638, 57.4097932 ], [ 18.1591753, 57.4082997 ], [ 18.1567651, 57.4086484 ], [ 18.1565355, 57.4069918 ], [ 18.155587, 57.4063746 ], [ 18.1527396, 57.4061556 ], [ 18.1495424, 57.4071464 ], [ 18.1486712, 57.4071739 ], [ 18.1476879, 57.4070655 ], [ 18.1511013, 57.4062038 ], [ 18.1496765, 57.4056308 ], [ 18.1488, 57.4048315 ], [ 18.1458871, 57.4058237 ], [ 18.1491361, 57.404422 ], [ 18.1500078, 57.4056181 ], [ 18.1518859, 57.4060868 ], [ 18.1547102, 57.406233 ], [ 18.1557155, 57.4054535 ], [ 18.1573949, 57.4052022 ], [ 18.1557297, 57.4057906 ], [ 18.1589036, 57.4071814 ], [ 18.165795, 57.4069309 ], [ 18.1694428, 57.4049072 ], [ 18.1710714, 57.4020193 ], [ 18.1721958, 57.4016575 ], [ 18.1704642, 57.4009771 ], [ 18.1722441, 57.3998277 ], [ 18.1715687, 57.3984965 ], [ 18.1718386, 57.3955598 ], [ 18.1674698, 57.3955855 ], [ 18.166068, 57.3970894 ], [ 18.1621547, 57.3984228 ], [ 18.1692706, 57.3928764 ], [ 18.1746876, 57.3924087 ], [ 18.1758216, 57.391984 ], [ 18.1761837, 57.3909127 ], [ 18.1777802, 57.3909555 ], [ 18.1791242, 57.3940133 ], [ 18.1814357, 57.3957028 ], [ 18.1803754, 57.3960926 ], [ 18.1766311, 57.3941782 ], [ 18.1781102, 57.3954859 ], [ 18.1761255, 57.3954628 ], [ 18.1756692, 57.3962048 ], [ 18.1775623, 57.3976338 ], [ 18.1784516, 57.3999881 ], [ 18.1776889, 57.4008571 ], [ 18.1830018, 57.3989451 ], [ 18.1833865, 57.3983333 ], [ 18.1822648, 57.396718 ], [ 18.1830499, 57.3953865 ], [ 18.1817969, 57.3943931 ], [ 18.1867339, 57.3919621 ], [ 18.1851168, 57.3903298 ], [ 18.1874994, 57.3910858 ], [ 18.1917939, 57.3896779 ], [ 18.1916479, 57.3922216 ], [ 18.1947735, 57.3928855 ], [ 18.1948953, 57.3937269 ], [ 18.1968576, 57.3901695 ], [ 18.193993, 57.3883275 ], [ 18.1918046, 57.3882092 ], [ 18.1883813, 57.3894469 ], [ 18.1856212, 57.3892699 ], [ 18.1843589, 57.388604 ], [ 18.1891845, 57.3889511 ], [ 18.1905375, 57.3882541 ], [ 18.1793851, 57.3862949 ], [ 18.1798518, 57.3850603 ], [ 18.1889767, 57.386032 ], [ 18.1917617, 57.3848733 ], [ 18.188142, 57.3845323 ], [ 18.1896003, 57.383802 ], [ 18.1869592, 57.3821486 ], [ 18.1847077, 57.383142 ], [ 18.1853338, 57.3817753 ], [ 18.1830657, 57.3821608 ], [ 18.182614, 57.3814723 ], [ 18.1794782, 57.3811827 ], [ 18.1800254, 57.3810086 ], [ 18.1794989, 57.3785559 ], [ 18.1774907, 57.377355 ], [ 18.1778761, 57.3768429 ], [ 18.1759725, 57.3750345 ], [ 18.174125, 57.3750244 ], [ 18.1748481, 57.3719078 ], [ 18.1732538, 57.3713828 ], [ 18.1728164, 57.3696557 ], [ 18.1696186, 57.3699464 ], [ 18.1715686, 57.3685366 ], [ 18.1699097, 57.3673401 ], [ 18.1720018, 57.3636005 ], [ 18.1716112, 57.361914 ], [ 18.1706137, 57.3613671 ], [ 18.1745512, 57.3614468 ], [ 18.1752279, 57.3608291 ], [ 18.1746078, 57.3605209 ], [ 18.1761643, 57.3592998 ], [ 18.1739517, 57.353672 ], [ 18.1693003, 57.3514032 ], [ 18.1696444, 57.3498269 ], [ 18.1713377, 57.3492978 ], [ 18.1709809, 57.3486492 ], [ 18.1746464, 57.3480907 ], [ 18.1763191, 57.3449767 ], [ 18.1738493, 57.3454841 ], [ 18.1766342, 57.3437304 ], [ 18.1797957, 57.3443555 ], [ 18.1803746, 57.3452107 ], [ 18.1773112, 57.3464124 ], [ 18.1764786, 57.3483468 ], [ 18.180333, 57.3473082 ], [ 18.1790745, 57.3489369 ], [ 18.1796541, 57.3499551 ], [ 18.1805609, 57.3498467 ], [ 18.1823709, 57.3491774 ], [ 18.1826748, 57.3471737 ], [ 18.1817626, 57.3463575 ], [ 18.1816424, 57.3449433 ], [ 18.1823519, 57.3444539 ], [ 18.1783725, 57.3425057 ], [ 18.1785584, 57.3414705 ], [ 18.1776671, 57.3405348 ], [ 18.1749173, 57.3398319 ], [ 18.1750037, 57.3378407 ], [ 18.1732222, 57.3364918 ], [ 18.1734716, 57.333362 ], [ 18.1728491, 57.332658 ], [ 18.1716128, 57.3328205 ], [ 18.1713942, 57.3327642 ], [ 18.1729963, 57.3325235 ], [ 18.1709554, 57.33268 ], [ 18.1727689, 57.3320653 ], [ 18.1701263, 57.3302608 ], [ 18.1711743, 57.3292501 ], [ 18.1710603, 57.3262256 ], [ 18.1687166, 57.3202557 ], [ 18.1626993, 57.3153935 ], [ 18.1568408, 57.3136799 ], [ 18.1516218, 57.3111348 ], [ 18.149777, 57.3081353 ], [ 18.1484918, 57.3078549 ], [ 18.1479748, 57.3090909 ], [ 18.1474155, 57.3087756 ], [ 18.1478116, 57.3076787 ], [ 18.1352608, 57.3027577 ], [ 18.1248641, 57.2945024 ], [ 18.11157, 57.2928935 ], [ 18.1020615, 57.2895431 ], [ 18.10051, 57.28502 ], [ 18.0965892, 57.2805621 ], [ 18.0944328, 57.2702845 ], [ 18.0917506, 57.2644543 ], [ 18.0913644, 57.2597723 ] ] ] } }
]
}
