{
"type": "FeatureCollection",
"name": "gozo",
"crs": { "type": "name", "properties": { "name": "urn:ogc:def:crs:OGC:1.3:CRS84" } },
"features": [
{ "type": "Feature", "properties": { }, "geometry": { "type": "Polygon", "coordinates": [ [ [ 14.1834654, 36.0693644 ], [ 14.1850579, 36.0667107 ], [ 14.1844663, 36.0646068 ], [ 14.1872676, 36.0637099 ], [ 14.1891324, 36.0639605 ], [ 14.1916211, 36.0611971 ], [ 14.1909462, 36.0591744 ], [ 14.1921438, 36.0568759 ], [ 14.1903736, 36.054961 ], [ 14.1891591, 36.0547424 ], [ 14.1880437, 36.052512 ], [ 14.190306, 36.0496095 ], [ 14.1882314, 36.0480791 ], [ 14.1920652, 36.0482467 ], [ 14.1933473, 36.0462555 ], [ 14.1926277, 36.0453426 ], [ 14.1894513, 36.0454374 ], [ 14.1897535, 36.0400355 ], [ 14.1860682, 36.0368113 ], [ 14.1861756, 36.0360349 ], [ 14.1890717, 36.0341623 ], [ 14.1938834, 36.0329601 ], [ 14.2021996, 36.0344666 ], [ 14.2057227, 36.0331876 ], [ 14.2093593, 36.0330655 ], [ 14.2091402, 36.0322672 ], [ 14.2108711, 36.0306833 ], [ 14.2128673, 36.0308145 ], [ 14.2139227, 36.0292974 ], [ 14.2169225, 36.0305742 ], [ 14.2174404, 36.0298485 ], [ 14.2148171, 36.0286995 ], [ 14.2160409, 36.0272011 ], [ 14.2143218, 36.0281396 ], [ 14.2121662, 36.0277175 ], [ 14.2158016, 36.0237327 ], [ 14.2188725, 36.0235863 ], [ 14.2190332, 36.0227013 ], [ 14.2180205, 36.0220467 ], [ 14.2188709, 36.0208815 ], [ 14.2203864, 36.0212932 ], [ 14.2221478, 36.020275 ], [ 14.2279966, 36.0217948 ], [ 14.2327304, 36.0209292 ], [ 14.2328676, 36.0198935 ], [ 14.2370936, 36.0190634 ], [ 14.2427301, 36.0193675 ], [ 14.251132, 36.018374 ], [ 14.2536088, 36.0173406 ], [ 14.2537627, 36.0147143 ], [ 14.2557068, 36.0136888 ], [ 14.2589655, 36.0142506 ], [ 14.2605538, 36.012035 ], [ 14.2620261, 36.0114294 ], [ 14.2638311, 36.0134461 ], [ 14.272698, 36.0165402 ], [ 14.2708398, 36.0171748 ], [ 14.2725189, 36.0176414 ], [ 14.2714699, 36.0203985 ], [ 14.27331, 36.0172879 ], [ 14.2794454, 36.0158351 ], [ 14.2801589, 36.0179329 ], [ 14.2855927, 36.017523 ], [ 14.2902226, 36.0200099 ], [ 14.2912448, 36.0191174 ], [ 14.2898286, 36.0183644 ], [ 14.2912449, 36.0182699 ], [ 14.2920429, 36.019706 ], [ 14.2968799, 36.0210688 ], [ 14.3020862, 36.0248653 ], [ 14.298642, 36.0236546 ], [ 14.299049, 36.0250645 ], [ 14.2977021, 36.0237497 ], [ 14.296878, 36.0253794 ], [ 14.2988759, 36.0266962 ], [ 14.3018631, 36.0272242 ], [ 14.3019098, 36.0259008 ], [ 14.3024808, 36.0271821 ], [ 14.305283, 36.0273263 ], [ 14.3053819, 36.0264324 ], [ 14.3074235, 36.0261842 ], [ 14.3135046, 36.0268049 ], [ 14.316144, 36.026414 ], [ 14.3153841, 36.0260651 ], [ 14.3159701, 36.0258239 ], [ 14.316436, 36.0264323 ], [ 14.3205382, 36.025746 ], [ 14.3215207, 36.026204 ], [ 14.3207453, 36.0266219 ], [ 14.3222219, 36.0267175 ], [ 14.3223571, 36.0279775 ], [ 14.3276953, 36.0281229 ], [ 14.3279904, 36.02906 ], [ 14.3291285, 36.0287439 ], [ 14.3294617, 36.029656 ], [ 14.3313549, 36.0304144 ], [ 14.3344113, 36.030314 ], [ 14.3336091, 36.0313878 ], [ 14.3347703, 36.0310974 ], [ 14.336341, 36.0324334 ], [ 14.3357894, 36.0353851 ], [ 14.3332692, 36.0386458 ], [ 14.3226801, 36.0469087 ], [ 14.3209601, 36.0496644 ], [ 14.3185001, 36.0501911 ], [ 14.3164381, 36.0489601 ], [ 14.3141242, 36.0503225 ], [ 14.3145864, 36.0511595 ], [ 14.3118532, 36.0528847 ], [ 14.3123725, 36.0535268 ], [ 14.3117275, 36.0542149 ], [ 14.3118877, 36.0572664 ], [ 14.3094159, 36.0592589 ], [ 14.306392, 36.0589914 ], [ 14.3011023, 36.056898 ], [ 14.300052, 36.0572568 ], [ 14.2986953, 36.0592741 ], [ 14.2936914, 36.0617803 ], [ 14.2927734, 36.0641852 ], [ 14.2909011, 36.0656225 ], [ 14.2886535, 36.0652953 ], [ 14.2861443, 36.06202 ], [ 14.2818537, 36.0616486 ], [ 14.2793581, 36.0627996 ], [ 14.2777894, 36.064822 ], [ 14.2739439, 36.065357 ], [ 14.2725473, 36.0663434 ], [ 14.2712952, 36.0696427 ], [ 14.2673303, 36.073199 ], [ 14.2652759, 36.072789 ], [ 14.2636095, 36.0742081 ], [ 14.2609672, 36.0732677 ], [ 14.2600925, 36.0714318 ], [ 14.2582564, 36.0715677 ], [ 14.258092, 36.0758372 ], [ 14.2552868, 36.0769309 ], [ 14.2522601, 36.0763355 ], [ 14.2509141, 36.0784146 ], [ 14.2519199, 36.0800451 ], [ 14.2483352, 36.0799038 ], [ 14.248758, 36.0786721 ], [ 14.2480931, 36.0784331 ], [ 14.2471566, 36.0801652 ], [ 14.2465918, 36.0796397 ], [ 14.2394845, 36.0808963 ], [ 14.2363826, 36.0821531 ], [ 14.2351285, 36.0810705 ], [ 14.2312157, 36.0821274 ], [ 14.228453, 36.0787527 ], [ 14.2292314, 36.0804939 ], [ 14.2263765, 36.0805329 ], [ 14.2228743, 36.0817867 ], [ 14.2220837, 36.0798053 ], [ 14.2189869, 36.0795558 ], [ 14.2167408, 36.0804618 ], [ 14.2133456, 36.0799509 ], [ 14.2126653, 36.0784739 ], [ 14.2129316, 36.0797969 ], [ 14.2029372, 36.0782754 ], [ 14.2014011, 36.0760065 ], [ 14.1982402, 36.0741349 ], [ 14.1963472, 36.0747617 ], [ 14.1926732, 36.0738278 ], [ 14.1855744, 36.0745846 ], [ 14.1845656, 36.0739785 ], [ 14.1834654, 36.0693644 ] ] ] } }
]
}
