{
"type": "FeatureCollection",
"name": "gran_canaria",
"crs": { "type": "name", "properties": { "name": "urn:ogc:def:crs:OGC:1.3:CRS84" } },
"features": [
{ "type": "Feature", "properties": { }, "geometry": { "type": "MultiPolygon", "coordinates": [ [ [ [ -15.8332299, 27.9746992 ], [ -15.8298481, 27.9774811 ], [ -15.829474, 27.9794237 ], [ -15.8280474, 27.9799505 ], [ -15.827036, 27.9830078 ], [ -15.8275479, 27.9859324 ], [ -15.8254879, 27.9854776 ], [ -15.8231276, 27.9878272 ], [ -15.8221406, 27.9915562 ], [ -15.8230071, 27.9932112 ], [ -15.821503, 27.9933184 ], [ -15.8207008, 27.9942784 ], [ -15.8213288, 27.9983511 ], [ -15.8206269, 27.9997025 ], [ -15.8193149, 28.0001877 ], [ -15.8172829, 28.0050613 ], [ -15.817805, 28.0066233 ], [ -15.8185916, 28.0067415 ], [ -15.8193791, 28.0056447 ], [ -15.8194796, 28.0085702 ], [ -15.8188449, 28.0093909 ], [ -15.8199519, 28.0097821 ], [ -15.8228873, 28.0136618 ], [ -15.8140038, 28.017549 ], [ -15.8090943, 28.017602 ], [ -15.8084935, 28.0166928 ], [ -15.8058327, 28.0159881 ], [ -15.801627, 28.0172004 ], [ -15.7985629, 28.0167306 ], [ -15.7910527, 28.0196478 ], [ -15.7847613, 28.0234893 ], [ -15.7832163, 28.023459 ], [ -15.7805556, 28.0250653 ], [ -15.7783068, 28.0287929 ], [ -15.773732, 28.0311416 ], [ -15.768153, 28.0367554 ], [ -15.7685393, 28.0404902 ], [ -15.7655524, 28.0462096 ], [ -15.7641791, 28.0464368 ], [ -15.7605742, 28.0451263 ], [ -15.7554501, 28.0474746 ], [ -15.752343, 28.0478079 ], [ -15.7497853, 28.0503683 ], [ -15.7463349, 28.0516939 ], [ -15.7450233, 28.0512163 ], [ -15.7424038, 28.0532012 ], [ -15.7408761, 28.0527619 ], [ -15.7390015, 28.0539285 ], [ -15.7377261, 28.0549207 ], [ -15.7366103, 28.0592759 ], [ -15.735237, 28.0598819 ], [ -15.7355975, 28.0606393 ], [ -15.7343358, 28.0643051 ], [ -15.7296293, 28.0647593 ], [ -15.7289132, 28.0659475 ], [ -15.7260154, 28.0670854 ], [ -15.7255766, 28.068094 ], [ -15.7205837, 28.0705493 ], [ -15.720371, 28.0732105 ], [ -15.7183695, 28.0736829 ], [ -15.7181048, 28.0750972 ], [ -15.7148513, 28.0775559 ], [ -15.7136677, 28.0792195 ], [ -15.714154, 28.0800608 ], [ -15.7108781, 28.0832157 ], [ -15.7104647, 28.0864771 ], [ -15.708844, 28.0875922 ], [ -15.709055, 28.0885524 ], [ -15.7076781, 28.0885603 ], [ -15.7070684, 28.0895048 ], [ -15.7080837, 28.0905287 ], [ -15.7072904, 28.0918432 ], [ -15.7073087, 28.0943395 ], [ -15.7087514, 28.100107 ], [ -15.7103742, 28.1006389 ], [ -15.7106757, 28.0997091 ], [ -15.712069, 28.101556 ], [ -15.7128807, 28.1004869 ], [ -15.7117357, 28.099857 ], [ -15.7123431, 28.0994139 ], [ -15.7115598, 28.0977749 ], [ -15.7134573, 28.1009226 ], [ -15.7121126, 28.1051245 ], [ -15.7111198, 28.1059948 ], [ -15.7113316, 28.1068998 ], [ -15.7059782, 28.1087139 ], [ -15.7065674, 28.1101588 ], [ -15.7052655, 28.1144474 ], [ -15.7074935, 28.1164506 ], [ -15.7068849, 28.1174068 ], [ -15.705165, 28.1170618 ], [ -15.7045868, 28.1178794 ], [ -15.7068099, 28.1198829 ], [ -15.7087326, 28.1199075 ], [ -15.7093137, 28.1214166 ], [ -15.7074958, 28.1226327 ], [ -15.7063238, 28.1252887 ], [ -15.7047693, 28.1251695 ], [ -15.7052226, 28.1263036 ], [ -15.704286, 28.1277188 ], [ -15.7048169, 28.1301958 ], [ -15.7040554, 28.1312373 ], [ -15.7017375, 28.1318181 ], [ -15.7003635, 28.1309989 ], [ -15.6991483, 28.133024 ], [ -15.7000644, 28.1338983 ], [ -15.6989901, 28.1350494 ], [ -15.6991921, 28.1366897 ], [ -15.7008304, 28.1375441 ], [ -15.7001102, 28.1384974 ], [ -15.7010244, 28.1395835 ], [ -15.700145, 28.1405079 ], [ -15.7041647, 28.1422303 ], [ -15.7028741, 28.1433169 ], [ -15.703151, 28.1443538 ], [ -15.7013267, 28.1454342 ], [ -15.7007994, 28.1469357 ], [ -15.6995053, 28.1473516 ], [ -15.699981, 28.1478575 ], [ -15.696961, 28.148182 ], [ -15.6962759, 28.1515317 ], [ -15.6981067, 28.1533367 ], [ -15.6992024, 28.1539088 ], [ -15.6996493, 28.1533267 ], [ -15.6997378, 28.1543031 ], [ -15.7040375, 28.1561974 ], [ -15.7043935, 28.1572756 ], [ -15.7060448, 28.1573915 ], [ -15.7070053, 28.1595071 ], [ -15.7083845, 28.1598555 ], [ -15.7079175, 28.1610081 ], [ -15.709144, 28.1618018 ], [ -15.7091499, 28.1643519 ], [ -15.7099369, 28.1645119 ], [ -15.7089892, 28.1659591 ], [ -15.7062212, 28.165104 ], [ -15.705691, 28.1660686 ], [ -15.7038112, 28.1648548 ], [ -15.7040943, 28.1643545 ], [ -15.7025659, 28.1648219 ], [ -15.7001312, 28.1632121 ], [ -15.698244, 28.1632727 ], [ -15.6957847, 28.1653104 ], [ -15.6934266, 28.1648693 ], [ -15.6927059, 28.1654718 ], [ -15.6900308, 28.1704329 ], [ -15.6874279, 28.1688706 ], [ -15.6864114, 28.1706422 ], [ -15.6831433, 28.1707165 ], [ -15.6819037, 28.1699547 ], [ -15.6818675, 28.168191 ], [ -15.6802624, 28.1665415 ], [ -15.6813181, 28.1652022 ], [ -15.680944, 28.1622941 ], [ -15.6787776, 28.1631592 ], [ -15.6778771, 28.1622122 ], [ -15.6778849, 28.1599962 ], [ -15.67634, 28.1593908 ], [ -15.6753958, 28.1616609 ], [ -15.6739539, 28.1620014 ], [ -15.6726508, 28.1609861 ], [ -15.6732173, 28.1595484 ], [ -15.6687885, 28.1595786 ], [ -15.6685653, 28.1588295 ], [ -15.6674152, 28.1596997 ], [ -15.6665802, 28.1581064 ], [ -15.6644996, 28.1588878 ], [ -15.6638353, 28.1600316 ], [ -15.662295, 28.1599935 ], [ -15.659729, 28.1630588 ], [ -15.6583368, 28.1628118 ], [ -15.6583601, 28.1638402 ], [ -15.6571314, 28.1632574 ], [ -15.6555603, 28.1641459 ], [ -15.653878, 28.1660073 ], [ -15.6499985, 28.1649858 ], [ -15.6489342, 28.1660527 ], [ -15.6481188, 28.1646453 ], [ -15.6473635, 28.1655306 ], [ -15.6425913, 28.1669607 ], [ -15.639467, 28.1693366 ], [ -15.6387546, 28.1718864 ], [ -15.6371839, 28.1720983 ], [ -15.6330727, 28.1678762 ], [ -15.6311844, 28.1701992 ], [ -15.6297424, 28.167445 ], [ -15.6282747, 28.1674752 ], [ -15.6281717, 28.1661435 ], [ -15.6270817, 28.1660149 ], [ -15.6255882, 28.1630714 ], [ -15.6239231, 28.1627309 ], [ -15.6249617, 28.1598403 ], [ -15.6222408, 28.1585236 ], [ -15.6209448, 28.1537183 ], [ -15.6191338, 28.1546566 ], [ -15.6172541, 28.1542783 ], [ -15.6143101, 28.1486479 ], [ -15.612542, 28.1473084 ], [ -15.611306, 28.1478835 ], [ -15.6104391, 28.1473235 ], [ -15.6084564, 28.1492685 ], [ -15.6074779, 28.1492609 ], [ -15.6041305, 28.146877 ], [ -15.602268, 28.1473462 ], [ -15.601178, 28.1448033 ], [ -15.6003883, 28.1452877 ], [ -15.6003282, 28.1445687 ], [ -15.5979679, 28.1442735 ], [ -15.5956848, 28.1455072 ], [ -15.5859602, 28.1475884 ], [ -15.5862177, 28.1465743 ], [ -15.5846444, 28.1455707 ], [ -15.5801681, 28.1441205 ], [ -15.5766304, 28.1451136 ], [ -15.5764416, 28.1440238 ], [ -15.5750511, 28.1436908 ], [ -15.5737122, 28.1441827 ], [ -15.573277, 28.1457878 ], [ -15.5731628, 28.1450001 ], [ -15.57106, 28.1443492 ], [ -15.5660561, 28.146544 ], [ -15.5629576, 28.145492 ], [ -15.5595501, 28.1469905 ], [ -15.5559881, 28.1458856 ], [ -15.5458858, 28.1462564 ], [ -15.5426586, 28.1475732 ], [ -15.5406845, 28.1503507 ], [ -15.5392855, 28.1496696 ], [ -15.5391138, 28.1513269 ], [ -15.5373699, 28.1519128 ], [ -15.5365348, 28.1515733 ], [ -15.537208, 28.1510076 ], [ -15.5365818, 28.1503431 ], [ -15.5348652, 28.1504944 ], [ -15.5348566, 28.1519853 ], [ -15.533964, 28.1526437 ], [ -15.5333889, 28.1521215 ], [ -15.5330971, 28.1529691 ], [ -15.5326679, 28.1525302 ], [ -15.5322388, 28.1543312 ], [ -15.5313032, 28.1538015 ], [ -15.529372, 28.1552166 ], [ -15.5276726, 28.1543842 ], [ -15.5269087, 28.1553226 ], [ -15.5263937, 28.1538394 ], [ -15.5217245, 28.1532491 ], [ -15.5218103, 28.152061 ], [ -15.5227802, 28.151448 ], [ -15.5210636, 28.1514556 ], [ -15.520849, 28.1501766 ], [ -15.5182913, 28.1488749 ], [ -15.5172098, 28.1471797 ], [ -15.5156048, 28.1476641 ], [ -15.5151853, 28.1456686 ], [ -15.512575, 28.1485571 ], [ -15.5076397, 28.1476716 ], [ -15.5072277, 28.1458477 ], [ -15.5034511, 28.1459007 ], [ -15.5008676, 28.1429794 ], [ -15.4993227, 28.1425782 ], [ -15.4956234, 28.1452271 ], [ -15.4961813, 28.1434789 ], [ -15.4919327, 28.1410646 ], [ -15.4904564, 28.141776 ], [ -15.4886711, 28.1409132 ], [ -15.4878643, 28.1384837 ], [ -15.4862249, 28.1378404 ], [ -15.4856413, 28.1352594 ], [ -15.4839247, 28.1353124 ], [ -15.4830459, 28.136552 ], [ -15.4781826, 28.1364174 ], [ -15.4773141, 28.1344612 ], [ -15.4754485, 28.1338324 ], [ -15.4753339, 28.132611 ], [ -15.4719255, 28.1315506 ], [ -15.4727088, 28.1295203 ], [ -15.4709642, 28.129522 ], [ -15.4703007, 28.1274789 ], [ -15.4671193, 28.1260923 ], [ -15.4615057, 28.1283624 ], [ -15.4592913, 28.1277205 ], [ -15.4532917, 28.1282504 ], [ -15.4515064, 28.1300443 ], [ -15.451515, 28.1310435 ], [ -15.4498418, 28.1316277 ], [ -15.4493688, 28.1310449 ], [ -15.4492667, 28.1317823 ], [ -15.4481662, 28.1309155 ], [ -15.4458769, 28.1315165 ], [ -15.4371093, 28.1384132 ], [ -15.4354561, 28.1416095 ], [ -15.4313877, 28.1461732 ], [ -15.4313105, 28.1477397 ], [ -15.4334412, 28.1484906 ], [ -15.4314735, 28.1512588 ], [ -15.4333934, 28.1531425 ], [ -15.4321165, 28.1547296 ], [ -15.4333627, 28.1576965 ], [ -15.4354896, 28.1579496 ], [ -15.436711, 28.1598777 ], [ -15.438482, 28.1605334 ], [ -15.4395897, 28.1619582 ], [ -15.4425035, 28.1622272 ], [ -15.4415808, 28.1629543 ], [ -15.4417448, 28.16582 ], [ -15.4409808, 28.1671424 ], [ -15.4400874, 28.1669778 ], [ -15.4405536, 28.1676285 ], [ -15.4394383, 28.1692825 ], [ -15.4374903, 28.1697377 ], [ -15.4369356, 28.1691063 ], [ -15.4360577, 28.1709603 ], [ -15.4325028, 28.1710276 ], [ -15.4324692, 28.1719252 ], [ -15.4303046, 28.1724613 ], [ -15.4305428, 28.1736109 ], [ -15.4290182, 28.1760361 ], [ -15.4255512, 28.1758435 ], [ -15.4225163, 28.1809792 ], [ -15.4208741, 28.1807271 ], [ -15.420039, 28.181426 ], [ -15.4189251, 28.1808445 ], [ -15.4187191, 28.1789229 ], [ -15.4165733, 28.1791725 ], [ -15.4147709, 28.1774097 ], [ -15.4131058, 28.1778636 ], [ -15.4140499, 28.1793541 ], [ -15.4129599, 28.1785824 ], [ -15.4119471, 28.1797854 ], [ -15.4114921, 28.1790515 ], [ -15.4123848, 28.1784462 ], [ -15.4117496, 28.1781663 ], [ -15.4069088, 28.1782117 ], [ -15.4066685, 28.1766607 ], [ -15.4045484, 28.1753744 ], [ -15.4032524, 28.1726431 ], [ -15.4055612, 28.1692382 ], [ -15.4041279, 28.168701 ], [ -15.405381, 28.168527 ], [ -15.4042137, 28.1681108 ], [ -15.405278, 28.1675812 ], [ -15.4046772, 28.1667942 ], [ -15.4053149, 28.166079 ], [ -15.4030081, 28.1657122 ], [ -15.4020765, 28.1668094 ], [ -15.4011394, 28.1664976 ], [ -15.4012869, 28.1653414 ], [ -15.3987261, 28.1650767 ], [ -15.3981753, 28.1616503 ], [ -15.3982046, 28.1520185 ], [ -15.3995177, 28.1520084 ], [ -15.3984739, 28.1522293 ], [ -15.3985128, 28.1610949 ], [ -15.399943, 28.1613638 ], [ -15.4003838, 28.1595993 ], [ -15.4003909, 28.1610982 ], [ -15.4014644, 28.1613636 ], [ -15.4018963, 28.1595852 ], [ -15.4019083, 28.1610901 ], [ -15.4033954, 28.1613564 ], [ -15.4037436, 28.1502357 ], [ -15.4068688, 28.1476141 ], [ -15.407214, 28.1329108 ], [ -15.404377, 28.1307926 ], [ -15.4045957, 28.1176079 ], [ -15.4046538, 28.1306643 ], [ -15.4076218, 28.1329021 ], [ -15.4073215, 28.1373454 ], [ -15.4079497, 28.1371206 ], [ -15.4069078, 28.1581893 ], [ -15.4080448, 28.1581864 ], [ -15.4085514, 28.1544182 ], [ -15.4102603, 28.1544277 ], [ -15.4103592, 28.1508196 ], [ -15.4123198, 28.1508391 ], [ -15.4156034, 28.1475817 ], [ -15.4116745, 28.1440715 ], [ -15.411737, 28.1406662 ], [ -15.414961, 28.1429782 ], [ -15.4154064, 28.139564 ], [ -15.4117863, 28.1367497 ], [ -15.4119827, 28.128125 ], [ -15.4121231, 28.1286947 ], [ -15.417707, 28.1283325 ], [ -15.417272, 28.1462555 ], [ -15.4201886, 28.1466607 ], [ -15.4202149, 28.1416996 ], [ -15.4212749, 28.1417061 ], [ -15.4211896, 28.1466909 ], [ -15.4226117, 28.1467044 ], [ -15.4224409, 28.1437822 ], [ -15.4229924, 28.1437782 ], [ -15.422708, 28.1467041 ], [ -15.4241519, 28.1467297 ], [ -15.4242205, 28.1428631 ], [ -15.4252288, 28.1428832 ], [ -15.4251728, 28.1467598 ], [ -15.4277079, 28.1467854 ], [ -15.4272785, 28.1427515 ], [ -15.4257995, 28.1412768 ], [ -15.4237651, 28.1415161 ], [ -15.4211981, 28.1389963 ], [ -15.4223399, 28.138591 ], [ -15.4203788, 28.1367875 ], [ -15.425343, 28.1411337 ], [ -15.4276267, 28.1408093 ], [ -15.4286876, 28.136331 ], [ -15.4269447, 28.1362551 ], [ -15.4269963, 28.1372206 ], [ -15.4263987, 28.1363606 ], [ -15.4264232, 28.1372734 ], [ -15.4263131, 28.1363696 ], [ -15.42567, 28.1364312 ], [ -15.4259735, 28.1389205 ], [ -15.4253699, 28.1389944 ], [ -15.4248225, 28.1345322 ], [ -15.4272007, 28.1342134 ], [ -15.4273095, 28.1328191 ], [ -15.425239, 28.1329965 ], [ -15.4251017, 28.1340571 ], [ -15.4246865, 28.1342007 ], [ -15.4251774, 28.1327347 ], [ -15.4284231, 28.1327402 ], [ -15.4286038, 28.1295387 ], [ -15.4242273, 28.1295731 ], [ -15.4231218, 28.1281805 ], [ -15.4242798, 28.1294718 ], [ -15.4280565, 28.1288545 ], [ -15.4280055, 28.1273597 ], [ -15.4253088, 28.1234218 ], [ -15.4245908, 28.1234619 ], [ -15.4253104, 28.1268421 ], [ -15.4247649, 28.126943 ], [ -15.4248083, 28.1277214 ], [ -15.4240037, 28.1281946 ], [ -15.424544, 28.1275907 ], [ -15.4242602, 28.1233835 ], [ -15.4230674, 28.1224086 ], [ -15.4240958, 28.1229437 ], [ -15.4239761, 28.1216708 ], [ -15.4228949, 28.1209621 ], [ -15.4227594, 28.1223191 ], [ -15.4225753, 28.1206649 ], [ -15.4212101, 28.1195381 ], [ -15.4209934, 28.1209277 ], [ -15.42067, 28.1189725 ], [ -15.4144098, 28.1105881 ], [ -15.4147389, 28.1095971 ], [ -15.4109882, 28.1009237 ], [ -15.4123122, 28.0907593 ], [ -15.4155738, 28.0874578 ], [ -15.4163291, 28.0842547 ], [ -15.4159686, 28.0828917 ], [ -15.4149705, 28.0824426 ], [ -15.4157434, 28.0810229 ], [ -15.4152493, 28.0790498 ], [ -15.41326, 28.0766015 ], [ -15.4132649, 28.0755233 ], [ -15.4145, 28.0760582 ], [ -15.4146382, 28.0732287 ], [ -15.4169408, 28.0708774 ], [ -15.4168711, 28.0677077 ], [ -15.4193675, 28.0625953 ], [ -15.4194533, 28.060005 ], [ -15.4160287, 28.0546499 ], [ -15.414462, 28.0543726 ], [ -15.4144874, 28.0553824 ], [ -15.4132593, 28.0535438 ], [ -15.41334, 28.0513548 ], [ -15.4139669, 28.051313 ], [ -15.4134941, 28.0506843 ], [ -15.4160355, 28.0478504 ], [ -15.4146069, 28.0452375 ], [ -15.4117925, 28.0434267 ], [ -15.4099519, 28.0448858 ], [ -15.4088213, 28.0441894 ], [ -15.4101407, 28.0442192 ], [ -15.4093578, 28.0436296 ], [ -15.4101142, 28.0424639 ], [ -15.4091572, 28.0416704 ], [ -15.4084333, 28.0424258 ], [ -15.4091022, 28.0416536 ], [ -15.4067055, 28.0395353 ], [ -15.4056616, 28.037392 ], [ -15.3972947, 28.0323461 ], [ -15.3941968, 28.0309358 ], [ -15.3924185, 28.0310684 ], [ -15.3921888, 28.0298108 ], [ -15.3904323, 28.028737 ], [ -15.3881594, 28.0299241 ], [ -15.3872126, 28.0293678 ], [ -15.387627, 28.0283495 ], [ -15.3860805, 28.0263704 ], [ -15.3868707, 28.0253186 ], [ -15.384958, 28.0220895 ], [ -15.3856784, 28.0188606 ], [ -15.3848266, 28.0164034 ], [ -15.3811127, 28.0144215 ], [ -15.3798878, 28.0123659 ], [ -15.3801441, 28.0115639 ], [ -15.3775788, 28.0096679 ], [ -15.3731911, 28.009428 ], [ -15.3745549, 28.0077971 ], [ -15.3764491, 28.0075439 ], [ -15.3767697, 28.0065566 ], [ -15.3747956, 28.0041309 ], [ -15.3750312, 28.0034905 ], [ -15.3735167, 28.0026001 ], [ -15.3741139, 28.0006815 ], [ -15.3753512, 28.0002589 ], [ -15.3750948, 27.9975524 ], [ -15.3733783, 27.9959088 ], [ -15.3700212, 27.9968059 ], [ -15.3706195, 27.9938493 ], [ -15.3697891, 27.9939477 ], [ -15.3693266, 27.9927962 ], [ -15.3677978, 27.9930478 ], [ -15.3671056, 27.9919136 ], [ -15.3674106, 27.9899514 ], [ -15.3687721, 27.9885456 ], [ -15.3676632, 27.9899352 ], [ -15.3679097, 27.9913596 ], [ -15.3696214, 27.9898514 ], [ -15.3693095, 27.9891946 ], [ -15.3733739, 27.9886983 ], [ -15.3753637, 27.9866012 ], [ -15.3747962, 27.9850013 ], [ -15.3777855, 27.9838557 ], [ -15.3771185, 27.9807106 ], [ -15.3754689, 27.9791829 ], [ -15.3755401, 27.9774961 ], [ -15.3768327, 27.9768262 ], [ -15.3769265, 27.9751495 ], [ -15.3778301, 27.9767124 ], [ -15.3812632, 27.9759211 ], [ -15.381586, 27.9750832 ], [ -15.3808784, 27.9746978 ], [ -15.3835366, 27.9725541 ], [ -15.3821761, 27.9708054 ], [ -15.3823893, 27.969678 ], [ -15.3843085, 27.9674238 ], [ -15.3826464, 27.9668593 ], [ -15.3822088, 27.9638273 ], [ -15.3805314, 27.9655087 ], [ -15.3789277, 27.9645656 ], [ -15.3780475, 27.9628869 ], [ -15.3785975, 27.9616455 ], [ -15.3803834, 27.9623005 ], [ -15.3801852, 27.9595634 ], [ -15.3817736, 27.9577008 ], [ -15.3776602, 27.9556243 ], [ -15.3769731, 27.9539488 ], [ -15.3791479, 27.9518865 ], [ -15.3808338, 27.9514787 ], [ -15.3795051, 27.9480805 ], [ -15.3777456, 27.9465034 ], [ -15.3747329, 27.9471782 ], [ -15.3738746, 27.9466171 ], [ -15.3747243, 27.9453661 ], [ -15.3733682, 27.9455935 ], [ -15.3710422, 27.9440998 ], [ -15.3694543, 27.9453661 ], [ -15.3681755, 27.9451159 ], [ -15.3675146, 27.9445624 ], [ -15.3692483, 27.9419161 ], [ -15.36942, 27.9401645 ], [ -15.3680725, 27.9388452 ], [ -15.3647594, 27.9392167 ], [ -15.3609399, 27.9367826 ], [ -15.3585624, 27.9343864 ], [ -15.3595363, 27.9328813 ], [ -15.358281, 27.9312625 ], [ -15.3594466, 27.9290438 ], [ -15.3613926, 27.9293476 ], [ -15.3616538, 27.9283414 ], [ -15.3619456, 27.9296407 ], [ -15.3694154, 27.9328008 ], [ -15.37248, 27.9357314 ], [ -15.3736003, 27.9357297 ], [ -15.3780606, 27.933627 ], [ -15.380113, 27.9304912 ], [ -15.3823448, 27.92927 ], [ -15.3844854, 27.9264752 ], [ -15.3848848, 27.9229297 ], [ -15.3841148, 27.9204099 ], [ -15.3856106, 27.9194045 ], [ -15.3846989, 27.9188725 ], [ -15.3861427, 27.9171541 ], [ -15.3867052, 27.9136851 ], [ -15.3848193, 27.9112232 ], [ -15.3863244, 27.9118889 ], [ -15.3868353, 27.9110862 ], [ -15.3859424, 27.9082777 ], [ -15.3846754, 27.9083632 ], [ -15.385933, 27.9080255 ], [ -15.3867559, 27.9019016 ], [ -15.3885669, 27.8973478 ], [ -15.3905858, 27.8941114 ], [ -15.3938295, 27.891406 ], [ -15.3939725, 27.8903298 ], [ -15.3931796, 27.8858813 ], [ -15.3900618, 27.879891 ], [ -15.3872559, 27.8785854 ], [ -15.3876418, 27.8776637 ], [ -15.3852128, 27.8780987 ], [ -15.3855792, 27.8757409 ], [ -15.3832436, 27.8763537 ], [ -15.3807282, 27.8759027 ], [ -15.3835946, 27.8726918 ], [ -15.3823835, 27.8716538 ], [ -15.3827626, 27.8710964 ], [ -15.3856192, 27.8713894 ], [ -15.3865742, 27.8703261 ], [ -15.385785, 27.8689935 ], [ -15.3867124, 27.8663375 ], [ -15.3838366, 27.8638618 ], [ -15.3838351, 27.8620226 ], [ -15.385789, 27.8616444 ], [ -15.3867282, 27.8606062 ], [ -15.3853434, 27.8574611 ], [ -15.3874979, 27.8575258 ], [ -15.3899868, 27.8550087 ], [ -15.3911946, 27.8549632 ], [ -15.3916696, 27.8558094 ], [ -15.391939, 27.8551143 ], [ -15.3942182, 27.8549952 ], [ -15.3941814, 27.8559522 ], [ -15.3952495, 27.856813 ], [ -15.3985915, 27.8562832 ], [ -15.3987964, 27.8546644 ], [ -15.4033377, 27.8492961 ], [ -15.3966082, 27.8455265 ], [ -15.3994021, 27.8420623 ], [ -15.3976186, 27.844784 ], [ -15.4042992, 27.8486235 ], [ -15.4060115, 27.847829 ], [ -15.4126962, 27.8478062 ], [ -15.4161144, 27.8443905 ], [ -15.4190247, 27.8389161 ], [ -15.4190964, 27.83622 ], [ -15.418072, 27.8348959 ], [ -15.4213625, 27.8330076 ], [ -15.4225862, 27.8303958 ], [ -15.4223762, 27.8266699 ], [ -15.4214557, 27.8256409 ], [ -15.4226336, 27.8255739 ], [ -15.4229751, 27.8239832 ], [ -15.4220524, 27.8238857 ], [ -15.4231073, 27.8235106 ], [ -15.4233245, 27.8223587 ], [ -15.4206998, 27.8169584 ], [ -15.4211434, 27.8145955 ], [ -15.4225163, 27.8126295 ], [ -15.4225583, 27.8105654 ], [ -15.428914, 27.8043686 ], [ -15.4336585, 27.8026874 ], [ -15.4323693, 27.8003404 ], [ -15.4326355, 27.7998108 ], [ -15.4339092, 27.7992035 ], [ -15.4327391, 27.8004154 ], [ -15.4340644, 27.8024572 ], [ -15.4352432, 27.8018596 ], [ -15.4338554, 27.8001579 ], [ -15.4352823, 27.8016094 ], [ -15.4462151, 27.798934 ], [ -15.4582482, 27.7986185 ], [ -15.4628942, 27.7969081 ], [ -15.4627863, 27.794762 ], [ -15.4639088, 27.7946831 ], [ -15.4629037, 27.7952223 ], [ -15.4630861, 27.7967124 ], [ -15.4641376, 27.7969212 ], [ -15.4737721, 27.7936278 ], [ -15.4795387, 27.7937816 ], [ -15.4874952, 27.7927718 ], [ -15.495486, 27.7897422 ], [ -15.4992209, 27.7864154 ], [ -15.5017087, 27.785657 ], [ -15.5034275, 27.7833913 ], [ -15.5083263, 27.7805769 ], [ -15.5114848, 27.7804478 ], [ -15.5137247, 27.7818224 ], [ -15.5168569, 27.781837 ], [ -15.5269737, 27.7769345 ], [ -15.5292681, 27.7752832 ], [ -15.5298011, 27.773879 ], [ -15.5319485, 27.7731956 ], [ -15.5342686, 27.7699997 ], [ -15.5363481, 27.7696942 ], [ -15.5383341, 27.7704006 ], [ -15.5409331, 27.7689896 ], [ -15.5431321, 27.7664134 ], [ -15.549799, 27.7673731 ], [ -15.5513836, 27.7659596 ], [ -15.5508554, 27.7650366 ], [ -15.5523961, 27.7657439 ], [ -15.5543005, 27.7651863 ], [ -15.5573082, 27.763927 ], [ -15.5589268, 27.7619677 ], [ -15.5591924, 27.7629019 ], [ -15.5608374, 27.7624607 ], [ -15.5617167, 27.7605107 ], [ -15.5617958, 27.7611795 ], [ -15.5631119, 27.7608879 ], [ -15.5640234, 27.7588746 ], [ -15.565421, 27.7582424 ], [ -15.5670165, 27.7546562 ], [ -15.568287, 27.7492344 ], [ -15.568926, 27.7399533 ], [ -15.5700655, 27.737808 ], [ -15.5793568, 27.7355963 ], [ -15.5914369, 27.7361907 ], [ -15.5990021, 27.7345882 ], [ -15.6061771, 27.7391975 ], [ -15.6107906, 27.7439984 ], [ -15.619563, 27.7489084 ], [ -15.6216463, 27.7486067 ], [ -15.6216758, 27.7467497 ], [ -15.6219951, 27.7472976 ], [ -15.6253837, 27.7470211 ], [ -15.6253568, 27.7462045 ], [ -15.6214899, 27.7463204 ], [ -15.6211102, 27.7454876 ], [ -15.626828, 27.7458595 ], [ -15.6285913, 27.7450336 ], [ -15.6327214, 27.7462767 ], [ -15.6345788, 27.7485546 ], [ -15.6367731, 27.7483373 ], [ -15.6374599, 27.7501339 ], [ -15.6469835, 27.7510194 ], [ -15.6514142, 27.7545032 ], [ -15.6586798, 27.7565772 ], [ -15.6617132, 27.7566403 ], [ -15.6637094, 27.7555811 ], [ -15.6702261, 27.7544468 ], [ -15.6720976, 27.7520539 ], [ -15.671211, 27.7501704 ], [ -15.6722912, 27.7504123 ], [ -15.672978, 27.749638 ], [ -15.6690314, 27.748624 ], [ -15.6688582, 27.7480049 ], [ -15.6746525, 27.7491892 ], [ -15.6751895, 27.7515677 ], [ -15.6794429, 27.7557744 ], [ -15.6808105, 27.7563615 ], [ -15.6831078, 27.7551692 ], [ -15.6857615, 27.756365 ], [ -15.6866283, 27.7586512 ], [ -15.6846668, 27.756326 ], [ -15.6833886, 27.7576944 ], [ -15.6843897, 27.7581894 ], [ -15.6848646, 27.757626 ], [ -15.6845237, 27.7583626 ], [ -15.682784, 27.7577458 ], [ -15.6822807, 27.7595104 ], [ -15.6841214, 27.7600962 ], [ -15.684382, 27.7615444 ], [ -15.6852651, 27.761373 ], [ -15.6855617, 27.7634389 ], [ -15.6871589, 27.763772 ], [ -15.6888256, 27.768031 ], [ -15.6884624, 27.7695942 ], [ -15.6898465, 27.7711305 ], [ -15.6921988, 27.7713194 ], [ -15.6934995, 27.7720037 ], [ -15.6922511, 27.7715969 ], [ -15.6929937, 27.7726391 ], [ -15.6946423, 27.7728084 ], [ -15.6950149, 27.7721183 ], [ -15.6954071, 27.7727899 ], [ -15.6964172, 27.7720501 ], [ -15.6956113, 27.7716617 ], [ -15.6967198, 27.7710022 ], [ -15.697575, 27.7719409 ], [ -15.6986224, 27.7713014 ], [ -15.6970388, 27.7704718 ], [ -15.6981608, 27.7703039 ], [ -15.6959348, 27.7696297 ], [ -15.7004213, 27.7708409 ], [ -15.701294, 27.7721399 ], [ -15.7009333, 27.7736059 ], [ -15.7036281, 27.7769786 ], [ -15.705743, 27.7772568 ], [ -15.7058734, 27.7780862 ], [ -15.7110613, 27.7810632 ], [ -15.7101998, 27.7810007 ], [ -15.709394, 27.7826493 ], [ -15.7108733, 27.7830879 ], [ -15.7124682, 27.7823048 ], [ -15.7113478, 27.7798034 ], [ -15.7129355, 27.7824183 ], [ -15.7120412, 27.7833292 ], [ -15.7129381, 27.7828584 ], [ -15.713451, 27.7829338 ], [ -15.7123986, 27.784176 ], [ -15.715309, 27.7838788 ], [ -15.7160494, 27.783125 ], [ -15.7141214, 27.7826435 ], [ -15.7154189, 27.7822052 ], [ -15.7190549, 27.7845986 ], [ -15.720198, 27.7865657 ], [ -15.7254809, 27.7882543 ], [ -15.7257896, 27.7889411 ], [ -15.7243201, 27.7882875 ], [ -15.7241662, 27.7900656 ], [ -15.7262784, 27.7910383 ], [ -15.7262143, 27.7896317 ], [ -15.7267426, 27.7899931 ], [ -15.7285577, 27.7927407 ], [ -15.7275755, 27.7950741 ], [ -15.7305964, 27.798163 ], [ -15.7316711, 27.7986356 ], [ -15.7352521, 27.7975312 ], [ -15.7373762, 27.7987289 ], [ -15.7385378, 27.7984363 ], [ -15.7394112, 27.8014885 ], [ -15.7414454, 27.8006381 ], [ -15.7427886, 27.8043052 ], [ -15.7455481, 27.805034 ], [ -15.7455309, 27.8072054 ], [ -15.7489212, 27.806765 ], [ -15.7537361, 27.8148046 ], [ -15.7553056, 27.814677 ], [ -15.756623, 27.8158701 ], [ -15.7612558, 27.8172992 ], [ -15.762915, 27.8169111 ], [ -15.7621662, 27.8173356 ], [ -15.7631103, 27.8180427 ], [ -15.7638613, 27.8178193 ], [ -15.7639107, 27.816341 ], [ -15.7646992, 27.8172439 ], [ -15.7658879, 27.8173205 ], [ -15.765956, 27.8165999 ], [ -15.7669747, 27.8171802 ], [ -15.7661828, 27.8159514 ], [ -15.7634438, 27.8154878 ], [ -15.7662161, 27.8156548 ], [ -15.7673491, 27.8163001 ], [ -15.7673569, 27.8174469 ], [ -15.7733425, 27.8221953 ], [ -15.7764045, 27.8275061 ], [ -15.7787653, 27.8299893 ], [ -15.7811592, 27.8298725 ], [ -15.7834339, 27.8310518 ], [ -15.7874592, 27.8345404 ], [ -15.791828, 27.8418569 ], [ -15.7908349, 27.845108 ], [ -15.7925576, 27.8476703 ], [ -15.7959393, 27.8484899 ], [ -15.7961882, 27.8490819 ], [ -15.7951668, 27.8499167 ], [ -15.7963255, 27.8527777 ], [ -15.7986344, 27.8530508 ], [ -15.7991493, 27.8552288 ], [ -15.7981439, 27.856247 ], [ -15.7990206, 27.8586967 ], [ -15.8004797, 27.8606089 ], [ -15.8018273, 27.8608062 ], [ -15.801278, 27.8616333 ], [ -15.8024796, 27.8647824 ], [ -15.8065651, 27.8726052 ], [ -15.8106249, 27.8760877 ], [ -15.8110712, 27.8784928 ], [ -15.8123158, 27.8788873 ], [ -15.8150023, 27.8873843 ], [ -15.8177489, 27.8911091 ], [ -15.8180227, 27.892981 ], [ -15.8213709, 27.8957593 ], [ -15.8235768, 27.8999238 ], [ -15.8256834, 27.9012458 ], [ -15.8257225, 27.9024497 ], [ -15.8268555, 27.9027227 ], [ -15.8278769, 27.9058175 ], [ -15.8314646, 27.9076985 ], [ -15.8341082, 27.912932 ], [ -15.8338507, 27.922397 ], [ -15.8319453, 27.9230037 ], [ -15.8316019, 27.9282971 ], [ -15.8294619, 27.9319233 ], [ -15.8301486, 27.9338191 ], [ -15.8295821, 27.9378987 ], [ -15.8300843, 27.9386353 ], [ -15.828137, 27.9420288 ], [ -15.8279648, 27.9470085 ], [ -15.8282651, 27.9494221 ], [ -15.8309983, 27.9529949 ], [ -15.8302292, 27.9553959 ], [ -15.8309551, 27.9581633 ], [ -15.8332556, 27.9593179 ], [ -15.8340109, 27.9614103 ], [ -15.8331526, 27.9617666 ], [ -15.8329123, 27.9640788 ], [ -15.8346547, 27.9701055 ], [ -15.8332299, 27.9746992 ] ] ], [ [ [ -15.8009146, 28.0184734 ], [ -15.8007086, 28.0184128 ], [ -15.8007687, 28.0182461 ], [ -15.8009146, 28.0184734 ] ] ], [ [ [ -15.7204312, 28.0726739 ], [ -15.7205599, 28.0725451 ], [ -15.7205599, 28.0729011 ], [ -15.7204312, 28.0726739 ] ] ], [ [ [ -15.7188433, 28.0746657 ], [ -15.7186116, 28.0749459 ], [ -15.7185601, 28.0747187 ], [ -15.7188433, 28.0746657 ] ] ], [ [ [ -15.7177876, 28.0757562 ], [ -15.7182683, 28.0758546 ], [ -15.7178391, 28.0759834 ], [ -15.7177876, 28.0757562 ] ] ], [ [ [ -15.7042074, 28.1425145 ], [ -15.704686, 28.142326 ], [ -15.7045841, 28.1426892 ], [ -15.7042074, 28.1425145 ] ] ], [ [ [ -15.4960354, 28.1467408 ], [ -15.4963959, 28.1468089 ], [ -15.496207, 28.1471192 ], [ -15.4960354, 28.1467408 ] ] ], [ [ [ -15.4968594, 28.1467862 ], [ -15.4969194, 28.1467635 ], [ -15.4969452, 28.1469602 ], [ -15.4968594, 28.1467862 ] ] ], [ [ [ -15.4969881, 28.1473916 ], [ -15.4969109, 28.1473992 ], [ -15.4969452, 28.1472932 ], [ -15.4969881, 28.1473916 ] ] ], [ [ [ -15.60583, 28.1485117 ], [ -15.6057184, 28.1483754 ], [ -15.6058472, 28.148383 ], [ -15.60583, 28.1485117 ] ] ], [ [ [ -15.6095722, 28.1486403 ], [ -15.6094006, 28.1486176 ], [ -15.6095808, 28.1484965 ], [ -15.6095722, 28.1486403 ] ] ], [ [ [ -15.5101288, 28.1485722 ], [ -15.5100344, 28.1488901 ], [ -15.5099829, 28.1485117 ], [ -15.5101288, 28.1485722 ] ] ], [ [ [ -15.6061304, 28.1486555 ], [ -15.6059759, 28.1488295 ], [ -15.6059759, 28.1486782 ], [ -15.6061304, 28.1486555 ] ] ], [ [ [ -15.5103691, 28.1488144 ], [ -15.5103777, 28.1490339 ], [ -15.5102575, 28.1489052 ], [ -15.5103691, 28.1488144 ] ] ], [ [ [ -15.5293806, 28.1553453 ], [ -15.5295608, 28.1555345 ], [ -15.5293291, 28.1554437 ], [ -15.5293806, 28.1553453 ] ] ], [ [ [ -15.698244, 28.1642942 ], [ -15.6979865, 28.1639915 ], [ -15.6983727, 28.1639159 ], [ -15.698244, 28.1642942 ] ] ], [ [ [ -15.6577061, 28.1642518 ], [ -15.6579206, 28.1643729 ], [ -15.6577404, 28.164388 ], [ -15.6577061, 28.1642518 ] ] ], [ [ [ -15.6487196, 28.1667337 ], [ -15.6487968, 28.1664916 ], [ -15.6488398, 28.1665975 ], [ -15.6487196, 28.1667337 ] ] ], [ [ [ -15.4655744, 28.1274025 ], [ -15.4657598, 28.1273633 ], [ -15.465756, 28.1274448 ], [ -15.4655744, 28.1274025 ] ] ], [ [ [ -15.4601149, 28.1285203 ], [ -15.4600169, 28.128381 ], [ -15.460202, 28.1283426 ], [ -15.4601149, 28.1285203 ] ] ], [ [ [ -15.4645698, 28.1282731 ], [ -15.4645698, 28.1286062 ], [ -15.4643896, 28.1286364 ], [ -15.4645698, 28.1282731 ] ] ], [ [ [ -15.463497, 28.1289922 ], [ -15.4636257, 28.1289165 ], [ -15.463557, 28.1290528 ], [ -15.463497, 28.1289922 ] ] ], [ [ [ -15.4642094, 28.1291057 ], [ -15.4641922, 28.1289165 ], [ -15.464278, 28.12903 ], [ -15.4642094, 28.1291057 ] ] ], [ [ [ -15.463866, 28.129136 ], [ -15.4635828, 28.1292193 ], [ -15.4637201, 28.1289998 ], [ -15.463866, 28.129136 ] ] ], [ [ [ -15.4581926, 28.1291057 ], [ -15.4581325, 28.129189 ], [ -15.458081, 28.1290679 ], [ -15.4581926, 28.1291057 ] ] ], [ [ [ -15.4629391, 28.1292117 ], [ -15.4627502, 28.1293328 ], [ -15.4628961, 28.1290906 ], [ -15.4629391, 28.1292117 ] ] ], [ [ [ -15.4574287, 28.1294539 ], [ -15.4571455, 28.1298702 ], [ -15.4566992, 28.1300595 ], [ -15.456785, 28.1299081 ], [ -15.4574287, 28.1294539 ] ] ], [ [ [ -15.4497469, 28.1322924 ], [ -15.449395, 28.132527 ], [ -15.4494067, 28.1322185 ], [ -15.4497469, 28.1322924 ] ] ], [ [ [ -15.4423351, 28.1368933 ], [ -15.4417428, 28.1371204 ], [ -15.4423007, 28.1367874 ], [ -15.4423351, 28.1368933 ] ] ], [ [ [ -15.4414081, 28.1373172 ], [ -15.4414939, 28.1373777 ], [ -15.4413308, 28.1374837 ], [ -15.4414081, 28.1373172 ] ] ], [ [ [ -15.4413223, 28.1379 ], [ -15.4413823, 28.1377183 ], [ -15.4414939, 28.1378016 ], [ -15.4413223, 28.1379 ] ] ], [ [ [ -15.4410567, 28.1379791 ], [ -15.4408164, 28.1381683 ], [ -15.4405246, 28.1381683 ], [ -15.4410567, 28.1379791 ] ] ], [ [ [ -15.4395785, 28.1390021 ], [ -15.4397116, 28.1391469 ], [ -15.4395284, 28.1391307 ], [ -15.4395785, 28.1390021 ] ] ], [ [ [ -15.4389716, 28.1402153 ], [ -15.4361176, 28.1443458 ], [ -15.4356574, 28.1446813 ], [ -15.4389716, 28.1402153 ] ] ], [ [ [ -15.4959581, 28.1468618 ], [ -15.495838, 28.1467635 ], [ -15.4959667, 28.1467105 ], [ -15.4959581, 28.1468618 ] ] ], [ [ [ -15.4343378, 28.1539784 ], [ -15.4340162, 28.154039 ], [ -15.4339962, 28.1538945 ], [ -15.4343378, 28.1539784 ] ] ], [ [ [ -15.3812561, 27.8618382 ], [ -15.3812904, 27.8608745 ], [ -15.3822431, 27.8614588 ], [ -15.3812561, 27.8618382 ] ] ], [ [ [ -15.3835247, 27.8624544 ], [ -15.3836207, 27.8625291 ], [ -15.3835153, 27.8625116 ], [ -15.3835247, 27.8624544 ] ] ], [ [ [ -15.3596642, 27.9393194 ], [ -15.3588471, 27.9392486 ], [ -15.3588302, 27.9390989 ], [ -15.3596642, 27.9393194 ] ] ], [ [ [ -15.3634488, 27.9909139 ], [ -15.3635604, 27.991073 ], [ -15.3633715, 27.9912094 ], [ -15.3634488, 27.9909139 ] ] ], [ [ [ -15.3642299, 27.9918991 ], [ -15.3640496, 27.9920356 ], [ -15.3641354, 27.9918158 ], [ -15.3642299, 27.9918991 ] ] ], [ [ [ -15.3642985, 27.992369 ], [ -15.3638951, 27.9922326 ], [ -15.36435, 27.9921113 ], [ -15.3642985, 27.992369 ] ] ], [ [ [ -15.3846947, 28.0275528 ], [ -15.3850603, 28.0275784 ], [ -15.3846061, 28.0276887 ], [ -15.3846947, 28.0275528 ] ] ], [ [ [ -15.3855794, 28.0279637 ], [ -15.3847224, 28.027931 ], [ -15.3857538, 28.0275432 ], [ -15.3855794, 28.0279637 ] ] ], [ [ [ -15.3870297, 28.0296756 ], [ -15.3866384, 28.0294128 ], [ -15.3869744, 28.0293115 ], [ -15.3870297, 28.0296756 ] ] ], [ [ [ -15.4337494, 28.1451074 ], [ -15.4341461, 28.1449857 ], [ -15.4337955, 28.145223 ], [ -15.4337494, 28.1451074 ] ] ], [ [ [ -15.4016474, 28.1700478 ], [ -15.4016731, 28.1701992 ], [ -15.4014662, 28.1701483 ], [ -15.4016474, 28.1700478 ] ] ], [ [ [ -15.4037416, 28.1707061 ], [ -15.4037931, 28.1705472 ], [ -15.4038532, 28.1706304 ], [ -15.4037416, 28.1707061 ] ] ], [ [ [ -15.4030979, 28.1708801 ], [ -15.4023683, 28.1707969 ], [ -15.4034326, 28.1704261 ], [ -15.4030979, 28.1708801 ] ] ], [ [ [ -15.4016645, 28.1709558 ], [ -15.4018705, 28.1708045 ], [ -15.4019306, 28.1709825 ], [ -15.4016645, 28.1709558 ] ] ], [ [ [ -15.4021795, 28.1721361 ], [ -15.4019049, 28.1724388 ], [ -15.4017847, 28.1723329 ], [ -15.4021795, 28.1721361 ] ] ], [ [ [ -15.4143331, 28.1794298 ], [ -15.4141872, 28.179513 ], [ -15.4141958, 28.1792406 ], [ -15.4143331, 28.1794298 ] ] ], [ [ [ -15.4068487, 28.1805344 ], [ -15.406411, 28.1795811 ], [ -15.4079473, 28.1797324 ], [ -15.4068487, 28.1805344 ] ] ] ] } }
]
}
