{
"type": "FeatureCollection",
"name": "guernsey",
"crs": { "type": "name", "properties": { "name": "urn:ogc:def:crs:OGC:1.3:CRS84" } },
"features": [
{ "type": "Feature", "properties": { }, "geometry": { "type": "Polygon", "coordinates": [ [ [ -2.6683929, 49.4248824 ], [ -2.6667347, 49.4239041 ], [ -2.6665891, 49.4252802 ], [ -2.6655686, 49.4256121 ], [ -2.6641216, 49.4246654 ], [ -2.6648075, 49.4243661 ], [ -2.6637953, 49.4231963 ], [ -2.6630091, 49.4239744 ], [ -2.6632349, 49.425253 ], [ -2.6618464, 49.4231311 ], [ -2.6592697, 49.4245034 ], [ -2.6569921, 49.423524 ], [ -2.6527594, 49.4250135 ], [ -2.651159, 49.424004 ], [ -2.6498128, 49.425008 ], [ -2.6500686, 49.4255772 ], [ -2.6485047, 49.426216 ], [ -2.6465396, 49.4262838 ], [ -2.6467547, 49.4251655 ], [ -2.6444483, 49.42642 ], [ -2.643053, 49.4255149 ], [ -2.643076, 49.4245892 ], [ -2.6399255, 49.4245509 ], [ -2.6381801, 49.4227535 ], [ -2.633873, 49.423181 ], [ -2.6335739, 49.4238175 ], [ -2.6306608, 49.4222087 ], [ -2.6290469, 49.4228642 ], [ -2.6278415, 49.4224626 ], [ -2.6266758, 49.4213416 ], [ -2.6276873, 49.4211574 ], [ -2.6272925, 49.4206656 ], [ -2.6226618, 49.4208614 ], [ -2.6190751, 49.4188111 ], [ -2.6181984, 49.4197558 ], [ -2.6168199, 49.41892 ], [ -2.6169916, 49.4196118 ], [ -2.6136079, 49.4202694 ], [ -2.6139369, 49.4182051 ], [ -2.6116757, 49.4177133 ], [ -2.6116325, 49.4184982 ], [ -2.6106903, 49.4186893 ], [ -2.6114197, 49.4194598 ], [ -2.6101817, 49.4189504 ], [ -2.6103156, 49.4197645 ], [ -2.6078865, 49.4204131 ], [ -2.6051228, 49.4188895 ], [ -2.6028275, 49.4198124 ], [ -2.602269, 49.41936 ], [ -2.6027606, 49.4187894 ], [ -2.6015628, 49.4179927 ], [ -2.6008066, 49.4187894 ], [ -2.593567, 49.4187238 ], [ -2.5936464, 49.4173398 ], [ -2.5929036, 49.417688 ], [ -2.5915318, 49.4164212 ], [ -2.5915251, 49.417096 ], [ -2.5905749, 49.4171656 ], [ -2.5915787, 49.4179884 ], [ -2.5911583, 49.4188239 ], [ -2.5923712, 49.4194071 ], [ -2.5916165, 49.4194085 ], [ -2.5919961, 49.4205437 ], [ -2.5862654, 49.4199778 ], [ -2.585168, 49.4203304 ], [ -2.5857033, 49.4211836 ], [ -2.5844051, 49.421806 ], [ -2.5832758, 49.4206144 ], [ -2.5824801, 49.4218898 ], [ -2.5835919, 49.4237745 ], [ -2.5815946, 49.4235814 ], [ -2.5825339, 49.4252879 ], [ -2.5817505, 49.4257439 ], [ -2.5795947, 49.424955 ], [ -2.5791129, 49.422783 ], [ -2.578437, 49.4253772 ], [ -2.5766365, 49.4236923 ], [ -2.5748971, 49.4237362 ], [ -2.5745527, 49.4244072 ], [ -2.5717419, 49.4233187 ], [ -2.5704084, 49.424945 ], [ -2.5696466, 49.424212 ], [ -2.5704841, 49.4237898 ], [ -2.5691698, 49.4226563 ], [ -2.5666793, 49.4229084 ], [ -2.5663946, 49.4220172 ], [ -2.5673191, 49.421534 ], [ -2.5669087, 49.4196476 ], [ -2.5636778, 49.4180117 ], [ -2.5642088, 49.4174411 ], [ -2.5630304, 49.416886 ], [ -2.5631981, 49.4155331 ], [ -2.5618071, 49.4169931 ], [ -2.5606025, 49.4169583 ], [ -2.5616221, 49.4175481 ], [ -2.5594396, 49.417927 ], [ -2.559539, 49.4198906 ], [ -2.5576881, 49.4187459 ], [ -2.5559655, 49.420421 ], [ -2.5554413, 49.4198683 ], [ -2.5558661, 49.4205124 ], [ -2.5580863, 49.4221104 ], [ -2.5575627, 49.4222451 ], [ -2.5580971, 49.4233582 ], [ -2.5543394, 49.4218408 ], [ -2.5526078, 49.4224937 ], [ -2.5526284, 49.4217716 ], [ -2.5523975, 49.4227376 ], [ -2.5527206, 49.4243652 ], [ -2.5500896, 49.4232626 ], [ -2.5484829, 49.4244823 ], [ -2.5486025, 49.4251916 ], [ -2.5471636, 49.4255691 ], [ -2.547842, 49.4267725 ], [ -2.5464099, 49.427568 ], [ -2.5462111, 49.4262065 ], [ -2.5446831, 49.4256427 ], [ -2.5426275, 49.4259996 ], [ -2.5413734, 49.4250476 ], [ -2.5400363, 49.4258772 ], [ -2.5378885, 49.425771 ], [ -2.5403421, 49.4230286 ], [ -2.5402828, 49.4208339 ], [ -2.5412295, 49.4196944 ], [ -2.5388658, 49.4200479 ], [ -2.5385377, 49.4193952 ], [ -2.5397581, 49.4189017 ], [ -2.5394307, 49.4178133 ], [ -2.5374026, 49.4180757 ], [ -2.5372259, 49.4192055 ], [ -2.5359835, 49.4191343 ], [ -2.5345621, 49.4198995 ], [ -2.5346705, 49.4205345 ], [ -2.5338701, 49.4199329 ], [ -2.5331936, 49.4204907 ], [ -2.5330694, 49.4195518 ], [ -2.5315794, 49.4190991 ], [ -2.5324161, 49.4206148 ], [ -2.5306821, 49.4213999 ], [ -2.5312569, 49.4231544 ], [ -2.5294135, 49.4230163 ], [ -2.5280637, 49.4215749 ], [ -2.5290075, 49.4236744 ], [ -2.5280182, 49.4239836 ], [ -2.5294058, 49.4239056 ], [ -2.5291231, 49.424641 ], [ -2.5303265, 49.4255826 ], [ -2.5301167, 49.4276411 ], [ -2.530691, 49.4272772 ], [ -2.532698, 49.4288329 ], [ -2.531424, 49.4298746 ], [ -2.533184, 49.4301782 ], [ -2.533698, 49.4329635 ], [ -2.5371188, 49.4346555 ], [ -2.5354607, 49.4364918 ], [ -2.5336791, 49.4358553 ], [ -2.5333184, 49.4369305 ], [ -2.534117, 49.437307 ], [ -2.5343554, 49.4388224 ], [ -2.5329926, 49.4420703 ], [ -2.5334637, 49.4446448 ], [ -2.5329643, 49.4457928 ], [ -2.5294888, 49.4457538 ], [ -2.5305237, 49.4466896 ], [ -2.5294928, 49.4477521 ], [ -2.5324951, 49.449214 ], [ -2.5321757, 49.4496161 ], [ -2.5353808, 49.4502912 ], [ -2.5356422, 49.452295 ], [ -2.5278444, 49.4534515 ], [ -2.5258086, 49.4520465 ], [ -2.5261515, 49.4540385 ], [ -2.5241732, 49.4550681 ], [ -2.5283734, 49.4534664 ], [ -2.5287838, 49.4541728 ], [ -2.531122, 49.4538433 ], [ -2.5318136, 49.4546572 ], [ -2.5326432, 49.4540586 ], [ -2.5316531, 49.4543434 ], [ -2.5309992, 49.4532191 ], [ -2.5332877, 49.4528721 ], [ -2.5333864, 49.4539738 ], [ -2.5334171, 49.4528405 ], [ -2.5352858, 49.4527842 ], [ -2.5351166, 49.4543245 ], [ -2.5329392, 49.4543594 ], [ -2.5337703, 49.4554504 ], [ -2.5341544, 49.4546136 ], [ -2.5357215, 49.4547133 ], [ -2.5354347, 49.4561702 ], [ -2.5335362, 49.4556977 ], [ -2.5334619, 49.4563022 ], [ -2.5343798, 49.4563549 ], [ -2.533659, 49.457626 ], [ -2.5353054, 49.4564157 ], [ -2.5343971, 49.4581442 ], [ -2.5326016, 49.4581602 ], [ -2.5326198, 49.4574202 ], [ -2.5313742, 49.4573819 ], [ -2.5309177, 49.4581377 ], [ -2.5304908, 49.4573573 ], [ -2.5302701, 49.4579898 ], [ -2.5293374, 49.4564032 ], [ -2.5287925, 49.4565639 ], [ -2.5290548, 49.4579626 ], [ -2.526684, 49.4561181 ], [ -2.5263154, 49.4562263 ], [ -2.5280776, 49.4582272 ], [ -2.5295483, 49.4617441 ], [ -2.5287447, 49.4589588 ], [ -2.5337522, 49.4593512 ], [ -2.5325876, 49.461553 ], [ -2.5302382, 49.4611057 ], [ -2.5319376, 49.4628311 ], [ -2.5330295, 49.4625811 ], [ -2.5358393, 49.4645641 ], [ -2.5359094, 49.4661305 ], [ -2.533583, 49.4695208 ], [ -2.5337518, 49.4711902 ], [ -2.5276178, 49.4752273 ], [ -2.5215773, 49.476176 ], [ -2.520055, 49.4756754 ], [ -2.5157117, 49.4771907 ], [ -2.5119255, 49.476701 ], [ -2.5083013, 49.4783993 ], [ -2.5078247, 49.4800401 ], [ -2.5100879, 49.4806377 ], [ -2.5114763, 49.4801262 ], [ -2.5129905, 49.4807437 ], [ -2.5124646, 49.4815607 ], [ -2.5174496, 49.4824728 ], [ -2.5165122, 49.4830155 ], [ -2.5197114, 49.4829682 ], [ -2.5194177, 49.483549 ], [ -2.5164673, 49.4835258 ], [ -2.5142545, 49.4831424 ], [ -2.5136858, 49.4823418 ], [ -2.5140261, 49.4831312 ], [ -2.5126629, 49.4832987 ], [ -2.51181, 49.4817831 ], [ -2.5120118, 49.4824426 ], [ -2.5080513, 49.484712 ], [ -2.507872, 49.4856652 ], [ -2.5090799, 49.4870338 ], [ -2.5066095, 49.4883113 ], [ -2.5087562, 49.4901351 ], [ -2.5050569, 49.4907398 ], [ -2.5037338, 49.4901013 ], [ -2.5024683, 49.4944926 ], [ -2.5026922, 49.496636 ], [ -2.501814, 49.4974762 ], [ -2.503276, 49.4992924 ], [ -2.5026076, 49.4999541 ], [ -2.5044997, 49.5009543 ], [ -2.503525, 49.5027579 ], [ -2.5056134, 49.5048377 ], [ -2.5048441, 49.5057467 ], [ -2.5070968, 49.50607 ], [ -2.510391, 49.5043743 ], [ -2.5155339, 49.505186 ], [ -2.5171342, 49.5072095 ], [ -2.5169302, 49.5081257 ], [ -2.5186254, 49.5090776 ], [ -2.5187032, 49.5073721 ], [ -2.5207712, 49.5053946 ], [ -2.5204423, 49.5038341 ], [ -2.5230242, 49.5032284 ], [ -2.523379, 49.5020376 ], [ -2.5265148, 49.5017666 ], [ -2.5307822, 49.502592 ], [ -2.5340436, 49.5042825 ], [ -2.5310841, 49.5078891 ], [ -2.5348853, 49.5064941 ], [ -2.5368548, 49.5083156 ], [ -2.5395155, 49.5071842 ], [ -2.5428036, 49.5077697 ], [ -2.5437638, 49.5065282 ], [ -2.5479219, 49.506057 ], [ -2.5483148, 49.5051757 ], [ -2.5470032, 49.5043516 ], [ -2.5437255, 49.5045233 ], [ -2.5407788, 49.5029537 ], [ -2.5406007, 49.4995364 ], [ -2.5426392, 49.4976121 ], [ -2.5422889, 49.4957238 ], [ -2.5434895, 49.494022 ], [ -2.5418217, 49.4925797 ], [ -2.5430641, 49.4916052 ], [ -2.5461744, 49.4910231 ], [ -2.5479446, 49.4922069 ], [ -2.5481871, 49.4935231 ], [ -2.5529791, 49.4943864 ], [ -2.5542999, 49.4959122 ], [ -2.5528075, 49.4983232 ], [ -2.555951, 49.4984602 ], [ -2.5582416, 49.495654 ], [ -2.5620048, 49.4948094 ], [ -2.5642616, 49.4967969 ], [ -2.5669132, 49.4960514 ], [ -2.5682999, 49.4970364 ], [ -2.5709993, 49.496746 ], [ -2.5714166, 49.4963542 ], [ -2.5693336, 49.4961779 ], [ -2.5694801, 49.4947061 ], [ -2.5724091, 49.4928821 ], [ -2.5747506, 49.4943792 ], [ -2.5759764, 49.4930393 ], [ -2.5745736, 49.4918198 ], [ -2.5747184, 49.4901746 ], [ -2.5802262, 49.4891457 ], [ -2.578735, 49.4880789 ], [ -2.5794853, 49.4871517 ], [ -2.5822263, 49.486831 ], [ -2.5842059, 49.4881952 ], [ -2.5862498, 49.4872578 ], [ -2.5887699, 49.4884293 ], [ -2.589952, 49.488051 ], [ -2.5900333, 49.4875368 ], [ -2.5879806, 49.4872795 ], [ -2.5866295, 49.4854894 ], [ -2.5884829, 49.4807513 ], [ -2.591448, 49.4767244 ], [ -2.5959, 49.4752318 ], [ -2.5997476, 49.4755282 ], [ -2.6020129, 49.4742977 ], [ -2.6028443, 49.4749226 ], [ -2.6025067, 49.4730794 ], [ -2.6036111, 49.4723915 ], [ -2.6048553, 49.4724646 ], [ -2.6067423, 49.4740527 ], [ -2.6064136, 49.4752425 ], [ -2.6078617, 49.4754389 ], [ -2.6086149, 49.474264 ], [ -2.6099899, 49.4739858 ], [ -2.6128462, 49.4746584 ], [ -2.610858, 49.4734911 ], [ -2.607614, 49.4731896 ], [ -2.6064415, 49.4712773 ], [ -2.60702, 49.4680306 ], [ -2.6102749, 49.4654433 ], [ -2.6171967, 49.4635191 ], [ -2.6220923, 49.4632397 ], [ -2.6253107, 49.4643467 ], [ -2.6251643, 49.4656232 ], [ -2.6263437, 49.4669093 ], [ -2.6293191, 49.4674744 ], [ -2.629241, 49.4660154 ], [ -2.6320602, 49.4640435 ], [ -2.63099, 49.4630747 ], [ -2.6314631, 49.4619744 ], [ -2.635804, 49.4588839 ], [ -2.6393731, 49.4589651 ], [ -2.6419743, 49.4611044 ], [ -2.6467826, 49.4604544 ], [ -2.6532147, 49.4573344 ], [ -2.6574624, 49.4587071 ], [ -2.6577005, 49.4572059 ], [ -2.6595719, 49.4557573 ], [ -2.6570617, 49.4559156 ], [ -2.6543988, 49.4542854 ], [ -2.6529542, 49.4546993 ], [ -2.6507898, 49.4528493 ], [ -2.6492218, 49.4458606 ], [ -2.6500128, 49.44269 ], [ -2.653825, 49.4389298 ], [ -2.6534508, 49.4378812 ], [ -2.6542652, 49.4365131 ], [ -2.6582063, 49.4343066 ], [ -2.6640662, 49.4344479 ], [ -2.6659636, 49.4362596 ], [ -2.6679004, 49.435296 ], [ -2.669719, 49.4354805 ], [ -2.6712602, 49.4363803 ], [ -2.6713717, 49.4373193 ], [ -2.6729928, 49.4358535 ], [ -2.6739473, 49.4359847 ], [ -2.6751703, 49.4326642 ], [ -2.6743321, 49.431698 ], [ -2.6745493, 49.4297153 ], [ -2.6729485, 49.4293357 ], [ -2.6721296, 49.4272536 ], [ -2.67114, 49.4276299 ], [ -2.6704058, 49.426418 ], [ -2.6687177, 49.4267419 ], [ -2.6683929, 49.4248824 ] ] ] } }
]
}
