{
"type": "FeatureCollection",
"name": "herm",
"crs": { "type": "name", "properties": { "name": "urn:ogc:def:crs:OGC:1.3:CRS84" } },
"features": [
{ "type": "Feature", "properties": { }, "geometry": { "type": "Polygon", "coordinates": [ [ [ 1.015394, 44.6439001 ], [ 1.0177688, 44.6418303 ], [ 1.0236461, 44.6388531 ], [ 1.0303391, 44.6387056 ], [ 1.033445, 44.6334724 ], [ 1.0340955, 44.6300965 ], [ 1.0359142, 44.6299463 ], [ 1.0375038, 44.631186 ], [ 1.0407758, 44.6306835 ], [ 1.044039, 44.6336249 ], [ 1.0449003, 44.6322093 ], [ 1.0445888, 44.6311104 ], [ 1.0480183, 44.6282392 ], [ 1.0531123, 44.6321513 ], [ 1.0552419, 44.6357713 ], [ 1.0590954, 44.6373024 ], [ 1.0601664, 44.6388487 ], [ 1.0596391, 44.6397654 ], [ 1.060297, 44.6420384 ], [ 1.0679285, 44.6471346 ], [ 1.072418, 44.6526739 ], [ 1.0803004, 44.653634 ], [ 1.0828611, 44.655351 ], [ 1.0828085, 44.6563073 ], [ 1.0815202, 44.6572298 ], [ 1.0822484, 44.6577176 ], [ 1.0801723, 44.6591504 ], [ 1.0808199, 44.6616263 ], [ 1.079905, 44.6631655 ], [ 1.0675903, 44.6626642 ], [ 1.0642041, 44.6653314 ], [ 1.0611611, 44.6704463 ], [ 1.0609846, 44.6730714 ], [ 1.0587884, 44.6726548 ], [ 1.0566219, 44.6752483 ], [ 1.0569727, 44.6757835 ], [ 1.0560629, 44.6760998 ], [ 1.0563132, 44.6766647 ], [ 1.0520209, 44.679172 ], [ 1.0452137, 44.6793374 ], [ 1.0443973, 44.6801715 ], [ 1.0432054, 44.6792464 ], [ 1.0442286, 44.6779742 ], [ 1.0349399, 44.6709252 ], [ 1.031315, 44.6697031 ], [ 1.0315691, 44.6686148 ], [ 1.0292659, 44.6687377 ], [ 1.0291608, 44.6677689 ], [ 1.024769, 44.6672661 ], [ 1.0226735, 44.6676106 ], [ 1.0206302, 44.6695188 ], [ 1.0188242, 44.6696418 ], [ 1.0179272, 44.6686057 ], [ 1.0171868, 44.6659125 ], [ 1.017696, 44.663265 ], [ 1.0186788, 44.6621607 ], [ 1.0188154, 44.6581005 ], [ 1.0235229, 44.6567062 ], [ 1.0202938, 44.6526518 ], [ 1.0233202, 44.6496234 ], [ 1.0195941, 44.6471991 ], [ 1.0191347, 44.6456942 ], [ 1.015394, 44.6439001 ] ] ] } }
]
}
