{
"type": "FeatureCollection",
"name": "ibiza",
"crs": { "type": "name", "properties": { "name": "urn:ogc:def:crs:OGC:1.3:CRS84" } },
"features": [
{ "type": "Feature", "properties": { }, "geometry": { "type": "MultiPolygon", "coordinates": [ [ [ [ 1.1880527, 38.8636396 ], [ 1.1906004, 38.8647212 ], [ 1.1904418, 38.8654948 ], [ 1.1936889, 38.8672403 ], [ 1.1954894, 38.8698907 ], [ 1.1971218, 38.8705523 ], [ 1.2017339, 38.8703939 ], [ 1.2033527, 38.8687578 ], [ 1.20366, 38.8670494 ], [ 1.2024592, 38.8664197 ], [ 1.2031793, 38.86472 ], [ 1.2024169, 38.8643477 ], [ 1.1990347, 38.8649515 ], [ 1.1973281, 38.8640294 ], [ 1.1959064, 38.8645648 ], [ 1.1946328, 38.8635339 ], [ 1.1922883, 38.8642545 ], [ 1.1910254, 38.8631437 ], [ 1.1891393, 38.8633328 ], [ 1.1888586, 38.862724 ], [ 1.1884088, 38.8625862 ], [ 1.1880527, 38.8636396 ] ] ], [ [ [ 1.2075147, 38.8692465 ], [ 1.2143897, 38.8695673 ], [ 1.2153596, 38.8689458 ], [ 1.2149648, 38.8669544 ], [ 1.2126903, 38.8656579 ], [ 1.2124328, 38.8666603 ], [ 1.2137546, 38.8682709 ], [ 1.2112226, 38.8684647 ], [ 1.2105273, 38.8670747 ], [ 1.2078494, 38.8673954 ], [ 1.2080944, 38.868561 ], [ 1.2068194, 38.8682842 ], [ 1.2075147, 38.8692465 ] ] ], [ [ [ 1.1971731, 38.8720315 ], [ 1.1958399, 38.8711 ], [ 1.1953568, 38.8710007 ], [ 1.1971731, 38.8720315 ] ] ], [ [ [ 1.2191973, 38.8900523 ], [ 1.2185127, 38.8897144 ], [ 1.2184977, 38.8901938 ], [ 1.2191973, 38.8900523 ] ] ], [ [ [ 1.1880088, 38.9562345 ], [ 1.1892906, 38.957733 ], [ 1.1898482, 38.9575242 ], [ 1.1894764, 38.9565552 ], [ 1.1880088, 38.9562345 ] ] ], [ [ [ 1.1924648, 38.9592082 ], [ 1.1981855, 38.9600399 ], [ 1.1992993, 38.9593539 ], [ 1.1986963, 38.957934 ], [ 1.1999207, 38.957417 ], [ 1.1981612, 38.9564271 ], [ 1.1962233, 38.9568369 ], [ 1.1954286, 38.9578268 ], [ 1.1909227, 38.9571405 ], [ 1.1897156, 38.9578755 ], [ 1.1924648, 38.9592082 ] ] ], [ [ [ 1.2016031, 38.9587768 ], [ 1.201273, 38.9583459 ], [ 1.2008663, 38.958763 ], [ 1.2016031, 38.9587768 ] ] ], [ [ [ 1.1996941, 38.9591205 ], [ 1.1997428, 38.9591899 ], [ 1.1998435, 38.9591436 ], [ 1.1996941, 38.9591205 ] ] ], [ [ [ 1.2193604, 38.9643741 ], [ 1.2193798, 38.9641879 ], [ 1.219174, 38.96425 ], [ 1.2193604, 38.9643741 ] ] ], [ [ [ 1.2172582, 38.964776 ], [ 1.2181755, 38.9651978 ], [ 1.2187254, 38.9652223 ], [ 1.2172582, 38.964776 ] ] ], [ [ [ 1.2185712, 38.9665701 ], [ 1.2184375, 38.9667612 ], [ 1.2186578, 38.9667811 ], [ 1.2185712, 38.9665701 ] ] ], [ [ [ 1.1649009, 38.9686075 ], [ 1.1667524, 38.9686595 ], [ 1.1648672, 38.9675032 ], [ 1.1649009, 38.9686075 ] ] ], [ [ [ 1.1652252, 38.9694194 ], [ 1.165975, 38.9693776 ], [ 1.1660879, 38.9688837 ], [ 1.1652252, 38.9694194 ] ] ], [ [ [ 1.2143895, 38.9686098 ], [ 1.2150762, 38.972285 ], [ 1.2186677, 38.970144 ], [ 1.2201918, 38.968302 ], [ 1.2186175, 38.966973 ], [ 1.2156726, 38.9670055 ], [ 1.2143895, 38.9686098 ] ] ], [ [ [ 1.1645884, 38.9733308 ], [ 1.1668332, 38.9728425 ], [ 1.1671437, 38.9717811 ], [ 1.1647981, 38.9716767 ], [ 1.1645884, 38.9733308 ] ] ], [ [ [ 1.2318694, 38.9739563 ], [ 1.2319936, 38.9734988 ], [ 1.2314203, 38.9735058 ], [ 1.2318694, 38.9739563 ] ] ], [ [ [ 1.2319342, 38.977213 ], [ 1.2317938, 38.9768531 ], [ 1.2317026, 38.9771154 ], [ 1.2319342, 38.977213 ] ] ], [ [ [ 1.1585569, 38.9784963 ], [ 1.1583615, 38.978244 ], [ 1.1582066, 38.9781896 ], [ 1.1585569, 38.9784963 ] ] ], [ [ [ 1.1574582, 38.9784418 ], [ 1.1573402, 38.9786166 ], [ 1.1575467, 38.9784504 ], [ 1.1574582, 38.9784418 ] ] ], [ [ [ 1.1582103, 38.9786396 ], [ 1.1578859, 38.9784475 ], [ 1.1578527, 38.9787084 ], [ 1.1582103, 38.9786396 ] ] ], [ [ [ 1.1581911, 38.9795944 ], [ 1.1603425, 38.9798753 ], [ 1.1615749, 38.9808719 ], [ 1.161228, 38.9788896 ], [ 1.1586517, 38.978904 ], [ 1.1581911, 38.9795944 ] ] ], [ [ [ 1.1611545, 38.9824007 ], [ 1.1616472, 38.9822979 ], [ 1.1612054, 38.9822231 ], [ 1.1611545, 38.9824007 ] ] ], [ [ [ 1.1683984, 38.9847926 ], [ 1.168885, 38.9845939 ], [ 1.168298, 38.9843645 ], [ 1.1683984, 38.9847926 ] ] ], [ [ [ 1.2063203, 38.9837069 ], [ 1.2084304, 38.9848921 ], [ 1.2088916, 38.9862115 ], [ 1.2071861, 38.9875264 ], [ 1.2078746, 38.9882897 ], [ 1.2065898, 38.988365 ], [ 1.2066691, 38.9895565 ], [ 1.2090128, 38.9905406 ], [ 1.2128528, 38.9948255 ], [ 1.215121, 38.9949346 ], [ 1.2159634, 38.9926704 ], [ 1.21479, 38.989594 ], [ 1.2148868, 38.986771 ], [ 1.2127762, 38.9870994 ], [ 1.2104582, 38.9840776 ], [ 1.2131933, 38.9824517 ], [ 1.21741, 38.9823862 ], [ 1.2183855, 38.9806529 ], [ 1.2165663, 38.9799241 ], [ 1.218932, 38.9782827 ], [ 1.2160594, 38.9787458 ], [ 1.2141042, 38.9760208 ], [ 1.2064221, 38.9816776 ], [ 1.2063203, 38.9837069 ] ] ], [ [ [ 1.4037276, 38.8146427 ], [ 1.4053098, 38.8138405 ], [ 1.4026743, 38.8140981 ], [ 1.4037276, 38.8146427 ] ] ], [ [ [ 1.4092237, 38.818203 ], [ 1.4098062, 38.8187397 ], [ 1.4109831, 38.8182536 ], [ 1.4122336, 38.814296 ], [ 1.4113801, 38.8137874 ], [ 1.4098445, 38.8154233 ], [ 1.4092237, 38.818203 ] ] ], [ [ [ 1.4016746, 38.8159687 ], [ 1.4046864, 38.8168876 ], [ 1.4040132, 38.8156311 ], [ 1.4016746, 38.8159687 ] ] ], [ [ [ 1.4016636, 38.8250363 ], [ 1.4017391, 38.82521 ], [ 1.4018412, 38.8249392 ], [ 1.4016636, 38.8250363 ] ] ], [ [ [ 1.407967, 38.8264115 ], [ 1.4081804, 38.8263624 ], [ 1.4077556, 38.8261027 ], [ 1.407967, 38.8264115 ] ] ], [ [ [ 1.4070608, 38.826776 ], [ 1.4077798, 38.827005 ], [ 1.4076962, 38.8266229 ], [ 1.4070608, 38.826776 ] ] ], [ [ [ 1.3708955, 38.8286424 ], [ 1.3711235, 38.8291209 ], [ 1.3713809, 38.8291251 ], [ 1.3708955, 38.8286424 ] ] ], [ [ [ 1.3706621, 38.8299086 ], [ 1.3708284, 38.8297081 ], [ 1.3707158, 38.8296078 ], [ 1.3706621, 38.8299086 ] ] ], [ [ [ 1.4052064, 38.8308617 ], [ 1.4060895, 38.8304725 ], [ 1.4050706, 38.8302867 ], [ 1.4052064, 38.8308617 ] ] ], [ [ [ 1.4055703, 38.8308998 ], [ 1.4057694, 38.830942 ], [ 1.4057246, 38.8308673 ], [ 1.4055703, 38.8308998 ] ] ], [ [ [ 1.2437867, 38.8610465 ], [ 1.2435292, 38.8606722 ], [ 1.2438726, 38.8614074 ], [ 1.2437867, 38.8610465 ] ] ], [ [ [ 1.2982495, 38.869917 ], [ 1.2982643, 38.870011 ], [ 1.2983313, 38.8699505 ], [ 1.2982495, 38.869917 ] ] ], [ [ [ 1.2983568, 38.8700851 ], [ 1.2981932, 38.870199 ], [ 1.2983608, 38.8702219 ], [ 1.2983568, 38.8700851 ] ] ], [ [ [ 1.2985164, 38.8704746 ], [ 1.2980671, 38.870365 ], [ 1.2980698, 38.8705936 ], [ 1.2985164, 38.8704746 ] ] ], [ [ [ 1.2996295, 38.8716221 ], [ 1.2997411, 38.8706477 ], [ 1.2993999, 38.8701515 ], [ 1.2989377, 38.8715248 ], [ 1.2996295, 38.8716221 ] ] ], [ [ [ 1.4063555, 38.8721309 ], [ 1.4063768, 38.871472 ], [ 1.4056119, 38.8715976 ], [ 1.4063555, 38.8721309 ] ] ], [ [ [ 1.2865078, 38.9906972 ], [ 1.2866057, 38.9905753 ], [ 1.2864514, 38.9906451 ], [ 1.2865078, 38.9906972 ] ] ], [ [ [ 1.2932687, 39.0118931 ], [ 1.2938866, 39.0103992 ], [ 1.2930455, 39.0107726 ], [ 1.2932687, 39.0118931 ] ] ], [ [ [ 1.3242675, 39.0477045 ], [ 1.3242406, 39.0475857 ], [ 1.324195, 39.0476459 ], [ 1.3242675, 39.0477045 ] ] ], [ [ [ 1.3139991, 39.0489699 ], [ 1.3141002, 39.0492913 ], [ 1.314105, 39.0489512 ], [ 1.3139991, 39.0489699 ] ] ], [ [ [ 1.3164769, 39.0505633 ], [ 1.3152266, 39.0496838 ], [ 1.3160785, 39.0487942 ], [ 1.31501, 39.04894 ], [ 1.3147837, 39.0496913 ], [ 1.3164769, 39.0505633 ] ] ], [ [ [ 1.3157464, 39.0498371 ], [ 1.315655, 39.0497511 ], [ 1.3156165, 39.049796 ], [ 1.3157464, 39.0498371 ] ] ], [ [ [ 1.3256819, 39.0499704 ], [ 1.3256434, 39.0500231 ], [ 1.3256975, 39.0500281 ], [ 1.3256819, 39.0499704 ] ] ], [ [ [ 1.4038629, 39.0774138 ], [ 1.403198, 39.0772456 ], [ 1.4031429, 39.0774008 ], [ 1.4033458, 39.0775607 ], [ 1.4038629, 39.0774138 ] ] ], [ [ [ 1.4266348, 38.8749429 ], [ 1.4264913, 38.8746599 ], [ 1.4260601, 38.8747215 ], [ 1.4266348, 38.8749429 ] ] ], [ [ [ 1.4347946, 38.8840947 ], [ 1.4343425, 38.8835173 ], [ 1.4337876, 38.8839134 ], [ 1.4341372, 38.8843455 ], [ 1.4347946, 38.8840947 ] ] ], [ [ [ 1.4351216, 38.8850712 ], [ 1.4351356, 38.8849676 ], [ 1.4350585, 38.8849967 ], [ 1.4351216, 38.8850712 ] ] ], [ [ [ 1.4360727, 38.8850452 ], [ 1.4361019, 38.8849989 ], [ 1.4360155, 38.8850139 ], [ 1.4360727, 38.8850452 ] ] ], [ [ [ 1.4358211, 38.8849605 ], [ 1.4359857, 38.8851905 ], [ 1.4360117, 38.8851666 ], [ 1.4358211, 38.8849605 ] ] ], [ [ [ 1.4350136, 38.8855451 ], [ 1.4351531, 38.8851985 ], [ 1.4348312, 38.885353 ], [ 1.4350136, 38.8855451 ] ] ], [ [ [ 1.4385319, 38.8886861 ], [ 1.4389473, 38.8879198 ], [ 1.4380461, 38.8876526 ], [ 1.4379603, 38.8881203 ], [ 1.4385319, 38.8886861 ] ] ], [ [ [ 1.4539078, 38.8884819 ], [ 1.453764, 38.8884733 ], [ 1.4539015, 38.8885396 ], [ 1.4539078, 38.8884819 ] ] ], [ [ [ 1.4515713, 38.8905172 ], [ 1.4515793, 38.8902938 ], [ 1.4512333, 38.8902771 ], [ 1.4515713, 38.8905172 ] ] ], [ [ [ 1.4240362, 38.8962335 ], [ 1.4237626, 38.8961626 ], [ 1.4240254, 38.8963045 ], [ 1.4240362, 38.8962335 ] ] ], [ [ [ 1.4233924, 38.8969057 ], [ 1.4238967, 38.8964172 ], [ 1.4229687, 38.8957117 ], [ 1.4226307, 38.8962085 ], [ 1.4233924, 38.8969057 ] ] ], [ [ [ 1.4243527, 38.8969809 ], [ 1.4241381, 38.8967387 ], [ 1.4239772, 38.8971562 ], [ 1.4243527, 38.8969809 ] ] ], [ [ [ 1.4351762, 38.9007273 ], [ 1.4348583, 38.9005804 ], [ 1.4347921, 38.9010124 ], [ 1.4351762, 38.9007273 ] ] ], [ [ [ 1.4347875, 38.9011534 ], [ 1.4346902, 38.9010391 ], [ 1.4346636, 38.9011823 ], [ 1.4347875, 38.9011534 ] ] ], [ [ [ 1.4326417, 38.9029798 ], [ 1.4328133, 38.9028483 ], [ 1.4325693, 38.902888 ], [ 1.4326417, 38.9029798 ] ] ], [ [ [ 1.4409177, 38.9032518 ], [ 1.4410522, 38.9026732 ], [ 1.4402443, 38.9031116 ], [ 1.4409177, 38.9032518 ] ] ], [ [ [ 1.4388199, 38.9045881 ], [ 1.4389201, 38.9044341 ], [ 1.438778, 38.9044613 ], [ 1.4388199, 38.9045881 ] ] ], [ [ [ 1.4555572, 38.9078626 ], [ 1.4555424, 38.9079471 ], [ 1.45558, 38.9079596 ], [ 1.4555572, 38.9078626 ] ] ], [ [ [ 1.4415601, 38.908512 ], [ 1.4414863, 38.9084001 ], [ 1.4414372, 38.9084138 ], [ 1.4415601, 38.908512 ] ] ], [ [ [ 1.4410626, 38.9086128 ], [ 1.4409972, 38.9086057 ], [ 1.4409857, 38.9086423 ], [ 1.4410626, 38.9086128 ] ] ], [ [ [ 1.4758307, 38.9155912 ], [ 1.4757408, 38.9154769 ], [ 1.4757378, 38.915611 ], [ 1.4758307, 38.9155912 ] ] ], [ [ [ 1.2132739, 38.9019562 ], [ 1.2140635, 38.9050606 ], [ 1.2170075, 38.907601 ], [ 1.2164849, 38.9087122 ], [ 1.218162, 38.9088092 ], [ 1.2177476, 38.9098925 ], [ 1.2199288, 38.910775 ], [ 1.2194205, 38.9134814 ], [ 1.2211739, 38.9133781 ], [ 1.2208415, 38.9142408 ], [ 1.223326, 38.9128414 ], [ 1.2241085, 38.9135969 ], [ 1.2241248, 38.9142926 ], [ 1.2228317, 38.9145122 ], [ 1.2220872, 38.9156363 ], [ 1.2184415, 38.9152819 ], [ 1.2184624, 38.9167181 ], [ 1.2192201, 38.9161775 ], [ 1.2189854, 38.9174965 ], [ 1.2219761, 38.918493 ], [ 1.2213739, 38.9189312 ], [ 1.2223449, 38.9196574 ], [ 1.2206564, 38.9216848 ], [ 1.2207308, 38.9227172 ], [ 1.2224929, 38.9224371 ], [ 1.2228425, 38.9231716 ], [ 1.2244866, 38.9232195 ], [ 1.2252948, 38.9246114 ], [ 1.2288836, 38.9248899 ], [ 1.2275518, 38.9282484 ], [ 1.2290753, 38.928987 ], [ 1.2305795, 38.9283211 ], [ 1.229837, 38.9298008 ], [ 1.2306672, 38.9296129 ], [ 1.230861, 38.9304309 ], [ 1.232765, 38.9297406 ], [ 1.232603, 38.9323624 ], [ 1.2319678, 38.932723 ], [ 1.2330665, 38.933197 ], [ 1.2317488, 38.9336295 ], [ 1.23596, 38.935639 ], [ 1.2354043, 38.9378354 ], [ 1.2359659, 38.9376624 ], [ 1.2365168, 38.9388845 ], [ 1.2353902, 38.9396106 ], [ 1.2349503, 38.9411627 ], [ 1.2329139, 38.9417742 ], [ 1.2315272, 38.9407937 ], [ 1.2300225, 38.9419369 ], [ 1.2308003, 38.9425524 ], [ 1.2293626, 38.9433722 ], [ 1.2325303, 38.9442943 ], [ 1.2327261, 38.9451079 ], [ 1.2296121, 38.9457087 ], [ 1.2261172, 38.9451746 ], [ 1.227638, 38.9459006 ], [ 1.2280969, 38.9480175 ], [ 1.2261306, 38.9472482 ], [ 1.2253474, 38.9484226 ], [ 1.2270814, 38.9491245 ], [ 1.2275848, 38.9501972 ], [ 1.2223818, 38.9501347 ], [ 1.2224703, 38.9508251 ], [ 1.2189082, 38.9513208 ], [ 1.2192274, 38.9518204 ], [ 1.218501, 38.9519958 ], [ 1.2203459, 38.9534098 ], [ 1.2199601, 38.9552998 ], [ 1.2182539, 38.9545336 ], [ 1.216782, 38.9555527 ], [ 1.2169724, 38.9562806 ], [ 1.215398, 38.9563912 ], [ 1.2146336, 38.957044 ], [ 1.2150895, 38.9586229 ], [ 1.2196493, 38.9604974 ], [ 1.2199364, 38.9632234 ], [ 1.2215779, 38.9630852 ], [ 1.2237495, 38.9644995 ], [ 1.2249282, 38.9635173 ], [ 1.2258433, 38.9645303 ], [ 1.2257253, 38.9670392 ], [ 1.2268952, 38.9668724 ], [ 1.2266037, 38.9676585 ], [ 1.2272823, 38.9676794 ], [ 1.2273118, 38.9690724 ], [ 1.2286639, 38.9704911 ], [ 1.2279046, 38.9711932 ], [ 1.2292875, 38.9715807 ], [ 1.2290223, 38.9743569 ], [ 1.2297204, 38.9746402 ], [ 1.2302169, 38.9730851 ], [ 1.2306672, 38.973535 ], [ 1.2322678, 38.9722703 ], [ 1.2314498, 38.9702246 ], [ 1.2325511, 38.9700928 ], [ 1.2323084, 38.9686696 ], [ 1.2339603, 38.9692507 ], [ 1.2344002, 38.9683932 ], [ 1.2353666, 38.9684453 ], [ 1.2362472, 38.9689907 ], [ 1.2369415, 38.9715495 ], [ 1.2376997, 38.9712176 ], [ 1.2375825, 38.9719888 ], [ 1.2429644, 38.972851 ], [ 1.2428472, 38.9709312 ], [ 1.2403707, 38.9696871 ], [ 1.2396147, 38.9684595 ], [ 1.2403711, 38.9674669 ], [ 1.2412938, 38.9678798 ], [ 1.2419321, 38.9668684 ], [ 1.2449163, 38.9658572 ], [ 1.2463187, 38.9663719 ], [ 1.2461089, 38.9677177 ], [ 1.2513055, 38.9666455 ], [ 1.2497037, 38.9689145 ], [ 1.2502159, 38.9691133 ], [ 1.2592925, 38.967431 ], [ 1.2611251, 38.9693963 ], [ 1.260633, 38.9712469 ], [ 1.2628521, 38.9702024 ], [ 1.2627183, 38.9682357 ], [ 1.2633909, 38.9674165 ], [ 1.2677784, 38.9665148 ], [ 1.2687563, 38.9671331 ], [ 1.2659473, 38.9686007 ], [ 1.2669853, 38.9698415 ], [ 1.2694655, 38.9693526 ], [ 1.2697891, 38.9700672 ], [ 1.2721366, 38.9694283 ], [ 1.2766427, 38.9699555 ], [ 1.2767525, 38.9712485 ], [ 1.2786965, 38.9724857 ], [ 1.2817055, 38.9720444 ], [ 1.2825655, 38.9737472 ], [ 1.2838819, 38.9742186 ], [ 1.2864863, 38.9731384 ], [ 1.2857422, 38.9722202 ], [ 1.2870979, 38.9713555 ], [ 1.2919983, 38.972567 ], [ 1.2927232, 38.9716277 ], [ 1.2920368, 38.9708987 ], [ 1.2939589, 38.9702649 ], [ 1.2957072, 38.9684447 ], [ 1.2973294, 38.9689653 ], [ 1.2993548, 38.9679248 ], [ 1.3009791, 38.9682015 ], [ 1.3013241, 38.9693598 ], [ 1.303255, 38.9696512 ], [ 1.3041071, 38.9707081 ], [ 1.3039103, 38.9726592 ], [ 1.3062203, 38.9722405 ], [ 1.307294, 38.9735078 ], [ 1.3076099, 38.9762317 ], [ 1.3066098, 38.9784719 ], [ 1.3054042, 38.9783517 ], [ 1.3054153, 38.9794023 ], [ 1.3029159, 38.9787724 ], [ 1.3021724, 38.9767005 ], [ 1.3015741, 38.9785878 ], [ 1.2988123, 38.978157 ], [ 1.2980911, 38.9758208 ], [ 1.2969919, 38.9754542 ], [ 1.2984225, 38.9790221 ], [ 1.2964804, 38.9795195 ], [ 1.2957189, 38.9810371 ], [ 1.2932388, 38.9825147 ], [ 1.2943042, 38.9842592 ], [ 1.296461, 38.9854258 ], [ 1.29181, 38.9884849 ], [ 1.2925417, 38.9889957 ], [ 1.2919458, 38.9894742 ], [ 1.2891019, 38.9892166 ], [ 1.289003, 38.9898447 ], [ 1.2865041, 38.9899743 ], [ 1.2900731, 38.9924771 ], [ 1.2889719, 38.992963 ], [ 1.2877575, 38.9922763 ], [ 1.2864197, 38.9933614 ], [ 1.2850198, 38.9929446 ], [ 1.2844525, 38.9938743 ], [ 1.2855113, 38.9954284 ], [ 1.2854186, 38.9967611 ], [ 1.2839865, 38.996849 ], [ 1.2836593, 38.9989075 ], [ 1.285857, 38.9991483 ], [ 1.2861723, 39.000277 ], [ 1.2882304, 39.0000009 ], [ 1.29119, 39.001808 ], [ 1.2892226, 39.0045169 ], [ 1.2927098, 39.002488 ], [ 1.292483, 39.0035317 ], [ 1.2933972, 39.0043802 ], [ 1.2923676, 39.0054342 ], [ 1.2938134, 39.005214 ], [ 1.2953327, 39.0055418 ], [ 1.2958536, 39.0083588 ], [ 1.2990362, 39.0096048 ], [ 1.2986351, 39.0107975 ], [ 1.2974186, 39.011386 ], [ 1.2949682, 39.0101257 ], [ 1.2940789, 39.012027 ], [ 1.2949241, 39.0138259 ], [ 1.2943662, 39.0146915 ], [ 1.2913401, 39.0142822 ], [ 1.2921207, 39.0160318 ], [ 1.2940459, 39.0157315 ], [ 1.2951674, 39.0189629 ], [ 1.2942527, 39.0213814 ], [ 1.2910671, 39.0243129 ], [ 1.2910966, 39.0266791 ], [ 1.2900383, 39.0283292 ], [ 1.2913122, 39.0274159 ], [ 1.2940218, 39.0315207 ], [ 1.2946115, 39.0312012 ], [ 1.2957148, 39.0325432 ], [ 1.2964858, 39.0320159 ], [ 1.2966117, 39.0326741 ], [ 1.3009196, 39.0332298 ], [ 1.3007135, 39.0341908 ], [ 1.3027864, 39.0352365 ], [ 1.3023893, 39.0359375 ], [ 1.3055436, 39.0365604 ], [ 1.3053665, 39.0382705 ], [ 1.3100848, 39.0418774 ], [ 1.3110507, 39.0445721 ], [ 1.31479, 39.0436859 ], [ 1.3178044, 39.044485 ], [ 1.318555, 39.045802 ], [ 1.3197607, 39.0450773 ], [ 1.3234843, 39.0474056 ], [ 1.3253578, 39.0475482 ], [ 1.3263223, 39.0496138 ], [ 1.3242966, 39.0511157 ], [ 1.3263647, 39.0528548 ], [ 1.3348939, 39.0551257 ], [ 1.3357972, 39.0541383 ], [ 1.3416776, 39.0529973 ], [ 1.3455457, 39.0604697 ], [ 1.3453712, 39.0625477 ], [ 1.3439777, 39.0629684 ], [ 1.3457312, 39.0640536 ], [ 1.3448517, 39.0641331 ], [ 1.3446098, 39.0668215 ], [ 1.3454679, 39.0672409 ], [ 1.3449218, 39.065304 ], [ 1.3463418, 39.0658759 ], [ 1.347358, 39.0631626 ], [ 1.3500534, 39.0637259 ], [ 1.3568547, 39.0686197 ], [ 1.3564201, 39.0716689 ], [ 1.3595047, 39.0743212 ], [ 1.3618832, 39.0747047 ], [ 1.3641028, 39.0735526 ], [ 1.3633391, 39.0727367 ], [ 1.3640326, 39.0709165 ], [ 1.3634357, 39.068404 ], [ 1.364194, 39.0687732 ], [ 1.3653821, 39.067139 ], [ 1.3651676, 39.0657521 ], [ 1.3660462, 39.0642723 ], [ 1.3687527, 39.0629589 ], [ 1.3707003, 39.0637377 ], [ 1.3717118, 39.0627164 ], [ 1.3725366, 39.0633663 ], [ 1.3754538, 39.0622492 ], [ 1.3784767, 39.0640069 ], [ 1.3782058, 39.0651507 ], [ 1.3803569, 39.0651752 ], [ 1.3803594, 39.0665466 ], [ 1.3822693, 39.06777 ], [ 1.3810302, 39.0690999 ], [ 1.3809899, 39.0706125 ], [ 1.3820413, 39.0709103 ], [ 1.3817606, 39.0719647 ], [ 1.3836493, 39.0731634 ], [ 1.3866279, 39.0782411 ], [ 1.3973098, 39.0803553 ], [ 1.3980394, 39.0783211 ], [ 1.397062, 39.0763471 ], [ 1.3981651, 39.0760379 ], [ 1.397564, 39.0749041 ], [ 1.3982478, 39.0744097 ], [ 1.3991196, 39.0749563 ], [ 1.3990338, 39.0765471 ], [ 1.4001779, 39.0771806 ], [ 1.4011094, 39.077073 ], [ 1.400343, 39.0761797 ], [ 1.4008115, 39.0758048 ], [ 1.4033215, 39.0765036 ], [ 1.4039463, 39.0753684 ], [ 1.4058319, 39.0749728 ], [ 1.4078478, 39.0756064 ], [ 1.4083827, 39.0771128 ], [ 1.4104682, 39.0782418 ], [ 1.4111362, 39.0781027 ], [ 1.4109595, 39.0773988 ], [ 1.4136319, 39.0783312 ], [ 1.4170029, 39.0774525 ], [ 1.4177248, 39.0789916 ], [ 1.4165513, 39.0812461 ], [ 1.4197042, 39.0840801 ], [ 1.4206035, 39.089912 ], [ 1.4262998, 39.0925346 ], [ 1.428872, 39.0909274 ], [ 1.4304183, 39.0886171 ], [ 1.4310822, 39.0896929 ], [ 1.4344162, 39.0871739 ], [ 1.4375436, 39.0861317 ], [ 1.4373998, 39.0887316 ], [ 1.4398651, 39.0874284 ], [ 1.4387309, 39.0855381 ], [ 1.4372874, 39.0856482 ], [ 1.4363067, 39.0842516 ], [ 1.4382668, 39.0823959 ], [ 1.4376412, 39.0812326 ], [ 1.4388949, 39.081506 ], [ 1.4404486, 39.0804645 ], [ 1.4412733, 39.083327 ], [ 1.4436384, 39.0859512 ], [ 1.4436146, 39.0878332 ], [ 1.4469521, 39.0881054 ], [ 1.4475583, 39.0893119 ], [ 1.448802, 39.0883799 ], [ 1.4533664, 39.0887317 ], [ 1.4533197, 39.0899496 ], [ 1.4488928, 39.0921134 ], [ 1.4518375, 39.0944126 ], [ 1.4527123, 39.0969595 ], [ 1.4558464, 39.0961872 ], [ 1.4578564, 39.0973332 ], [ 1.4592887, 39.0971729 ], [ 1.4597608, 39.0986674 ], [ 1.4646027, 39.0992393 ], [ 1.4640448, 39.1016539 ], [ 1.4652894, 39.1017954 ], [ 1.4668237, 39.0998997 ], [ 1.4699994, 39.0995084 ], [ 1.4709489, 39.1000371 ], [ 1.4702408, 39.1017897 ], [ 1.4716356, 39.1014067 ], [ 1.4729483, 39.1023004 ], [ 1.4723988, 39.1035794 ], [ 1.4749079, 39.1055113 ], [ 1.4797358, 39.1043415 ], [ 1.4795078, 39.1029366 ], [ 1.482072, 39.1006345 ], [ 1.4843899, 39.1009573 ], [ 1.4853403, 39.1022487 ], [ 1.484024, 39.1033248 ], [ 1.4854939, 39.1036661 ], [ 1.4865346, 39.1055311 ], [ 1.4848644, 39.1071355 ], [ 1.4851707, 39.1083408 ], [ 1.4884537, 39.1105345 ], [ 1.4881801, 39.1098239 ], [ 1.4914443, 39.1100974 ], [ 1.4934268, 39.108507 ], [ 1.4912214, 39.1055279 ], [ 1.4925822, 39.1041683 ], [ 1.4920049, 39.1022112 ], [ 1.495043, 39.1017405 ], [ 1.4958754, 39.1008562 ], [ 1.4957254, 39.0991977 ], [ 1.4974249, 39.0984577 ], [ 1.4986578, 39.0987827 ], [ 1.4987755, 39.1000558 ], [ 1.5046505, 39.1005799 ], [ 1.5042455, 39.1015041 ], [ 1.5061497, 39.1025822 ], [ 1.5092357, 39.1028312 ], [ 1.5081547, 39.1057989 ], [ 1.5069733, 39.106732 ], [ 1.5087137, 39.1076808 ], [ 1.5071019, 39.108397 ], [ 1.5074213, 39.1096354 ], [ 1.5060138, 39.1111994 ], [ 1.5072494, 39.1138233 ], [ 1.5102922, 39.1145646 ], [ 1.5121158, 39.1131103 ], [ 1.510859, 39.1116876 ], [ 1.5121858, 39.1115459 ], [ 1.5117996, 39.1101057 ], [ 1.5155813, 39.1088588 ], [ 1.5172307, 39.1104903 ], [ 1.5146525, 39.1131156 ], [ 1.5148799, 39.1139036 ], [ 1.517064, 39.1130426 ], [ 1.5178651, 39.11405 ], [ 1.5203356, 39.1137743 ], [ 1.5186611, 39.115383 ], [ 1.5201824, 39.1165027 ], [ 1.5202727, 39.1147106 ], [ 1.5213626, 39.1155712 ], [ 1.5221747, 39.1152878 ], [ 1.5221214, 39.1143876 ], [ 1.5246128, 39.1146768 ], [ 1.5330273, 39.1184135 ], [ 1.5370769, 39.1167561 ], [ 1.5403972, 39.1170098 ], [ 1.5400547, 39.1160702 ], [ 1.5422168, 39.1161056 ], [ 1.5410391, 39.1140776 ], [ 1.542714, 39.1126996 ], [ 1.538212, 39.1094855 ], [ 1.5379256, 39.1085795 ], [ 1.5388423, 39.1081452 ], [ 1.537144, 39.1076297 ], [ 1.5372522, 39.1066315 ], [ 1.5397877, 39.1069705 ], [ 1.5410038, 39.1058006 ], [ 1.5428033, 39.1062304 ], [ 1.5452477, 39.1054583 ], [ 1.5462258, 39.1027232 ], [ 1.5475749, 39.1029564 ], [ 1.5506628, 39.1002937 ], [ 1.5518516, 39.100708 ], [ 1.5526068, 39.0992201 ], [ 1.5521561, 39.0979212 ], [ 1.5532156, 39.0976735 ], [ 1.5532593, 39.0966553 ], [ 1.5548321, 39.0974963 ], [ 1.5545822, 39.0996322 ], [ 1.5556595, 39.1001773 ], [ 1.554934, 39.0980701 ], [ 1.5554716, 39.0963087 ], [ 1.5573612, 39.0944439 ], [ 1.5569389, 39.0935009 ], [ 1.5602858, 39.0927822 ], [ 1.5656273, 39.0944621 ], [ 1.5679424, 39.0982995 ], [ 1.5683077, 39.0971781 ], [ 1.5695603, 39.0979377 ], [ 1.5692543, 39.0975002 ], [ 1.5707438, 39.0964076 ], [ 1.5741792, 39.0980575 ], [ 1.5749944, 39.0973912 ], [ 1.5748372, 39.0963754 ], [ 1.5766548, 39.0973113 ], [ 1.578297, 39.0970204 ], [ 1.5794545, 39.0983013 ], [ 1.5819206, 39.0979866 ], [ 1.5847891, 39.0957341 ], [ 1.5858163, 39.0962812 ], [ 1.5906681, 39.0950398 ], [ 1.5918981, 39.0956234 ], [ 1.5914262, 39.0973127 ], [ 1.5922867, 39.0979065 ], [ 1.5970355, 39.0929461 ], [ 1.6004096, 39.0925733 ], [ 1.6014811, 39.0911018 ], [ 1.5999589, 39.0897956 ], [ 1.6002201, 39.0887429 ], [ 1.6043348, 39.0910459 ], [ 1.6050043, 39.0901915 ], [ 1.6020181, 39.0873243 ], [ 1.6003186, 39.0869588 ], [ 1.6013151, 39.0863076 ], [ 1.5981587, 39.0840841 ], [ 1.5987912, 39.0820458 ], [ 1.6018978, 39.0819008 ], [ 1.6010347, 39.0805795 ], [ 1.6016462, 39.0803909 ], [ 1.6013162, 39.0792966 ], [ 1.6024546, 39.0788451 ], [ 1.6069232, 39.080136 ], [ 1.6068849, 39.0792448 ], [ 1.6079477, 39.0789381 ], [ 1.609873, 39.0798188 ], [ 1.6084435, 39.0778227 ], [ 1.599576, 39.0736016 ], [ 1.5963908, 39.0742189 ], [ 1.5945474, 39.0761884 ], [ 1.5917459, 39.0752219 ], [ 1.5910157, 39.0737397 ], [ 1.5915062, 39.0721944 ], [ 1.5898548, 39.0710743 ], [ 1.5903528, 39.0699664 ], [ 1.5879998, 39.0633033 ], [ 1.5904856, 39.0575967 ], [ 1.5923765, 39.0564544 ], [ 1.5918495, 39.0554363 ], [ 1.5945639, 39.0526651 ], [ 1.5951311, 39.0528794 ], [ 1.5946501, 39.052561 ], [ 1.5955337, 39.051329 ], [ 1.5988488, 39.0502031 ], [ 1.5998921, 39.0508431 ], [ 1.5999035, 39.0493444 ], [ 1.602703, 39.0479935 ], [ 1.6057004, 39.0446824 ], [ 1.6074014, 39.0441358 ], [ 1.6088798, 39.0447997 ], [ 1.6100641, 39.043774 ], [ 1.609142, 39.0436236 ], [ 1.6094794, 39.0430326 ], [ 1.6084489, 39.0426573 ], [ 1.6089814, 39.0421217 ], [ 1.6070045, 39.039992 ], [ 1.6077515, 39.0391847 ], [ 1.6092751, 39.0391858 ], [ 1.6076231, 39.0382403 ], [ 1.6081584, 39.0371106 ], [ 1.6072929, 39.0367414 ], [ 1.6090132, 39.0359499 ], [ 1.6087353, 39.0346992 ], [ 1.6113406, 39.0363778 ], [ 1.6128069, 39.0358905 ], [ 1.6153633, 39.0366912 ], [ 1.6165469, 39.035716 ], [ 1.6178142, 39.0368426 ], [ 1.6201589, 39.036743 ], [ 1.6200761, 39.0353319 ], [ 1.6209083, 39.035087 ], [ 1.6200091, 39.0329607 ], [ 1.6206556, 39.0330387 ], [ 1.6164002, 39.0298 ], [ 1.6164896, 39.0287594 ], [ 1.6180858, 39.027578 ], [ 1.6215867, 39.0276812 ], [ 1.6186274, 39.0253575 ], [ 1.615078, 39.0242468 ], [ 1.6128351, 39.0270734 ], [ 1.6100008, 39.0280429 ], [ 1.6092114, 39.0292313 ], [ 1.6058973, 39.029519 ], [ 1.6042411, 39.0263679 ], [ 1.6046046, 39.0256177 ], [ 1.6030846, 39.0242531 ], [ 1.6007313, 39.0236232 ], [ 1.5987785, 39.0241644 ], [ 1.5990594, 39.022976 ], [ 1.5983855, 39.0227955 ], [ 1.5974543, 39.0228882 ], [ 1.5967306, 39.0245157 ], [ 1.5954229, 39.0246596 ], [ 1.5960744, 39.0229602 ], [ 1.5955727, 39.0223502 ], [ 1.5939989, 39.0227786 ], [ 1.5950928, 39.0218034 ], [ 1.5938241, 39.0209552 ], [ 1.5964507, 39.0183766 ], [ 1.5945691, 39.015474 ], [ 1.5927874, 39.015189 ], [ 1.5919258, 39.0159153 ], [ 1.5891208, 39.0148576 ], [ 1.5875443, 39.0159083 ], [ 1.5850902, 39.0157996 ], [ 1.5843653, 39.0148496 ], [ 1.5876, 39.0124443 ], [ 1.5861381, 39.011957 ], [ 1.5872718, 39.0107922 ], [ 1.5822098, 39.0095712 ], [ 1.581629, 39.0074412 ], [ 1.5826292, 39.0060792 ], [ 1.5811218, 39.0047683 ], [ 1.5821234, 39.0037509 ], [ 1.5821185, 39.0023243 ], [ 1.5796638, 39.0026056 ], [ 1.5779104, 39.0011813 ], [ 1.5780896, 39.0003727 ], [ 1.5805112, 38.9993252 ], [ 1.5796497, 38.9991176 ], [ 1.5803232, 38.9990941 ], [ 1.5793274, 38.9982006 ], [ 1.5794921, 38.9969547 ], [ 1.5815439, 38.9965158 ], [ 1.5812328, 38.9957192 ], [ 1.5801706, 38.9960113 ], [ 1.5794063, 38.9951536 ], [ 1.5807661, 38.9936369 ], [ 1.5796878, 38.9911624 ], [ 1.5804233, 38.991282 ], [ 1.5807522, 38.9899488 ], [ 1.5817531, 38.9901409 ], [ 1.5812489, 38.9893257 ], [ 1.5785136, 38.9892058 ], [ 1.5778096, 38.9902295 ], [ 1.5761291, 38.9908329 ], [ 1.5747869, 38.9903024 ], [ 1.5738715, 38.9913375 ], [ 1.5714529, 38.9906684 ], [ 1.5699546, 38.9911563 ], [ 1.569548, 38.9905072 ], [ 1.5699174, 38.9911603 ], [ 1.5688051, 38.9918837 ], [ 1.5635216, 38.9922119 ], [ 1.5616215, 38.9932606 ], [ 1.5603317, 38.9928969 ], [ 1.5602682, 38.9915096 ], [ 1.5583182, 38.992203 ], [ 1.5576246, 38.9906443 ], [ 1.5560616, 38.9904307 ], [ 1.5523691, 38.9925559 ], [ 1.5514944, 38.9923111 ], [ 1.5503901, 38.9899146 ], [ 1.5495747, 38.9908685 ], [ 1.5483301, 38.9906084 ], [ 1.54886, 38.9874094 ], [ 1.5474781, 38.9883351 ], [ 1.5459674, 38.9875612 ], [ 1.5461048, 38.9829711 ], [ 1.5433099, 38.9844055 ], [ 1.5379594, 38.9809294 ], [ 1.5413696, 38.9839939 ], [ 1.5407235, 38.9844454 ], [ 1.5412635, 38.9849285 ], [ 1.5391219, 38.9857253 ], [ 1.5376031, 38.9832532 ], [ 1.5383746, 38.9822466 ], [ 1.5370827, 38.9833504 ], [ 1.5341864, 38.9829659 ], [ 1.5312577, 38.979428 ], [ 1.5318071, 38.9777421 ], [ 1.5304403, 38.9776397 ], [ 1.5320663, 38.9765177 ], [ 1.5308981, 38.9751284 ], [ 1.532194, 38.9746536 ], [ 1.5320049, 38.9709147 ], [ 1.5329659, 38.9677827 ], [ 1.5317469, 38.962847 ], [ 1.5328439, 38.9622384 ], [ 1.5325344, 38.9614099 ], [ 1.5313998, 38.9616268 ], [ 1.5282905, 38.9592576 ], [ 1.5290845, 38.95762 ], [ 1.5311205, 38.9571598 ], [ 1.5310297, 38.9561262 ], [ 1.5290893, 38.9536703 ], [ 1.5250366, 38.9546393 ], [ 1.5200434, 38.9530197 ], [ 1.5209087, 38.9518186 ], [ 1.5247438, 38.952245 ], [ 1.5277456, 38.9511723 ], [ 1.5284887, 38.9482372 ], [ 1.5277763, 38.9477499 ], [ 1.5290486, 38.9461869 ], [ 1.5280435, 38.9452982 ], [ 1.5249267, 38.9452333 ], [ 1.5218662, 38.9436693 ], [ 1.5156913, 38.9471225 ], [ 1.5124036, 38.9474463 ], [ 1.5101014, 38.9467426 ], [ 1.5097555, 38.9417935 ], [ 1.5082964, 38.9384221 ], [ 1.505833, 38.9363325 ], [ 1.5063794, 38.9352073 ], [ 1.5049318, 38.9341893 ], [ 1.5053867, 38.9331812 ], [ 1.5030349, 38.9328874 ], [ 1.5027799, 38.9339184 ], [ 1.5009407, 38.9329208 ], [ 1.4999021, 38.9332413 ], [ 1.5011209, 38.9304571 ], [ 1.494488, 38.9307585 ], [ 1.4955876, 38.9296797 ], [ 1.4950383, 38.9291856 ], [ 1.4916418, 38.9298144 ], [ 1.4931848, 38.9284974 ], [ 1.490824, 38.9288985 ], [ 1.490764, 38.9281373 ], [ 1.4888463, 38.9279857 ], [ 1.4890824, 38.9272913 ], [ 1.488292, 38.9274629 ], [ 1.4874309, 38.9262505 ], [ 1.4895538, 38.9255666 ], [ 1.4892791, 38.9241243 ], [ 1.4866853, 38.9255242 ], [ 1.4866098, 38.9232295 ], [ 1.4839598, 38.9230716 ], [ 1.4840836, 38.9216178 ], [ 1.482306, 38.9211677 ], [ 1.4812612, 38.918617 ], [ 1.4799082, 38.9186501 ], [ 1.4798978, 38.9176001 ], [ 1.4780159, 38.9173407 ], [ 1.4788163, 38.9155766 ], [ 1.47714, 38.9153963 ], [ 1.4760008, 38.9162266 ], [ 1.4748019, 38.9156235 ], [ 1.4741984, 38.9142732 ], [ 1.476456, 38.9133527 ], [ 1.4768508, 38.912932 ], [ 1.4751627, 38.9135602 ], [ 1.4724689, 38.9127734 ], [ 1.4705905, 38.9134765 ], [ 1.469396, 38.9126934 ], [ 1.4653105, 38.9140438 ], [ 1.4641251, 38.9133445 ], [ 1.4616296, 38.9176017 ], [ 1.4576046, 38.9180683 ], [ 1.4526092, 38.9153099 ], [ 1.4518555, 38.9136273 ], [ 1.4554697, 38.9112891 ], [ 1.4544205, 38.911033 ], [ 1.4536204, 38.9087353 ], [ 1.4557074, 38.9064276 ], [ 1.4566167, 38.9060665 ], [ 1.4580832, 38.9068588 ], [ 1.4581998, 38.9041619 ], [ 1.4568003, 38.9036553 ], [ 1.4547857, 38.9053613 ], [ 1.4543904, 38.9039927 ], [ 1.4473797, 38.9031969 ], [ 1.4522319, 38.9041426 ], [ 1.4520449, 38.9064677 ], [ 1.4497281, 38.9063985 ], [ 1.451952, 38.9067515 ], [ 1.4516978, 38.9078902 ], [ 1.4493828, 38.907808 ], [ 1.452968, 38.9089907 ], [ 1.4494296, 38.9114855 ], [ 1.4488839, 38.9108414 ], [ 1.4484063, 38.9111582 ], [ 1.4494662, 38.9119079 ], [ 1.4469478, 38.9133127 ], [ 1.4456187, 38.9120789 ], [ 1.4495317, 38.9096031 ], [ 1.4435184, 38.9128657 ], [ 1.4446653, 38.9124465 ], [ 1.4463704, 38.9142496 ], [ 1.4438753, 38.9150398 ], [ 1.4432276, 38.9141144 ], [ 1.444034, 38.9134546 ], [ 1.4424236, 38.9132578 ], [ 1.4431539, 38.915065 ], [ 1.439556, 38.9166759 ], [ 1.4391471, 38.9159884 ], [ 1.4415379, 38.9152265 ], [ 1.4403037, 38.9128659 ], [ 1.4385953, 38.9133056 ], [ 1.4397551, 38.915164 ], [ 1.4381588, 38.9157617 ], [ 1.4359629, 38.9142194 ], [ 1.4349194, 38.9115197 ], [ 1.4350764, 38.9105992 ], [ 1.4372478, 38.9104816 ], [ 1.4383519, 38.9112108 ], [ 1.4377639, 38.9102801 ], [ 1.4402114, 38.9093602 ], [ 1.4429246, 38.9108487 ], [ 1.440889, 38.9086767 ], [ 1.4388569, 38.9079057 ], [ 1.4383388, 38.906212 ], [ 1.4392169, 38.9057338 ], [ 1.438109, 38.9043798 ], [ 1.4390826, 38.9037367 ], [ 1.4386542, 38.9025755 ], [ 1.4374646, 38.9029285 ], [ 1.4366685, 38.9022692 ], [ 1.4343399, 38.9031594 ], [ 1.4279612, 38.9036909 ], [ 1.4276169, 38.9043836 ], [ 1.4242459, 38.9051293 ], [ 1.421127, 38.9034592 ], [ 1.4212626, 38.9023857 ], [ 1.4179905, 38.8978576 ], [ 1.4184196, 38.8969266 ], [ 1.4166547, 38.8955572 ], [ 1.4173878, 38.8966296 ], [ 1.4151956, 38.89653 ], [ 1.4101643, 38.8910387 ], [ 1.4036836, 38.8773557 ], [ 1.4033121, 38.8744553 ], [ 1.4052435, 38.8730478 ], [ 1.4041465, 38.8719771 ], [ 1.4047025, 38.869709 ], [ 1.405269, 38.8691811 ], [ 1.4074968, 38.8696038 ], [ 1.4077152, 38.8682054 ], [ 1.4057873, 38.8664645 ], [ 1.4067127, 38.864948 ], [ 1.405291, 38.8628675 ], [ 1.4056934, 38.8603733 ], [ 1.4075982, 38.8589067 ], [ 1.4064534, 38.8578131 ], [ 1.4069427, 38.8572984 ], [ 1.4043038, 38.857292 ], [ 1.4049811, 38.8565342 ], [ 1.4045398, 38.8551424 ], [ 1.4052358, 38.8547905 ], [ 1.4039174, 38.8536006 ], [ 1.4047368, 38.8525194 ], [ 1.4021784, 38.849145 ], [ 1.4031912, 38.8403526 ], [ 1.4064062, 38.8332584 ], [ 1.4061345, 38.8315145 ], [ 1.4037795, 38.8323942 ], [ 1.400656, 38.8355199 ], [ 1.3931366, 38.8405908 ], [ 1.384146, 38.8422816 ], [ 1.3829825, 38.8404957 ], [ 1.3816655, 38.8400314 ], [ 1.3819512, 38.8384959 ], [ 1.3805397, 38.8343925 ], [ 1.3785951, 38.8340666 ], [ 1.3768483, 38.8350715 ], [ 1.3760697, 38.8329511 ], [ 1.371102, 38.830416 ], [ 1.3723964, 38.8331376 ], [ 1.3686204, 38.8352009 ], [ 1.3708874, 38.8416183 ], [ 1.3707013, 38.8439765 ], [ 1.3677514, 38.8482447 ], [ 1.3666452, 38.8524011 ], [ 1.3620539, 38.8577726 ], [ 1.3611688, 38.8606716 ], [ 1.3538414, 38.8661496 ], [ 1.3431466, 38.871077 ], [ 1.338421, 38.8689758 ], [ 1.3349921, 38.8686667 ], [ 1.3351409, 38.8664065 ], [ 1.332616, 38.8668702 ], [ 1.3323297, 38.8680292 ], [ 1.3296381, 38.8678862 ], [ 1.3269594, 38.8631717 ], [ 1.3246599, 38.8631872 ], [ 1.3221198, 38.8597421 ], [ 1.3205479, 38.8557931 ], [ 1.3201752, 38.8579146 ], [ 1.3214627, 38.8588775 ], [ 1.3215682, 38.8633713 ], [ 1.3204706, 38.8653416 ], [ 1.3160608, 38.8678427 ], [ 1.3134171, 38.8685267 ], [ 1.3124261, 38.8679303 ], [ 1.3099828, 38.868262 ], [ 1.3091109, 38.8641407 ], [ 1.3047282, 38.8616604 ], [ 1.3051145, 38.8626495 ], [ 1.3041576, 38.8630608 ], [ 1.3026073, 38.8629857 ], [ 1.3020655, 38.8618161 ], [ 1.2994899, 38.8628812 ], [ 1.2975748, 38.8621061 ], [ 1.2994912, 38.865473 ], [ 1.3021447, 38.8652426 ], [ 1.3049315, 38.8664943 ], [ 1.3052432, 38.8679425 ], [ 1.3034579, 38.8704824 ], [ 1.3015629, 38.8690288 ], [ 1.3007389, 38.8692318 ], [ 1.3008161, 38.8716684 ], [ 1.2997428, 38.8718539 ], [ 1.2992441, 38.8744866 ], [ 1.2980953, 38.8749664 ], [ 1.2974872, 38.876474 ], [ 1.2956798, 38.8771892 ], [ 1.2921351, 38.8758886 ], [ 1.2894319, 38.8759082 ], [ 1.284377, 38.8769511 ], [ 1.2823331, 38.8747461 ], [ 1.281212, 38.8763664 ], [ 1.2821239, 38.877114 ], [ 1.2793559, 38.8784921 ], [ 1.2772401, 38.8788212 ], [ 1.2745227, 38.8776327 ], [ 1.2743768, 38.8787753 ], [ 1.2716731, 38.8794435 ], [ 1.2663945, 38.8773187 ], [ 1.2640513, 38.8737237 ], [ 1.2617885, 38.8727 ], [ 1.2598542, 38.8693802 ], [ 1.2558459, 38.8659987 ], [ 1.2549705, 38.8636663 ], [ 1.2533998, 38.8626037 ], [ 1.2557172, 38.8619287 ], [ 1.2553138, 38.85979 ], [ 1.2542409, 38.8597833 ], [ 1.2532624, 38.8580523 ], [ 1.2480268, 38.8557531 ], [ 1.2474203, 38.8569601 ], [ 1.2463616, 38.8565952 ], [ 1.245572, 38.8593355 ], [ 1.246087, 38.860572 ], [ 1.2444648, 38.8614809 ], [ 1.2434348, 38.8666135 ], [ 1.2415036, 38.8677229 ], [ 1.2405938, 38.8694136 ], [ 1.2387595, 38.8698983 ], [ 1.2377992, 38.8711387 ], [ 1.23699, 38.8708161 ], [ 1.235753, 38.8727415 ], [ 1.2329713, 38.8719991 ], [ 1.2331035, 38.8731732 ], [ 1.2323436, 38.8722705 ], [ 1.2298039, 38.8720816 ], [ 1.2306654, 38.8728517 ], [ 1.2287492, 38.8731558 ], [ 1.2240542, 38.8708704 ], [ 1.2254018, 38.8734498 ], [ 1.224904, 38.8742182 ], [ 1.2260903, 38.8747167 ], [ 1.2262429, 38.8758286 ], [ 1.2220445, 38.87939 ], [ 1.2231015, 38.8801183 ], [ 1.2234285, 38.8833237 ], [ 1.22511, 38.8852162 ], [ 1.2249062, 38.8869416 ], [ 1.2256089, 38.8879888 ], [ 1.2230472, 38.8907742 ], [ 1.220194, 38.8899462 ], [ 1.218942, 38.8914363 ], [ 1.2200398, 38.8921928 ], [ 1.2197112, 38.8928055 ], [ 1.2166861, 38.8937603 ], [ 1.2180319, 38.8947731 ], [ 1.2147674, 38.8973413 ], [ 1.2134043, 38.8973556 ], [ 1.2140292, 38.8989646 ], [ 1.2132739, 38.9019562 ] ] ], [ [ [ 1.4323023, 39.0929838 ], [ 1.4324139, 39.0914183 ], [ 1.4315529, 39.0911605 ], [ 1.4323023, 39.0929838 ] ] ], [ [ [ 1.4641944, 39.1034632 ], [ 1.462693, 39.1023699 ], [ 1.4639752, 39.1023725 ], [ 1.4638624, 39.101708 ], [ 1.4615279, 39.1021366 ], [ 1.4626501, 39.1035022 ], [ 1.4641944, 39.1034632 ] ] ], [ [ [ 1.4928186, 38.916386 ], [ 1.4930255, 38.9161749 ], [ 1.4928532, 38.916081 ], [ 1.4928186, 38.916386 ] ] ], [ [ [ 1.496902, 38.9205939 ], [ 1.4967243, 38.9200696 ], [ 1.4967539, 38.9206361 ], [ 1.496902, 38.9205939 ] ] ], [ [ [ 1.5021774, 38.933162 ], [ 1.5018844, 38.9332521 ], [ 1.5021413, 38.9332509 ], [ 1.5021774, 38.933162 ] ] ], [ [ [ 1.5068318, 38.9369291 ], [ 1.5068576, 38.9371695 ], [ 1.5070121, 38.937036 ], [ 1.5068318, 38.9369291 ] ] ], [ [ [ 1.5281705, 38.9453335 ], [ 1.5288632, 38.9453967 ], [ 1.52887, 38.9449557 ], [ 1.5281705, 38.9453335 ] ] ], [ [ [ 1.5779872, 38.9827574 ], [ 1.5794012, 38.9824442 ], [ 1.5774868, 38.981729 ], [ 1.5779872, 38.9827574 ] ] ], [ [ [ 1.5842763, 38.9859814 ], [ 1.5851131, 38.9857125 ], [ 1.5842387, 38.9846241 ], [ 1.584574, 38.9823682 ], [ 1.5837912, 38.9821654 ], [ 1.5830344, 38.9849536 ], [ 1.5842763, 38.9859814 ] ] ], [ [ [ 1.5768975, 38.9844279 ], [ 1.5765055, 38.9843526 ], [ 1.576508, 38.984532 ], [ 1.5768975, 38.9844279 ] ] ], [ [ [ 1.5844612, 39.0000592 ], [ 1.5849118, 39.0003386 ], [ 1.5846167, 38.9998174 ], [ 1.5844612, 39.0000592 ] ] ], [ [ [ 1.586784, 39.0010014 ], [ 1.5869073, 39.0023479 ], [ 1.5876155, 39.0015267 ], [ 1.586784, 39.0010014 ] ] ], [ [ [ 1.5828787, 39.0032273 ], [ 1.5834312, 39.0029858 ], [ 1.5827928, 39.0031192 ], [ 1.5828787, 39.0032273 ] ] ], [ [ [ 1.5823476, 39.0033649 ], [ 1.5825032, 39.0033441 ], [ 1.582471, 39.0032982 ], [ 1.5823476, 39.0033649 ] ] ], [ [ [ 1.5836726, 39.0036359 ], [ 1.5836351, 39.0033357 ], [ 1.583619, 39.003565 ], [ 1.5836726, 39.0036359 ] ] ], [ [ [ 1.5822387, 39.0044565 ], [ 1.5818648, 39.0044571 ], [ 1.5818373, 39.0045008 ], [ 1.5822387, 39.0044565 ] ] ], [ [ [ 1.5816931, 39.005012 ], [ 1.5815189, 39.0050283 ], [ 1.581527, 39.0050679 ], [ 1.5816931, 39.005012 ] ] ], [ [ [ 1.5822404, 39.0051034 ], [ 1.5822324, 39.0050492 ], [ 1.5821761, 39.0051367 ], [ 1.5822404, 39.0051034 ] ] ], [ [ [ 1.636108, 39.0407814 ], [ 1.637064, 39.0414438 ], [ 1.6418343, 39.0417813 ], [ 1.6394743, 39.0408192 ], [ 1.6405629, 39.0408501 ], [ 1.6398039, 39.0401647 ], [ 1.6405482, 39.0399835 ], [ 1.6402392, 39.0391533 ], [ 1.6416152, 39.0389201 ], [ 1.643208, 39.0402564 ], [ 1.6462021, 39.0407457 ], [ 1.6465515, 39.038628 ], [ 1.644592, 39.0374119 ], [ 1.6457281, 39.037141 ], [ 1.6450488, 39.0365655 ], [ 1.6456263, 39.0362773 ], [ 1.6464855, 39.0368526 ], [ 1.6472756, 39.0365496 ], [ 1.6470311, 39.0359954 ], [ 1.6479345, 39.0362552 ], [ 1.6501763, 39.0335499 ], [ 1.6502837, 39.0323067 ], [ 1.6487519, 39.0315526 ], [ 1.6471228, 39.0318464 ], [ 1.6397595, 39.0345715 ], [ 1.6411201, 39.0361813 ], [ 1.6396909, 39.0383094 ], [ 1.6375054, 39.0391612 ], [ 1.636108, 39.0407814 ] ] ], [ [ [ 1.6062998, 39.0470691 ], [ 1.6065135, 39.0464136 ], [ 1.6059874, 39.0466838 ], [ 1.6062998, 39.0470691 ] ] ], [ [ [ 1.6047386, 39.0796921 ], [ 1.6053206, 39.080029 ], [ 1.605432, 39.0799597 ], [ 1.6047386, 39.0796921 ] ] ], [ [ [ 1.6101357, 39.0807383 ], [ 1.6098829, 39.0800991 ], [ 1.6090996, 39.0800222 ], [ 1.6092569, 39.0803159 ], [ 1.6101357, 39.0807383 ] ] ], [ [ [ 1.6104064, 39.0804625 ], [ 1.6113319, 39.0817101 ], [ 1.611315, 39.0809859 ], [ 1.6104064, 39.0804625 ] ] ], [ [ [ 1.5936725, 39.0983048 ], [ 1.5922745, 39.0980108 ], [ 1.5920693, 39.0992185 ], [ 1.5936725, 39.0983048 ] ] ], [ [ [ 1.4948262, 39.1033794 ], [ 1.4943042, 39.1026846 ], [ 1.4937689, 39.1027446 ], [ 1.4948262, 39.1033794 ] ] ], [ [ [ 1.5139174, 39.1164713 ], [ 1.5175168, 39.1162906 ], [ 1.5183609, 39.1154541 ], [ 1.5171675, 39.1147508 ], [ 1.5154209, 39.1151693 ], [ 1.515914, 39.1161883 ], [ 1.5139174, 39.1164713 ] ] ] ] } }
]
}
