{
"type": "FeatureCollection",
"name": "ireland",
"crs": { "type": "name", "properties": { "name": "urn:ogc:def:crs:OGC:1.3:CRS84" } },
"features": [
{ "type": "Feature", "properties": { }, "geometry": { "type": "Polygon", "coordinates": [ [ [ -11.0133788, 52.024 ], [ -11.0125308, 52.01 ], [ -11.0105271, 51.998 ], [ -11.0066701, 51.984 ], [ -11.0020192, 51.972 ], [ -10.9949463, 51.958 ], [ -10.9873829, 51.946 ], [ -10.9783215, 51.934 ], [ -10.9676174, 51.922 ], [ -10.9561956, 51.911 ], [ -10.9430225, 51.9 ], [ -10.9292871, 51.89 ], [ -10.9135608, 51.88 ], [ -10.8973356, 51.871 ], [ -10.8808531, 51.863 ], [ -10.8618597, 51.855 ], [ -10.8424561, 51.848 ], [ -10.8546404, 51.826 ], [ -10.8627905, 51.804 ], [ -10.8668352, 51.782 ], [ -10.8669346, 51.76 ], [ -10.8630981, 51.738 ], [ -10.8551861, 51.716 ], [ -10.8432239, 51.694 ], [ -10.8281901, 51.674 ], [ -10.810649, 51.656 ], [ -10.7898472, 51.639 ], [ -10.7671558, 51.624 ], [ -10.7410369, 51.61 ], [ -10.7131716, 51.598 ], [ -10.6838466, 51.588 ], [ -10.6533039, 51.58 ], [ -10.6217007, 51.574 ], [ -10.6170285, 51.554 ], [ -10.609958, 51.536 ], [ -10.5999363, 51.518 ], [ -10.5874869, 51.501 ], [ -10.5727628, 51.485 ], [ -10.5546092, 51.469 ], [ -10.5337675, 51.454 ], [ -10.511856, 51.441 ], [ -10.4803491, 51.426 ], [ -10.4480347, 51.414 ], [ -10.4261718, 51.404 ], [ -10.4025112, 51.395 ], [ -10.365079, 51.384 ], [ -10.3251435, 51.376 ], [ -10.3025319, 51.373 ], [ -10.279303, 51.371 ], [ -10.2429187, 51.37 ], [ -10.2015053, 51.372 ], [ -10.1688165, 51.376 ], [ -10.1418776, 51.381 ], [ -10.1212231, 51.382 ], [ -10.1075554, 51.362 ], [ -10.0904616, 51.343 ], [ -10.0698268, 51.325 ], [ -10.046902, 51.309 ], [ -10.0201411, 51.294 ], [ -9.990965, 51.281 ], [ -9.9592857, 51.27 ], [ -9.9289556, 51.262 ], [ -9.8908883, 51.255 ], [ -9.8405504, 51.25 ], [ -9.7656067, 51.248 ], [ -9.7374203, 51.249 ], [ -9.6983857, 51.253 ], [ -9.6909101, 51.253 ], [ -9.6717626, 51.246 ], [ -9.652438, 51.24 ], [ -9.6332494, 51.235 ], [ -9.6093709, 51.23 ], [ -9.5649913, 51.224 ], [ -9.5237117, 51.222 ], [ -9.4808148, 51.223 ], [ -9.4677055, 51.224 ], [ -9.4351223, 51.228 ], [ -9.4082705, 51.233 ], [ -9.3838289, 51.239 ], [ -9.3434072, 51.251 ], [ -9.3187478, 51.26 ], [ -9.2938401, 51.271 ], [ -9.2570146, 51.268 ], [ -9.2204854, 51.267 ], [ -9.1791652, 51.269 ], [ -9.134742, 51.275 ], [ -9.0952062, 51.284 ], [ -9.0752959, 51.29 ], [ -9.0556821, 51.297 ], [ -9.0365568, 51.305 ], [ -9.0200014, 51.313 ], [ -9.0037314, 51.322 ], [ -8.9894585, 51.331 ], [ -8.9580339, 51.33 ], [ -8.9186473, 51.331 ], [ -8.8954388, 51.333 ], [ -8.8728469, 51.336 ], [ -8.8506837, 51.34 ], [ -8.8251329, 51.346 ], [ -8.7735973, 51.361 ], [ -8.7503036, 51.369 ], [ -8.744487, 51.37 ], [ -8.7076758, 51.37 ], [ -8.6794141, 51.371 ], [ -8.6561852, 51.373 ], [ -8.6335735, 51.376 ], [ -8.6066346, 51.381 ], [ -8.5821138, 51.387 ], [ -8.5591448, 51.394 ], [ -8.534595, 51.403 ], [ -8.528279, 51.404 ], [ -8.4868347, 51.406 ], [ -8.4541215, 51.41 ], [ -8.4183042, 51.417 ], [ -8.3857488, 51.426 ], [ -8.3604133, 51.435 ], [ -8.3373061, 51.445 ], [ -8.3160692, 51.456 ], [ -8.2965574, 51.468 ], [ -8.2787381, 51.481 ], [ -8.261587, 51.496 ], [ -8.24634, 51.512 ], [ -8.2343742, 51.527 ], [ -8.1914273, 51.539 ], [ -8.1568653, 51.552 ], [ -8.1295193, 51.565 ], [ -8.0797746, 51.593 ], [ -8.0432672, 51.601 ], [ -8.0046641, 51.612 ], [ -7.96468, 51.618 ], [ -7.9182892, 51.629 ], [ -7.8978942, 51.632 ], [ -7.8724262, 51.637 ], [ -7.8487176, 51.643 ], [ -7.8262655, 51.65 ], [ -7.8024714, 51.659 ], [ -7.7784865, 51.67 ], [ -7.7584305, 51.681 ], [ -7.7384793, 51.694 ], [ -7.7160176, 51.7 ], [ -7.6940534, 51.707 ], [ -7.6751401, 51.714 ], [ -7.6565601, 51.722 ], [ -7.6295421, 51.736 ], [ -7.6043816, 51.752 ], [ -7.5725501, 51.76 ], [ -7.5423614, 51.77 ], [ -7.5112776, 51.783 ], [ -7.4807519, 51.799 ], [ -7.4465697, 51.81 ], [ -7.4115174, 51.823 ], [ -7.3925375, 51.831 ], [ -7.3722709, 51.841 ], [ -7.3533037, 51.852 ], [ -7.3356861, 51.864 ], [ -7.3194609, 51.877 ], [ -7.3054306, 51.89 ], [ -7.2936048, 51.903 ], [ -7.2830378, 51.917 ], [ -7.2739585, 51.932 ], [ -7.2333895, 51.931 ], [ -7.1731263, 51.932 ], [ -7.1410321, 51.929 ], [ -7.1124191, 51.928 ], [ -7.0625125, 51.929 ], [ -7.0285252, 51.932 ], [ -7.004367, 51.928 ], [ -6.9780596, 51.925 ], [ -6.9647459, 51.924 ], [ -6.9220804, 51.923 ], [ -6.8934706, 51.924 ], [ -6.8613799, 51.927 ], [ -6.8350849, 51.931 ], [ -6.7987209, 51.939 ], [ -6.7947878, 51.939 ], [ -6.7685469, 51.93 ], [ -6.7430357, 51.923 ], [ -6.7145975, 51.917 ], [ -6.6883107, 51.913 ], [ -6.6562301, 51.91 ], [ -6.6276292, 51.909 ], [ -6.5753666, 51.911 ], [ -6.5490675, 51.914 ], [ -6.5249168, 51.918 ], [ -6.4978394, 51.924 ], [ -6.4731433, 51.931 ], [ -6.4501185, 51.939 ], [ -6.426192, 51.949 ], [ -6.40776, 51.958 ], [ -6.3805207, 51.973 ], [ -6.329591, 51.974 ], [ -6.3060496, 51.976 ], [ -6.2831338, 51.979 ], [ -6.2606527, 51.983 ], [ -6.2347352, 51.989 ], [ -6.2138925, 51.995 ], [ -6.1908347, 52.003 ], [ -6.1598008, 52.005 ], [ -6.12665, 52.009 ], [ -6.0947393, 52.015 ], [ -6.0638993, 52.023 ], [ -6.0316871, 52.034 ], [ -6.0040688, 52.046 ], [ -5.9780979, 52.06 ], [ -5.9541457, 52.076 ], [ -5.9336796, 52.093 ], [ -5.9155868, 52.112 ], [ -5.9010534, 52.132 ], [ -5.8905247, 52.152 ], [ -5.8853223, 52.166 ], [ -5.8818051, 52.18 ], [ -5.8799199, 52.194 ], [ -5.8797305, 52.21 ], [ -5.8816373, 52.226 ], [ -5.8850553, 52.24 ], [ -5.8901625, 52.254 ], [ -5.8970443, 52.268 ], [ -5.9058244, 52.282 ], [ -5.9158287, 52.295 ], [ -5.9278137, 52.308 ], [ -5.9408678, 52.32 ], [ -5.9547741, 52.331 ], [ -5.9708755, 52.342 ], [ -5.9878262, 52.352 ], [ -6.0075617, 52.362 ], [ -6.0082064, 52.363 ], [ -5.9930595, 52.374 ], [ -5.9796731, 52.385 ], [ -5.960064, 52.404 ], [ -5.9454533, 52.416 ], [ -5.9304898, 52.43 ], [ -5.9202266, 52.441 ], [ -5.9080924, 52.456 ], [ -5.8930781, 52.478 ], [ -5.8785934, 52.506 ], [ -5.8733449, 52.518 ], [ -5.8688358, 52.532 ], [ -5.8656351, 52.548 ], [ -5.8645298, 52.566 ], [ -5.8657887, 52.582 ], [ -5.8691838, 52.598 ], [ -5.8747858, 52.614 ], [ -5.8475757, 52.642 ], [ -5.8382339, 52.654 ], [ -5.8291975, 52.668 ], [ -5.8220088, 52.682 ], [ -5.8166177, 52.696 ], [ -5.8129371, 52.71 ], [ -5.8108074, 52.724 ], [ -5.7917045, 52.738 ], [ -5.7737374, 52.754 ], [ -5.7583745, 52.771 ], [ -5.7469235, 52.787 ], [ -5.736235, 52.807 ], [ -5.7291191, 52.827 ], [ -5.7222414, 52.839 ], [ -5.7109942, 52.855 ], [ -5.699752, 52.875 ], [ -5.6898696, 52.889 ], [ -5.6817565, 52.903 ], [ -5.6734704, 52.9206172 ], [ -5.6689221, 52.937 ], [ -5.6664137, 52.951 ], [ -5.6655546, 52.967 ], [ -5.6668242, 52.983 ], [ -5.6697018, 52.997 ], [ -5.6749699, 53.013 ], [ -5.6814444, 53.027 ], [ -5.6911682, 53.043 ], [ -5.7018961, 53.057 ], [ -5.7011877, 53.073 ], [ -5.7021277, 53.087 ], [ -5.7059082, 53.117 ], [ -5.7126951, 53.151 ], [ -5.7179725, 53.167 ], [ -5.7253268, 53.183 ], [ -5.7343906, 53.199 ], [ -5.7439778, 53.213 ], [ -5.7490192, 53.231 ], [ -5.7445575, 53.245 ], [ -5.741792, 53.259 ], [ -5.7406822, 53.273 ], [ -5.7412133, 53.287 ], [ -5.7329827, 53.301 ], [ -5.7238348, 53.319 ], [ -5.7155894, 53.339 ], [ -5.7127467, 53.349 ], [ -5.7104732, 53.361 ], [ -5.7086426, 53.389 ], [ -5.6904107, 53.409 ], [ -5.6767282, 53.429 ], [ -5.6670293, 53.449 ], [ -5.6635601, 53.459 ], [ -5.6605569, 53.471 ], [ -5.6582858, 53.491 ], [ -5.658541, 53.503 ], [ -5.6596814, 53.513 ], [ -5.6645375, 53.533 ], [ -5.6729724, 53.553 ], [ -5.6671821, 53.575 ], [ -5.6649805, 53.593 ], [ -5.6657446, 53.613 ], [ -5.6699179, 53.633 ], [ -5.67411, 53.645 ], [ -5.6796269, 53.657 ], [ -5.6865392, 53.669 ], [ -5.6949424, 53.681 ], [ -5.704964, 53.693 ], [ -5.7157182, 53.704 ], [ -5.7281542, 53.715 ], [ -5.7411218, 53.725 ], [ -5.755931, 53.735 ], [ -5.7711265, 53.744 ], [ -5.8038352, 53.76 ], [ -5.8383454, 53.773 ], [ -5.8776766, 53.784 ], [ -5.8783765, 53.786 ], [ -5.8783039, 53.804 ], [ -5.8797845, 53.816 ], [ -5.8830827, 53.83 ], [ -5.8881238, 53.844 ], [ -5.8524835, 53.865 ], [ -5.8466211, 53.867 ], [ -5.8260127, 53.8701701 ], [ -5.9510735, 53.931586 ], [ -6.1133705, 54.0332235 ], [ -6.1598263, 54.0524524 ], [ -6.2588864, 54.0958429 ], [ -6.2805448, 54.1108748 ], [ -6.2847299, 54.112224 ], [ -6.2908641, 54.1126812 ], [ -6.2960372, 54.1092388 ], [ -6.299283, 54.1091499 ], [ -6.3090026, 54.1066899 ], [ -6.3089972, 54.1033575 ], [ -6.3101485, 54.1005833 ], [ -6.3132086, 54.0961318 ], [ -6.3167233, 54.0939075 ], [ -6.3178815, 54.0909762 ], [ -6.336345, 54.0947192 ], [ -6.3355271, 54.0996239 ], [ -6.3362271, 54.101997 ], [ -6.3344305, 54.1048567 ], [ -6.3358796, 54.1082357 ], [ -6.3383003, 54.1083088 ], [ -6.3399326, 54.1118875 ], [ -6.3446657, 54.1116298 ], [ -6.3458372, 54.1137038 ], [ -6.3490241, 54.1139453 ], [ -6.3548826, 54.110458 ], [ -6.3631972, 54.1135767 ], [ -6.3662015, 54.1137422 ], [ -6.3664026, 54.1123487 ], [ -6.3684051, 54.1109787 ], [ -6.3671905, 54.1083722 ], [ -6.3676511, 54.1069537 ], [ -6.3669748, 54.1049141 ], [ -6.3655808, 54.1039405 ], [ -6.3666479, 54.1022105 ], [ -6.3642454, 54.0983923 ], [ -6.3621118, 54.097392 ], [ -6.362185, 54.0962194 ], [ -6.366134, 54.0938612 ], [ -6.3636965, 54.0901527 ], [ -6.3622829, 54.0793403 ], [ -6.3635317, 54.0726004 ], [ -6.3675091, 54.0702172 ], [ -6.3757441, 54.0689739 ], [ -6.3772617, 54.0696937 ], [ -6.3827072, 54.0684403 ], [ -6.3838993, 54.0677865 ], [ -6.3871134, 54.0617011 ], [ -6.3914016, 54.0587442 ], [ -6.3925332, 54.0603213 ], [ -6.3953118, 54.0615446 ], [ -6.4119835, 54.0630585 ], [ -6.4146155, 54.0616919 ], [ -6.4181282, 54.0623777 ], [ -6.4213737, 54.0594428 ], [ -6.4229453, 54.0611036 ], [ -6.4272094, 54.06098 ], [ -6.4297171, 54.0583479 ], [ -6.4322958, 54.0594559 ], [ -6.4334812, 54.0610051 ], [ -6.4373005, 54.0575065 ], [ -6.4396989, 54.0579617 ], [ -6.4434469, 54.0564902 ], [ -6.4433728, 54.0579777 ], [ -6.4457979, 54.0584823 ], [ -6.4483912, 54.060788 ], [ -6.4483872, 54.0641153 ], [ -6.4502035, 54.064541 ], [ -6.4487861, 54.0649447 ], [ -6.4506708, 54.0663485 ], [ -6.4500014, 54.0679946 ], [ -6.4538893, 54.0698539 ], [ -6.4538161, 54.070756 ], [ -6.4560111, 54.0725574 ], [ -6.4604541, 54.0706025 ], [ -6.4621884, 54.0705984 ], [ -6.4665888, 54.0739076 ], [ -6.4713498, 54.0736627 ], [ -6.4777724, 54.0771122 ], [ -6.4797405, 54.0767451 ], [ -6.4814574, 54.0747074 ], [ -6.4814213, 54.0719302 ], [ -6.4785008, 54.0704954 ], [ -6.4783716, 54.0692588 ], [ -6.4754288, 54.0688843 ], [ -6.4712996, 54.0663025 ], [ -6.4769733, 54.0663085 ], [ -6.4798225, 54.0671834 ], [ -6.4847214, 54.0667382 ], [ -6.4848754, 54.0652788 ], [ -6.4919823, 54.0625442 ], [ -6.4965309, 54.0592812 ], [ -6.5034819, 54.05994 ], [ -6.5097843, 54.0574433 ], [ -6.5084, 54.0534533 ], [ -6.5105066, 54.0526806 ], [ -6.5157738, 54.0524956 ], [ -6.5189552, 54.0548152 ], [ -6.5283679, 54.059153 ], [ -6.531866, 54.0596807 ], [ -6.5384905, 54.0555348 ], [ -6.5431772, 54.0536463 ], [ -6.5454209, 54.0515106 ], [ -6.5470527, 54.0519883 ], [ -6.5492384, 54.0503815 ], [ -6.552481, 54.0517751 ], [ -6.5577153, 54.0491716 ], [ -6.5615351, 54.0507678 ], [ -6.5694902, 54.050919 ], [ -6.5701047, 54.0513564 ], [ -6.5692008, 54.0535356 ], [ -6.5722282, 54.0539329 ], [ -6.5734065, 54.0530105 ], [ -6.5752203, 54.053096 ], [ -6.5795093, 54.0557421 ], [ -6.5820424, 54.0548393 ], [ -6.5865498, 54.057554 ], [ -6.590865, 54.0560824 ], [ -6.5957075, 54.0519535 ], [ -6.5936387, 54.0500079 ], [ -6.5942226, 54.0486262 ], [ -6.5930016, 54.0462768 ], [ -6.5949918, 54.0446177 ], [ -6.5984065, 54.0458095 ], [ -6.6009904, 54.0446326 ], [ -6.6045041, 54.0450228 ], [ -6.6065382, 54.0398316 ], [ -6.6161803, 54.0425397 ], [ -6.6168355, 54.0421883 ], [ -6.6163699, 54.0411805 ], [ -6.6174626, 54.0388836 ], [ -6.6235493, 54.0388609 ], [ -6.6238101, 54.0364597 ], [ -6.6301897, 54.0433956 ], [ -6.6357604, 54.0438073 ], [ -6.635726, 54.04548 ], [ -6.6397186, 54.0472095 ], [ -6.6410749, 54.0485642 ], [ -6.6396635, 54.0500534 ], [ -6.6432349, 54.0527241 ], [ -6.6449413, 54.0528255 ], [ -6.6475318, 54.056581 ], [ -6.6478618, 54.0572919 ], [ -6.6467403, 54.0589384 ], [ -6.6489017, 54.0592779 ], [ -6.6498799, 54.0614641 ], [ -6.6507577, 54.0618157 ], [ -6.65814, 54.0617609 ], [ -6.6608921, 54.0627328 ], [ -6.6650898, 54.0662705 ], [ -6.6643736, 54.069669 ], [ -6.6657131, 54.0709823 ], [ -6.6677055, 54.0709924 ], [ -6.6689854, 54.0728911 ], [ -6.6685863, 54.0737152 ], [ -6.6649086, 54.0742673 ], [ -6.6613792, 54.0736881 ], [ -6.6583963, 54.0755641 ], [ -6.65809, 54.0763458 ], [ -6.6589755, 54.0772997 ], [ -6.6581763, 54.078801 ], [ -6.6586964, 54.0799166 ], [ -6.6579308, 54.0804944 ], [ -6.6586909, 54.0839548 ], [ -6.6556178, 54.0868218 ], [ -6.6565042, 54.0878483 ], [ -6.6589396, 54.0877557 ], [ -6.6595413, 54.0891854 ], [ -6.6609284, 54.0897014 ], [ -6.6611331, 54.0921479 ], [ -6.6620177, 54.0928258 ], [ -6.6588461, 54.096141 ], [ -6.6554217, 54.0935849 ], [ -6.6520117, 54.0929821 ], [ -6.6450586, 54.0959952 ], [ -6.6460473, 54.0982897 ], [ -6.6451049, 54.0991151 ], [ -6.6453183, 54.1005889 ], [ -6.6477031, 54.1016531 ], [ -6.6504324, 54.1045326 ], [ -6.6499491, 54.1066957 ], [ -6.6522441, 54.1075514 ], [ -6.6565335, 54.111006 ], [ -6.660842, 54.1180195 ], [ -6.6612681, 54.1226628 ], [ -6.6602905, 54.1240858 ], [ -6.6566362, 54.1240478 ], [ -6.6539784, 54.1236655 ], [ -6.6516561, 54.121463 ], [ -6.6485245, 54.1216257 ], [ -6.6487613, 54.1240873 ], [ -6.6509889, 54.1269289 ], [ -6.6490406, 54.1274551 ], [ -6.6497076, 54.129566 ], [ -6.6451486, 54.1306469 ], [ -6.6419673, 54.1302139 ], [ -6.6398009, 54.1316253 ], [ -6.6400758, 54.1330387 ], [ -6.6394832, 54.1332636 ], [ -6.6402486, 54.1339552 ], [ -6.6390976, 54.136611 ], [ -6.6409545, 54.1386826 ], [ -6.6400457, 54.1404414 ], [ -6.6412664, 54.1419488 ], [ -6.6371462, 54.142954 ], [ -6.6379375, 54.1448509 ], [ -6.6366669, 54.1462064 ], [ -6.6352066, 54.1457411 ], [ -6.6316257, 54.1469696 ], [ -6.6308768, 54.1491198 ], [ -6.6312676, 54.1533599 ], [ -6.629684, 54.153531 ], [ -6.6311279, 54.1547395 ], [ -6.6335408, 54.1593245 ], [ -6.6331642, 54.1599221 ], [ -6.634612, 54.1614715 ], [ -6.6335911, 54.1619356 ], [ -6.6358802, 54.1665951 ], [ -6.6356544, 54.1683134 ], [ -6.6363292, 54.1691338 ], [ -6.6355663, 54.1697038 ], [ -6.6356812, 54.1708419 ], [ -6.639461, 54.1723446 ], [ -6.6425305, 54.1755676 ], [ -6.6439405, 54.1799937 ], [ -6.6462091, 54.1792766 ], [ -6.6492025, 54.1796442 ], [ -6.6570812, 54.1846946 ], [ -6.6586181, 54.184763 ], [ -6.66304, 54.1898888 ], [ -6.6646359, 54.1929754 ], [ -6.6735095, 54.1921888 ], [ -6.6783771, 54.1956277 ], [ -6.6804991, 54.1935633 ], [ -6.682828, 54.1931658 ], [ -6.6878014, 54.1948722 ], [ -6.6916863, 54.2001645 ], [ -6.6947146, 54.1999264 ], [ -6.6953706, 54.1989302 ], [ -6.7011851, 54.2003354 ], [ -6.7060062, 54.2000531 ], [ -6.7100629, 54.1980336 ], [ -6.7140371, 54.1948007 ], [ -6.7129411, 54.1914257 ], [ -6.7208918, 54.1871263 ], [ -6.7210649, 54.1819651 ], [ -6.7225605, 54.1815504 ], [ -6.7273945, 54.1824192 ], [ -6.7321663, 54.1855931 ], [ -6.7349716, 54.1857585 ], [ -6.7385911, 54.1815025 ], [ -6.7407637, 54.1819157 ], [ -6.74444, 54.1841367 ], [ -6.7454668, 54.1885339 ], [ -6.7490684, 54.1907717 ], [ -6.750853, 54.1949591 ], [ -6.7561744, 54.1992584 ], [ -6.7662748, 54.1985207 ], [ -6.7690235, 54.2005547 ], [ -6.7736095, 54.1988939 ], [ -6.7756212, 54.1989476 ], [ -6.7767474, 54.1995107 ], [ -6.7771388, 54.2013853 ], [ -6.7841702, 54.2058973 ], [ -6.7907011, 54.2086952 ], [ -6.7949762, 54.2090032 ], [ -6.7947045, 54.210392 ], [ -6.7959281, 54.2108165 ], [ -6.7967301, 54.2126942 ], [ -6.800973, 54.2131655 ], [ -6.8023704, 54.2151873 ], [ -6.8025225, 54.2168567 ], [ -6.8010809, 54.2183911 ], [ -6.8003484, 54.2210694 ], [ -6.8086605, 54.2246935 ], [ -6.8117135, 54.223373 ], [ -6.8161689, 54.2230244 ], [ -6.8165308, 54.2245333 ], [ -6.8150036, 54.2271715 ], [ -6.819804, 54.232598 ], [ -6.8201186, 54.2358933 ], [ -6.8191742, 54.2386961 ], [ -6.8225385, 54.240679 ], [ -6.8248141, 54.2440051 ], [ -6.8263356, 54.2446551 ], [ -6.8264224, 54.2463147 ], [ -6.8291222, 54.2474842 ], [ -6.828792, 54.2514937 ], [ -6.8294903, 54.2528287 ], [ -6.8289057, 54.2552437 ], [ -6.8296387, 54.2573564 ], [ -6.8270942, 54.2602682 ], [ -6.8277429, 54.2614872 ], [ -6.8334168, 54.2623372 ], [ -6.8363264, 54.2646515 ], [ -6.8368178, 54.2665406 ], [ -6.8392686, 54.2677438 ], [ -6.8413616, 54.2656332 ], [ -6.8429575, 54.2657867 ], [ -6.8441039, 54.2668425 ], [ -6.8518516, 54.2650093 ], [ -6.8525345, 54.2689716 ], [ -6.8584571, 54.2683488 ], [ -6.8624721, 54.2699523 ], [ -6.8656027, 54.2696795 ], [ -6.8666313, 54.2706755 ], [ -6.8648958, 54.2735298 ], [ -6.8656927, 54.2737677 ], [ -6.8654989, 54.2745301 ], [ -6.8702826, 54.2762402 ], [ -6.8715254, 54.2757269 ], [ -6.871499, 54.2763522 ], [ -6.8764993, 54.2776351 ], [ -6.8780378, 54.2792432 ], [ -6.8747022, 54.2820243 ], [ -6.8757, 54.2836737 ], [ -6.8767621, 54.2835804 ], [ -6.8778988, 54.2850751 ], [ -6.875252, 54.285535 ], [ -6.8743937, 54.2864414 ], [ -6.8750991, 54.2872272 ], [ -6.8722871, 54.2879423 ], [ -6.8695928, 54.2875314 ], [ -6.8677362, 54.2857005 ], [ -6.8679189, 54.2820919 ], [ -6.8657538, 54.2823999 ], [ -6.8617868, 54.2811095 ], [ -6.8590031, 54.2819134 ], [ -6.8585994, 54.283514 ], [ -6.8612615, 54.287149 ], [ -6.8602549, 54.287991 ], [ -6.8604496, 54.2891149 ], [ -6.85417, 54.2900177 ], [ -6.8514797, 54.2915958 ], [ -6.8511919, 54.2923048 ], [ -6.8527387, 54.2926795 ], [ -6.8531782, 54.2946099 ], [ -6.851312, 54.295687 ], [ -6.8508721, 54.2972791 ], [ -6.8535137, 54.301395 ], [ -6.8590814, 54.3038469 ], [ -6.8579453, 54.3045091 ], [ -6.8574682, 54.3066982 ], [ -6.8595667, 54.3080535 ], [ -6.8569296, 54.3099065 ], [ -6.857942, 54.3113458 ], [ -6.8565876, 54.3116137 ], [ -6.8571622, 54.3124471 ], [ -6.8564686, 54.3135159 ], [ -6.8632076, 54.3153411 ], [ -6.8642791, 54.3236376 ], [ -6.8638016, 54.3249061 ], [ -6.8657728, 54.3265842 ], [ -6.8639025, 54.3301004 ], [ -6.8663585, 54.3300419 ], [ -6.8657049, 54.3307586 ], [ -6.8663592, 54.3318162 ], [ -6.8675331, 54.3306324 ], [ -6.8684038, 54.3308624 ], [ -6.868043, 54.3317937 ], [ -6.8691167, 54.3332249 ], [ -6.8723122, 54.3348262 ], [ -6.8737287, 54.3378106 ], [ -6.8755825, 54.3385373 ], [ -6.8757942, 54.3393282 ], [ -6.8745418, 54.3401731 ], [ -6.8752877, 54.3411234 ], [ -6.8743218, 54.3416401 ], [ -6.8758, 54.3424197 ], [ -6.8755478, 54.3438428 ], [ -6.8764715, 54.3454749 ], [ -6.8759423, 54.3464115 ], [ -6.8839699, 54.3464734 ], [ -6.8852158, 54.3474828 ], [ -6.8848712, 54.3466105 ], [ -6.8862134, 54.345974 ], [ -6.8876662, 54.3489631 ], [ -6.8907019, 54.3496052 ], [ -6.8932738, 54.3511713 ], [ -6.8987056, 54.3505852 ], [ -6.8998931, 54.3496003 ], [ -6.9062637, 54.3503007 ], [ -6.9070382, 54.3517671 ], [ -6.9059125, 54.3534297 ], [ -6.9062925, 54.3552071 ], [ -6.9046424, 54.3577667 ], [ -6.9057056, 54.3598103 ], [ -6.9029779, 54.3607213 ], [ -6.9043538, 54.361652 ], [ -6.9060424, 54.3607101 ], [ -6.907399, 54.3612035 ], [ -6.9107329, 54.3654864 ], [ -6.9098862, 54.3671373 ], [ -6.9080918, 54.3666047 ], [ -6.9067705, 54.369417 ], [ -6.9092019, 54.3710503 ], [ -6.9123773, 54.3717847 ], [ -6.9124588, 54.3724375 ], [ -6.9109626, 54.3723787 ], [ -6.9121566, 54.373154 ], [ -6.9111551, 54.3733567 ], [ -6.9112946, 54.3747438 ], [ -6.9164999, 54.3768762 ], [ -6.9171974, 54.3779242 ], [ -6.9220275, 54.3786947 ], [ -6.922701, 54.3783725 ], [ -6.9217629, 54.3776327 ], [ -6.9250968, 54.3774534 ], [ -6.9260014, 54.3758459 ], [ -6.926953, 54.375998 ], [ -6.9262562, 54.3767221 ], [ -6.9274829, 54.3768734 ], [ -6.9307398, 54.375747 ], [ -6.9326882, 54.3778625 ], [ -6.9331067, 54.3799303 ], [ -6.9289262, 54.3798267 ], [ -6.9282526, 54.3804431 ], [ -6.9286471, 54.3817375 ], [ -6.9264053, 54.3814349 ], [ -6.9235358, 54.3827665 ], [ -6.9333569, 54.3846203 ], [ -6.9378646, 54.3830963 ], [ -6.9387017, 54.3845027 ], [ -6.9401642, 54.3843178 ], [ -6.9455667, 54.3872168 ], [ -6.9437051, 54.3891023 ], [ -6.9438733, 54.3909933 ], [ -6.9456725, 54.3913351 ], [ -6.9486697, 54.3901306 ], [ -6.9596288, 54.3922125 ], [ -6.9598332, 54.3937084 ], [ -6.9584684, 54.3944483 ], [ -6.9591536, 54.3951561 ], [ -6.9592696, 54.3979096 ], [ -6.963027, 54.3990194 ], [ -6.9669667, 54.4013449 ], [ -6.9746102, 54.4000129 ], [ -6.978127, 54.4016826 ], [ -6.9782361, 54.4024102 ], [ -6.9766971, 54.4034384 ], [ -6.9768139, 54.4060677 ], [ -6.9809112, 54.4075891 ], [ -6.9788723, 54.4085988 ], [ -6.9807828, 54.4085346 ], [ -6.9818974, 54.4095072 ], [ -6.9870645, 54.4088165 ], [ -6.9891416, 54.4094725 ], [ -6.9899767, 54.4077107 ], [ -6.9882507, 54.4079604 ], [ -6.9877916, 54.4073805 ], [ -6.9938447, 54.4051347 ], [ -6.9957226, 54.4053127 ], [ -6.9958128, 54.4065129 ], [ -7.0000483, 54.406494 ], [ -7.0001939, 54.4077098 ], [ -7.002129, 54.4084298 ], [ -7.0010541, 54.4108083 ], [ -6.998731, 54.410294 ], [ -7.0006681, 54.4132351 ], [ -7.0044232, 54.4131238 ], [ -7.0067047, 54.4150006 ], [ -7.0101495, 54.4156991 ], [ -7.0126372, 54.4149992 ], [ -7.0115884, 54.4160924 ], [ -7.0132402, 54.4169503 ], [ -7.0142803, 54.4157719 ], [ -7.0165497, 54.4157123 ], [ -7.0150061, 54.4144326 ], [ -7.0164095, 54.413908 ], [ -7.0196858, 54.4162477 ], [ -7.0196651, 54.4179732 ], [ -7.0218922, 54.4177588 ], [ -7.0258436, 54.4190191 ], [ -7.0291018, 54.4213722 ], [ -7.0381562, 54.4175963 ], [ -7.0400609, 54.4179062 ], [ -7.0426653, 54.4149961 ], [ -7.0534575, 54.4123248 ], [ -7.0547602, 54.40999 ], [ -7.0573117, 54.4110204 ], [ -7.0564017, 54.4075418 ], [ -7.0595674, 54.4051093 ], [ -7.0637092, 54.3992847 ], [ -7.070072, 54.3953725 ], [ -7.0713086, 54.393696 ], [ -7.0706268, 54.3924025 ], [ -7.0719282, 54.3912673 ], [ -7.071039, 54.3911032 ], [ -7.0711245, 54.3894638 ], [ -7.0759344, 54.3856668 ], [ -7.0839568, 54.3815622 ], [ -7.0847831, 54.3803417 ], [ -7.0844261, 54.378664 ], [ -7.1047185, 54.3692546 ], [ -7.1060819, 54.367976 ], [ -7.1097858, 54.3682436 ], [ -7.1091579, 54.3657347 ], [ -7.10172, 54.3607349 ], [ -7.1026196, 54.3600871 ], [ -7.1029944, 54.3568422 ], [ -7.1038807, 54.3557382 ], [ -7.1096068, 54.3546514 ], [ -7.1114168, 54.3529969 ], [ -7.1171178, 54.3527692 ], [ -7.119354, 54.3514679 ], [ -7.1238671, 54.3506609 ], [ -7.1283531, 54.3454413 ], [ -7.1364773, 54.3446288 ], [ -7.1405208, 54.342335 ], [ -7.141297, 54.3390147 ], [ -7.1467007, 54.3393691 ], [ -7.1482526, 54.3375494 ], [ -7.1534387, 54.3350128 ], [ -7.161691, 54.3369233 ], [ -7.1664879, 54.3363392 ], [ -7.1815023, 54.3398172 ], [ -7.1835796, 54.3398108 ], [ -7.1888248, 54.3376494 ], [ -7.1819883, 54.3336056 ], [ -7.1804657, 54.3319284 ], [ -7.1817366, 54.3284275 ], [ -7.1806553, 54.3275043 ], [ -7.1809957, 54.3254525 ], [ -7.1800153, 54.3245307 ], [ -7.1799858, 54.3200493 ], [ -7.1780151, 54.3166486 ], [ -7.1794294, 54.3147177 ], [ -7.1791868, 54.309676 ], [ -7.1825982, 54.3093213 ], [ -7.1833894, 54.3107788 ], [ -7.1876652, 54.3105889 ], [ -7.1919054, 54.3119569 ], [ -7.1936881, 54.3107768 ], [ -7.1978897, 54.311058 ], [ -7.1985676, 54.3085706 ], [ -7.2012224, 54.307854 ], [ -7.2027755, 54.3057363 ], [ -7.2066792, 54.304894 ], [ -7.2075202, 54.3026356 ], [ -7.2121862, 54.2996241 ], [ -7.2068056, 54.2943517 ], [ -7.2028768, 54.2947295 ], [ -7.1992583, 54.2938153 ], [ -7.1940739, 54.2914375 ], [ -7.1886967, 54.2903199 ], [ -7.1859376, 54.2874965 ], [ -7.1814197, 54.2881708 ], [ -7.1806422, 54.2875302 ], [ -7.1817297, 54.2864153 ], [ -7.1730151, 54.2861306 ], [ -7.1712885, 54.2836247 ], [ -7.1732293, 54.2821493 ], [ -7.1735552, 54.2795259 ], [ -7.1794316, 54.2770408 ], [ -7.1801757, 54.2752948 ], [ -7.1793724, 54.2725964 ], [ -7.1779836, 54.2724692 ], [ -7.1766398, 54.2705336 ], [ -7.1731615, 54.2727561 ], [ -7.1696517, 54.272678 ], [ -7.1684402, 54.2734932 ], [ -7.1650793, 54.2728774 ], [ -7.1622331, 54.2740689 ], [ -7.1609173, 54.2737117 ], [ -7.1572101, 54.2706198 ], [ -7.1592281, 54.2690439 ], [ -7.1545434, 54.2667987 ], [ -7.1523445, 54.2666842 ], [ -7.153629, 54.2658165 ], [ -7.1536483, 54.2634411 ], [ -7.1524759, 54.2623881 ], [ -7.1517389, 54.2597115 ], [ -7.1499564, 54.2595093 ], [ -7.1505253, 54.2583308 ], [ -7.1422492, 54.2555935 ], [ -7.1415158, 54.2530814 ], [ -7.1425732, 54.2515361 ], [ -7.1511353, 54.2495416 ], [ -7.157586, 54.2458587 ], [ -7.1589271, 54.2439561 ], [ -7.1537838, 54.2428303 ], [ -7.1459405, 54.2395692 ], [ -7.1461395, 54.2370574 ], [ -7.1495036, 54.2341181 ], [ -7.1498602, 54.2329533 ], [ -7.149777, 54.231621 ], [ -7.14647, 54.2302243 ], [ -7.1473948, 54.2260577 ], [ -7.1450287, 54.2247272 ], [ -7.1478832, 54.2247327 ], [ -7.1509449, 54.2235686 ], [ -7.1532807, 54.2208837 ], [ -7.1582134, 54.2207646 ], [ -7.1710361, 54.2175991 ], [ -7.176713, 54.2183227 ], [ -7.1795265, 54.2207169 ], [ -7.1848105, 54.2200107 ], [ -7.1851927, 54.2208933 ], [ -7.1839406, 54.2219532 ], [ -7.1850284, 54.2235747 ], [ -7.1843605, 54.2245483 ], [ -7.1881122, 54.2248887 ], [ -7.1913408, 54.2233661 ], [ -7.195516, 54.2194477 ], [ -7.1952049, 54.2176202 ], [ -7.1985989, 54.2157848 ], [ -7.2024575, 54.2152846 ], [ -7.2091259, 54.2127942 ], [ -7.2116674, 54.2136563 ], [ -7.2148897, 54.2133687 ], [ -7.2175427, 54.2150644 ], [ -7.2208497, 54.2158076 ], [ -7.2219154, 54.2148766 ], [ -7.2256026, 54.2146089 ], [ -7.2280838, 54.2124248 ], [ -7.2324723, 54.2108837 ], [ -7.2320748, 54.2092929 ], [ -7.2338708, 54.208222 ], [ -7.231413, 54.207149 ], [ -7.2311179, 54.2060774 ], [ -7.2318247, 54.2055718 ], [ -7.2360776, 54.2057804 ], [ -7.238994, 54.2068381 ], [ -7.2403554, 54.2058785 ], [ -7.2417693, 54.2062481 ], [ -7.2443773, 54.2048863 ], [ -7.2480558, 54.2044601 ], [ -7.2479801, 54.2037336 ], [ -7.2491374, 54.2032622 ], [ -7.2483276, 54.2026088 ], [ -7.2502792, 54.1993864 ], [ -7.2494018, 54.1981269 ], [ -7.2473439, 54.1981473 ], [ -7.2430716, 54.2009778 ], [ -7.2399519, 54.199023 ], [ -7.2329953, 54.1978367 ], [ -7.2358133, 54.1962581 ], [ -7.2360823, 54.1934549 ], [ -7.2414099, 54.1935308 ], [ -7.2442605, 54.1926683 ], [ -7.2460063, 54.1938602 ], [ -7.251133, 54.194065 ], [ -7.2594208, 54.1922517 ], [ -7.2584807, 54.191098 ], [ -7.2560397, 54.1902116 ], [ -7.2569608, 54.1895856 ], [ -7.2565092, 54.1886064 ], [ -7.257492, 54.1858549 ], [ -7.2592929, 54.1850955 ], [ -7.2595285, 54.1838988 ], [ -7.25645, 54.1818124 ], [ -7.2566246, 54.1798239 ], [ -7.2583441, 54.178872 ], [ -7.2582784, 54.177372 ], [ -7.2562508, 54.1760525 ], [ -7.2529037, 54.1770374 ], [ -7.2513621, 54.17272 ], [ -7.2439605, 54.172694 ], [ -7.2407313, 54.1711958 ], [ -7.240283, 54.1696954 ], [ -7.2451786, 54.1692879 ], [ -7.2463218, 54.1682122 ], [ -7.2533682, 54.1665905 ], [ -7.2563804, 54.1644846 ], [ -7.2581192, 54.1645085 ], [ -7.2581884, 54.1632402 ], [ -7.2596064, 54.1626548 ], [ -7.2585342, 54.1621227 ], [ -7.2585231, 54.1608683 ], [ -7.2573824, 54.1597581 ], [ -7.2529013, 54.1586852 ], [ -7.253354, 54.1576099 ], [ -7.2525119, 54.1556638 ], [ -7.2553727, 54.1544927 ], [ -7.2567021, 54.154803 ], [ -7.2582308, 54.1537433 ], [ -7.2584609, 54.1521021 ], [ -7.2592941, 54.1517485 ], [ -7.2582722, 54.1514815 ], [ -7.2591558, 54.150977 ], [ -7.2583968, 54.150388 ], [ -7.2588411, 54.1491748 ], [ -7.2569542, 54.1490599 ], [ -7.2569886, 54.1481321 ], [ -7.2621993, 54.147262 ], [ -7.2640169, 54.1453694 ], [ -7.2639015, 54.1433314 ], [ -7.261905, 54.1411783 ], [ -7.2629148, 54.1402758 ], [ -7.2629552, 54.1374093 ], [ -7.2691523, 54.1353101 ], [ -7.2779289, 54.1291896 ], [ -7.2795388, 54.1265116 ], [ -7.2792105, 54.1245068 ], [ -7.2777845, 54.1233 ], [ -7.2789457, 54.1225548 ], [ -7.2838475, 54.1228186 ], [ -7.2919469, 54.1191122 ], [ -7.2982758, 54.1206402 ], [ -7.3035157, 54.1229132 ], [ -7.3037516, 54.1257693 ], [ -7.3030693, 54.1265657 ], [ -7.3056741, 54.128114 ], [ -7.3089111, 54.1321133 ], [ -7.2986318, 54.1338118 ], [ -7.2960819, 54.1312181 ], [ -7.294362, 54.131592 ], [ -7.2926559, 54.1305273 ], [ -7.2855117, 54.1362582 ], [ -7.2841887, 54.1397874 ], [ -7.301494, 54.144214 ], [ -7.2988227, 54.1492012 ], [ -7.2899089, 54.1491326 ], [ -7.2838219, 54.1538484 ], [ -7.2849315, 54.1544607 ], [ -7.284456, 54.1546309 ], [ -7.285888, 54.1577375 ], [ -7.284284, 54.1594888 ], [ -7.2833745, 54.1624954 ], [ -7.279967, 54.167969 ], [ -7.2912976, 54.1719648 ], [ -7.293006, 54.1697647 ], [ -7.3003909, 54.1661388 ], [ -7.3067699, 54.1675475 ], [ -7.3102389, 54.1672991 ], [ -7.3115885, 54.1644654 ], [ -7.3139356, 54.1638823 ], [ -7.3137001, 54.1632016 ], [ -7.3180026, 54.160534 ], [ -7.3176886, 54.1598529 ], [ -7.3201682, 54.1593002 ], [ -7.318529, 54.157715 ], [ -7.3188808, 54.1571965 ], [ -7.3229455, 54.1551336 ], [ -7.3259533, 54.1516209 ], [ -7.3326327, 54.1484437 ], [ -7.3395628, 54.1467174 ], [ -7.3387472, 54.1441575 ], [ -7.3337171, 54.1436306 ], [ -7.330406, 54.141268 ], [ -7.3300051, 54.140681 ], [ -7.3308228, 54.1394628 ], [ -7.3289362, 54.13618 ], [ -7.3275304, 54.1353111 ], [ -7.321846, 54.1382615 ], [ -7.3186233, 54.1376237 ], [ -7.3187154, 54.1344134 ], [ -7.3120648, 54.1317071 ], [ -7.315933, 54.1268628 ], [ -7.3053349, 54.1233641 ], [ -7.3060634, 54.1191299 ], [ -7.3076682, 54.1174196 ], [ -7.314129, 54.116369 ], [ -7.314196, 54.1151938 ], [ -7.3170604, 54.1147774 ], [ -7.3186709, 54.1132886 ], [ -7.3214385, 54.1149194 ], [ -7.3222419, 54.1173527 ], [ -7.3242747, 54.1178832 ], [ -7.3246927, 54.1208227 ], [ -7.3232142, 54.1224209 ], [ -7.3271274, 54.1245777 ], [ -7.3287511, 54.1227171 ], [ -7.3343499, 54.1202343 ], [ -7.3350489, 54.1172748 ], [ -7.3359854, 54.116801 ], [ -7.3405331, 54.1178304 ], [ -7.3424153, 54.1160394 ], [ -7.3460153, 54.1164466 ], [ -7.3473711, 54.1177384 ], [ -7.3465342, 54.1176548 ], [ -7.3471889, 54.1182792 ], [ -7.3464314, 54.122527 ], [ -7.3497747, 54.1241929 ], [ -7.3516528, 54.1239472 ], [ -7.3555043, 54.1273367 ], [ -7.3631985, 54.1316004 ], [ -7.3657939, 54.1306904 ], [ -7.3696463, 54.131083 ], [ -7.3753928, 54.1284724 ], [ -7.3810889, 54.1238649 ], [ -7.3876998, 54.1228486 ], [ -7.3893589, 54.1210718 ], [ -7.3918058, 54.1201274 ], [ -7.3941826, 54.1227146 ], [ -7.393023, 54.1263935 ], [ -7.3825119, 54.134466 ], [ -7.373542, 54.1376956 ], [ -7.3725564, 54.1383823 ], [ -7.372794, 54.1396266 ], [ -7.3752297, 54.1418889 ], [ -7.3836623, 54.1413466 ], [ -7.3876574, 54.1376443 ], [ -7.3914201, 54.136805 ], [ -7.3951017, 54.1377684 ], [ -7.400977, 54.1410281 ], [ -7.4117059, 54.1391715 ], [ -7.4183462, 54.1368395 ], [ -7.4207839, 54.1370532 ], [ -7.4249096, 54.1402298 ], [ -7.425079, 54.1410755 ], [ -7.419631, 54.1448071 ], [ -7.4144579, 54.1466652 ], [ -7.4122381, 54.1486402 ], [ -7.4090326, 54.152861 ], [ -7.4085479, 54.1551759 ], [ -7.4095892, 54.156458 ], [ -7.4130656, 54.1563613 ], [ -7.417748, 54.1546203 ], [ -7.4265947, 54.1548389 ], [ -7.4311686, 54.1521441 ], [ -7.4419219, 54.1540929 ], [ -7.4519239, 54.1476168 ], [ -7.4525462, 54.145484 ], [ -7.4534841, 54.1448556 ], [ -7.4629417, 54.1414624 ], [ -7.466224, 54.1419427 ], [ -7.4684058, 54.1408114 ], [ -7.4678918, 54.1387876 ], [ -7.4662441, 54.1370746 ], [ -7.4669336, 54.1341776 ], [ -7.4718951, 54.1332853 ], [ -7.4726929, 54.1302451 ], [ -7.4718245, 54.1267112 ], [ -7.4758725, 54.1248843 ], [ -7.4762845, 54.1238827 ], [ -7.479193, 54.1222654 ], [ -7.4856377, 54.1234804 ], [ -7.491957, 54.1231627 ], [ -7.4926724, 54.1246439 ], [ -7.4956204, 54.1260917 ], [ -7.5023587, 54.1262777 ], [ -7.5094742, 54.1299527 ], [ -7.5172064, 54.1304036 ], [ -7.519504, 54.1297074 ], [ -7.5217655, 54.1307782 ], [ -7.5231294, 54.1333668 ], [ -7.5280969, 54.1357411 ], [ -7.5305137, 54.1346723 ], [ -7.5315561, 54.1330805 ], [ -7.5344811, 54.1326097 ], [ -7.5370889, 54.1309778 ], [ -7.5372454, 54.1300737 ], [ -7.535856, 54.1286664 ], [ -7.5375468, 54.127224 ], [ -7.5390323, 54.1271101 ], [ -7.5416506, 54.1288332 ], [ -7.5447472, 54.1282032 ], [ -7.5450032, 54.1289466 ], [ -7.5467672, 54.1291343 ], [ -7.5466299, 54.1272203 ], [ -7.5446315, 54.126452 ], [ -7.5461858, 54.125442 ], [ -7.5456254, 54.1241718 ], [ -7.5473753, 54.1221425 ], [ -7.5550287, 54.1259704 ], [ -7.555868, 54.1271258 ], [ -7.5571383, 54.1269047 ], [ -7.5586918, 54.1277853 ], [ -7.5657614, 54.1265876 ], [ -7.5673172, 54.1296795 ], [ -7.5669574, 54.1306359 ], [ -7.5692394, 54.1328906 ], [ -7.5733835, 54.1328509 ], [ -7.574965, 54.1335688 ], [ -7.5754144, 54.1377733 ], [ -7.5736887, 54.1410358 ], [ -7.5745375, 54.1415122 ], [ -7.5795709, 54.1410214 ], [ -7.5830258, 54.1424903 ], [ -7.5919599, 54.1399314 ], [ -7.6006465, 54.1423639 ], [ -7.6068086, 54.1426858 ], [ -7.610433, 54.1437826 ], [ -7.6093456, 54.1455408 ], [ -7.6113177, 54.1470428 ], [ -7.6253619, 54.1532017 ], [ -7.6253816, 54.1604046 ], [ -7.6265845, 54.1611938 ], [ -7.6252907, 54.1654308 ], [ -7.6281545, 54.1675822 ], [ -7.6285047, 54.1692489 ], [ -7.6296587, 54.1703034 ], [ -7.6359815, 54.1719661 ], [ -7.6456837, 54.1759744 ], [ -7.6454502, 54.1771387 ], [ -7.6481262, 54.1785475 ], [ -7.6498563, 54.1806194 ], [ -7.653666, 54.1820489 ], [ -7.6555501, 54.1839414 ], [ -7.6561272, 54.1857197 ], [ -7.6644521, 54.1880051 ], [ -7.6672081, 54.1866554 ], [ -7.6685593, 54.1838548 ], [ -7.6719748, 54.1814498 ], [ -7.6737521, 54.1811361 ], [ -7.6765985, 54.1820392 ], [ -7.6761944, 54.1825066 ], [ -7.6773988, 54.1832358 ], [ -7.6781281, 54.1851893 ], [ -7.6778544, 54.1865414 ], [ -7.6792566, 54.1870773 ], [ -7.6787802, 54.1883231 ], [ -7.6800225, 54.1892916 ], [ -7.6794774, 54.1894032 ], [ -7.6800025, 54.1902597 ], [ -7.6789849, 54.1907002 ], [ -7.679915, 54.1914992 ], [ -7.6790256, 54.1919202 ], [ -7.682164, 54.1939729 ], [ -7.6853056, 54.1934426 ], [ -7.6857097, 54.1938411 ], [ -7.6836732, 54.1955262 ], [ -7.6838491, 54.1969549 ], [ -7.6848725, 54.1973024 ], [ -7.6841643, 54.1977746 ], [ -7.6868504, 54.1980567 ], [ -7.6885503, 54.1991602 ], [ -7.687301, 54.2003478 ], [ -7.6885815, 54.2034818 ], [ -7.6863665, 54.2067751 ], [ -7.6848881, 54.2068629 ], [ -7.6854337, 54.2077607 ], [ -7.6892344, 54.2069654 ], [ -7.6921512, 54.2038534 ], [ -7.7019351, 54.2077751 ], [ -7.7106205, 54.2031122 ], [ -7.7164581, 54.2044112 ], [ -7.7234737, 54.2034623 ], [ -7.7315947, 54.2048365 ], [ -7.7394039, 54.2035315 ], [ -7.7446613, 54.2044076 ], [ -7.7485692, 54.2094644 ], [ -7.7548411, 54.2097906 ], [ -7.762365, 54.2074253 ], [ -7.7684477, 54.2073806 ], [ -7.7677406, 54.2091665 ], [ -7.7682042, 54.2094921 ], [ -7.770494, 54.2073284 ], [ -7.7725566, 54.2071703 ], [ -7.7753178, 54.2085617 ], [ -7.780504, 54.2087197 ], [ -7.7824875, 54.2074016 ], [ -7.8036784, 54.2070687 ], [ -7.8117352, 54.2007467 ], [ -7.839067, 54.2093959 ], [ -7.8601691, 54.2172798 ], [ -7.8621257, 54.2186867 ], [ -7.8568289, 54.2209788 ], [ -7.8554295, 54.2229547 ], [ -7.8583475, 54.2255744 ], [ -7.8599851, 54.2295473 ], [ -7.8593158, 54.2310545 ], [ -7.8589057, 54.2430904 ], [ -7.8620843, 54.2527241 ], [ -7.8612059, 54.2544897 ], [ -7.8621885, 54.2550594 ], [ -7.8604615, 54.2602599 ], [ -7.8650613, 54.260362 ], [ -7.866558, 54.2626338 ], [ -7.8727067, 54.2664597 ], [ -7.8716966, 54.2679542 ], [ -7.87269, 54.2696305 ], [ -7.8724523, 54.2740793 ], [ -7.8716058, 54.276979 ], [ -7.8706819, 54.2773439 ], [ -7.8732238, 54.2794462 ], [ -7.8716287, 54.2833487 ], [ -7.8701456, 54.2836341 ], [ -7.8707863, 54.2846368 ], [ -7.8702167, 54.2858986 ], [ -7.8706306, 54.2883043 ], [ -7.8646734, 54.288741 ], [ -7.8635187, 54.289675 ], [ -7.8618694, 54.2934313 ], [ -7.8705335, 54.2936918 ], [ -7.8743898, 54.2946475 ], [ -7.8808683, 54.2918826 ], [ -7.8822486, 54.2939229 ], [ -7.8844127, 54.2951859 ], [ -7.8838231, 54.2967484 ], [ -7.8882844, 54.3005044 ], [ -7.9016974, 54.3014347 ], [ -7.9059042, 54.2966688 ], [ -7.9109541, 54.2959539 ], [ -7.9150659, 54.29704 ], [ -7.9186838, 54.3030842 ], [ -7.9262462, 54.3045429 ], [ -7.9305789, 54.3033209 ], [ -7.9464583, 54.3043943 ], [ -7.9615952, 54.312469 ], [ -7.9635318, 54.3206383 ], [ -7.972558, 54.3310844 ], [ -7.9826372, 54.3363423 ], [ -7.9830578, 54.3400058 ], [ -7.9855006, 54.3418874 ], [ -7.9864535, 54.3442263 ], [ -7.9994579, 54.3471941 ], [ -8.0012593, 54.3505913 ], [ -7.997659, 54.3557654 ], [ -8.0009305, 54.3584648 ], [ -8.0077771, 54.3612283 ], [ -8.0106343, 54.3601229 ], [ -8.0125117, 54.3581842 ], [ -8.0170726, 54.3569098 ], [ -8.0207651, 54.357241 ], [ -8.0224731, 54.3590768 ], [ -8.0259339, 54.3601134 ], [ -8.031293, 54.3567145 ], [ -8.0369475, 54.359252 ], [ -8.0394407, 54.3626234 ], [ -8.04711, 54.3627298 ], [ -8.0477031, 54.3644969 ], [ -8.0508338, 54.3663493 ], [ -8.0573261, 54.3657226 ], [ -8.0566732, 54.3671106 ], [ -8.0579227, 54.3666949 ], [ -8.0586577, 54.3674305 ], [ -8.0560549, 54.3685589 ], [ -8.0573866, 54.3699467 ], [ -8.0593495, 54.3698535 ], [ -8.058247, 54.3710575 ], [ -8.0602964, 54.3716141 ], [ -8.059743, 54.3727097 ], [ -8.0643476, 54.3734501 ], [ -8.0635261, 54.3747673 ], [ -8.0676639, 54.3792473 ], [ -8.0678844, 54.3806222 ], [ -8.0704439, 54.3832787 ], [ -8.0735742, 54.3847038 ], [ -8.0746811, 54.3876949 ], [ -8.078685, 54.3921186 ], [ -8.083235, 54.3945877 ], [ -8.0841613, 54.3974065 ], [ -8.0895512, 54.3996651 ], [ -8.0910065, 54.4019822 ], [ -8.095777, 54.4042255 ], [ -8.0977721, 54.4069001 ], [ -8.1602571, 54.4402772 ], [ -8.1618468, 54.4420305 ], [ -8.160493, 54.4433493 ], [ -8.1561417, 54.4446594 ], [ -8.1502946, 54.4439649 ], [ -8.1479944, 54.4468909 ], [ -8.1458729, 54.4473671 ], [ -8.1464089, 54.4488733 ], [ -8.1429143, 54.4509245 ], [ -8.1492012, 54.4539301 ], [ -8.167735, 54.4594764 ], [ -8.1697468, 54.4609486 ], [ -8.1702426, 54.4645415 ], [ -8.1775099, 54.4647612 ], [ -8.173836, 54.467304 ], [ -8.1647443, 54.4690863 ], [ -8.1483752, 54.4699169 ], [ -8.1146731, 54.4690344 ], [ -8.1115765, 54.4702543 ], [ -8.1149709, 54.4736758 ], [ -8.1140032, 54.4740781 ], [ -8.114577, 54.4753748 ], [ -8.1132439, 54.4764008 ], [ -8.1047425, 54.4762112 ], [ -8.1036857, 54.4763374 ], [ -8.1034999, 54.4771577 ], [ -8.0979377, 54.4773123 ], [ -8.0914846, 54.4765264 ], [ -8.0946617, 54.479256 ], [ -8.0973286, 54.4794732 ], [ -8.0953915, 54.4818118 ], [ -8.0986798, 54.4843344 ], [ -8.0880653, 54.4872897 ], [ -8.0806185, 54.486968 ], [ -8.0810472, 54.4881649 ], [ -8.0794499, 54.4884073 ], [ -8.076618, 54.4879136 ], [ -8.076765, 54.4871846 ], [ -8.0652548, 54.4866239 ], [ -8.047513, 54.4880843 ], [ -8.0426472, 54.4876308 ], [ -8.0421948, 54.4917201 ], [ -8.0382495, 54.5029203 ], [ -8.0418515, 54.5063808 ], [ -8.0394605, 54.5073055 ], [ -8.0402032, 54.5084834 ], [ -8.0397555, 54.5094714 ], [ -8.0354866, 54.5140496 ], [ -8.0338914, 54.5146202 ], [ -8.0291588, 54.5208686 ], [ -8.0261752, 54.5220425 ], [ -8.0207715, 54.5280019 ], [ -8.0175999, 54.5296549 ], [ -8.0173687, 54.5318802 ], [ -8.0117117, 54.533633 ], [ -8.0139896, 54.5352832 ], [ -8.0139987, 54.5362106 ], [ -8.0060085, 54.5459409 ], [ -7.9913039, 54.5429712 ], [ -7.9793212, 54.544574 ], [ -7.9727969, 54.5472448 ], [ -7.9702989, 54.5470493 ], [ -7.9691096, 54.5442546 ], [ -7.960131, 54.5409722 ], [ -7.9585552, 54.5398111 ], [ -7.9595796, 54.5381706 ], [ -7.9574214, 54.5383717 ], [ -7.9534842, 54.5342738 ], [ -7.949731, 54.533633 ], [ -7.9468232, 54.535464 ], [ -7.9444225, 54.5359588 ], [ -7.9377118, 54.5327838 ], [ -7.9245862, 54.5347667 ], [ -7.9216212, 54.5363232 ], [ -7.9130214, 54.5358273 ], [ -7.9064547, 54.5373056 ], [ -7.8951581, 54.5349992 ], [ -7.8930978, 54.5351993 ], [ -7.8923354, 54.5363859 ], [ -7.8909105, 54.5367229 ], [ -7.8862968, 54.5361647 ], [ -7.8848658, 54.5368984 ], [ -7.8825332, 54.5363322 ], [ -7.8816801, 54.5351245 ], [ -7.8764341, 54.5358021 ], [ -7.8687306, 54.5344501 ], [ -7.8581595, 54.5366161 ], [ -7.8550191, 54.5358052 ], [ -7.8506553, 54.5331824 ], [ -7.844306, 54.5373737 ], [ -7.8423515, 54.5372365 ], [ -7.8397525, 54.5386438 ], [ -7.8299761, 54.5407953 ], [ -7.8281002, 54.5430028 ], [ -7.8240183, 54.5442669 ], [ -7.8239905, 54.5464185 ], [ -7.82914, 54.5484892 ], [ -7.8303626, 54.5480339 ], [ -7.8332549, 54.5522326 ], [ -7.8288529, 54.5543751 ], [ -7.8289861, 54.55532 ], [ -7.8271168, 54.5554881 ], [ -7.8286863, 54.5558823 ], [ -7.827876, 54.5566452 ], [ -7.8243229, 54.5569813 ], [ -7.824714, 54.5577382 ], [ -7.8220374, 54.559621 ], [ -7.8220052, 54.5607181 ], [ -7.8182099, 54.5632465 ], [ -7.8116746, 54.5641445 ], [ -7.8109675, 54.5644198 ], [ -7.8109625, 54.5655122 ], [ -7.8088014, 54.5666303 ], [ -7.8056316, 54.5660225 ], [ -7.8049046, 54.5671578 ], [ -7.800716, 54.568706 ], [ -7.7999446, 54.5703917 ], [ -7.7965917, 54.5716301 ], [ -7.7972247, 54.5731981 ], [ -7.7988269, 54.574081 ], [ -7.7994995, 54.5766608 ], [ -7.7986215, 54.5779344 ], [ -7.797578, 54.5770344 ], [ -7.795501, 54.5782382 ], [ -7.7969615, 54.5797381 ], [ -7.793408, 54.5818758 ], [ -7.7870913, 54.5801578 ], [ -7.7752446, 54.5831099 ], [ -7.7668554, 54.5861061 ], [ -7.7621154, 54.5858797 ], [ -7.7588442, 54.5874679 ], [ -7.7618018, 54.5886296 ], [ -7.7631995, 54.5901414 ], [ -7.7600877, 54.5933499 ], [ -7.7602041, 54.5942978 ], [ -7.7554473, 54.5960196 ], [ -7.751511, 54.598778 ], [ -7.749622, 54.5985405 ], [ -7.7488202, 54.5994695 ], [ -7.7459296, 54.6001098 ], [ -7.7445778, 54.5998768 ], [ -7.7443987, 54.598984 ], [ -7.7409321, 54.5993958 ], [ -7.7365132, 54.6005532 ], [ -7.7357607, 54.6010943 ], [ -7.7362511, 54.6015152 ], [ -7.7349252, 54.60193 ], [ -7.7311627, 54.602163 ], [ -7.7302234, 54.6030648 ], [ -7.7294839, 54.6025899 ], [ -7.7282435, 54.6041195 ], [ -7.7255202, 54.6035919 ], [ -7.7178018, 54.6063311 ], [ -7.7083051, 54.6066628 ], [ -7.7039008, 54.607936 ], [ -7.7015173, 54.6101145 ], [ -7.6972521, 54.6100698 ], [ -7.6969444, 54.6114096 ], [ -7.694135, 54.6137554 ], [ -7.6950797, 54.6180322 ], [ -7.6934932, 54.6191174 ], [ -7.7031669, 54.6185678 ], [ -7.7063848, 54.6196401 ], [ -7.7053475, 54.6233217 ], [ -7.7038038, 54.6246432 ], [ -7.7034365, 54.6274364 ], [ -7.7049884, 54.6326019 ], [ -7.7087733, 54.6349455 ], [ -7.7100523, 54.6346045 ], [ -7.7118942, 54.6311993 ], [ -7.7164002, 54.6288875 ], [ -7.7209839, 54.6276716 ], [ -7.7248615, 54.6276124 ], [ -7.7378158, 54.6227675 ], [ -7.7385, 54.6189012 ], [ -7.7416462, 54.6179722 ], [ -7.7433198, 54.6202656 ], [ -7.7543081, 54.6184998 ], [ -7.75418, 54.6205415 ], [ -7.7569895, 54.6219581 ], [ -7.7565476, 54.6229852 ], [ -7.7577934, 54.6250139 ], [ -7.7644088, 54.622863 ], [ -7.7723623, 54.6214885 ], [ -7.7726327, 54.6226454 ], [ -7.776649, 54.6267727 ], [ -7.7792899, 54.6275123 ], [ -7.7789486, 54.6294366 ], [ -7.7834825, 54.6331118 ], [ -7.7881699, 54.6327466 ], [ -7.7906257, 54.6336263 ], [ -7.7948574, 54.6325902 ], [ -7.7959524, 54.6335163 ], [ -7.8012997, 54.6334395 ], [ -7.8047097, 54.6345606 ], [ -7.8043135, 54.6355459 ], [ -7.8082423, 54.6395326 ], [ -7.8136753, 54.6414577 ], [ -7.8128723, 54.6418831 ], [ -7.8139568, 54.6427913 ], [ -7.8131591, 54.6431444 ], [ -7.8136649, 54.6441098 ], [ -7.8143531, 54.642559 ], [ -7.8166411, 54.6417758 ], [ -7.8156116, 54.6405927 ], [ -7.8185017, 54.6404848 ], [ -7.8227722, 54.6359023 ], [ -7.8282838, 54.6330488 ], [ -7.8338403, 54.6333106 ], [ -7.8343969, 54.6341592 ], [ -7.8392887, 54.6341596 ], [ -7.840402, 54.6334232 ], [ -7.8425391, 54.633987 ], [ -7.8521283, 54.6307756 ], [ -7.8544511, 54.6330227 ], [ -7.8530018, 54.6328766 ], [ -7.8526524, 54.6343484 ], [ -7.8507243, 54.6344121 ], [ -7.8508213, 54.6361309 ], [ -7.8571298, 54.6388683 ], [ -7.8570068, 54.6401376 ], [ -7.8540047, 54.6427286 ], [ -7.8543735, 54.6438818 ], [ -7.8560557, 54.6442412 ], [ -7.8554928, 54.6446344 ], [ -7.8566922, 54.6505747 ], [ -7.8633218, 54.6518558 ], [ -7.8645899, 54.6514702 ], [ -7.8654393, 54.6526134 ], [ -7.871293, 54.6532034 ], [ -7.8774226, 54.655709 ], [ -7.8799907, 54.6559422 ], [ -7.8818651, 54.6551614 ], [ -7.8867428, 54.6570109 ], [ -7.8916405, 54.6559367 ], [ -7.8919966, 54.6566904 ], [ -7.8934494, 54.6565602 ], [ -7.894173, 54.657546 ], [ -7.8978691, 54.6589486 ], [ -7.8997757, 54.6615208 ], [ -7.9039116, 54.662586 ], [ -7.9052612, 54.6643694 ], [ -7.9041787, 54.6646594 ], [ -7.9042631, 54.6654589 ], [ -7.9052097, 54.6662557 ], [ -7.907131, 54.6660633 ], [ -7.9099003, 54.6682786 ], [ -7.9123639, 54.6744692 ], [ -7.9140285, 54.675307 ], [ -7.9100167, 54.6786721 ], [ -7.9031546, 54.6822031 ], [ -7.9028313, 54.6831793 ], [ -7.8984363, 54.6850346 ], [ -7.8987273, 54.6857432 ], [ -7.8976344, 54.6869203 ], [ -7.8995977, 54.6894366 ], [ -7.8988601, 54.6906419 ], [ -7.9001462, 54.6910737 ], [ -7.907418, 54.6893404 ], [ -7.9096933, 54.6905378 ], [ -7.9107951, 54.693175 ], [ -7.9124035, 54.6942004 ], [ -7.9173952, 54.6961261 ], [ -7.92012, 54.6954128 ], [ -7.9208904, 54.6959641 ], [ -7.9180428, 54.7028206 ], [ -7.9111126, 54.701083 ], [ -7.9083032, 54.7016772 ], [ -7.9080064, 54.7032845 ], [ -7.907117, 54.7036926 ], [ -7.904137, 54.7021078 ], [ -7.9010123, 54.7024748 ], [ -7.8950677, 54.7005224 ], [ -7.8933318, 54.7025482 ], [ -7.8900716, 54.7034534 ], [ -7.883873, 54.7038106 ], [ -7.8795976, 54.70269 ], [ -7.855095, 54.7267561 ], [ -7.8484338, 54.7290006 ], [ -7.8470286, 54.7299162 ], [ -7.8467261, 54.7312222 ], [ -7.8401165, 54.7333784 ], [ -7.8406257, 54.7335625 ], [ -7.839134, 54.7351811 ], [ -7.8373235, 54.7354454 ], [ -7.8366455, 54.7364216 ], [ -7.8281471, 54.7352989 ], [ -7.8249459, 54.7360086 ], [ -7.8176144, 54.7337844 ], [ -7.8165424, 54.7317713 ], [ -7.8169595, 54.7290589 ], [ -7.8146656, 54.7284779 ], [ -7.8122693, 54.7263906 ], [ -7.8117096, 54.725235 ], [ -7.8121706, 54.7240286 ], [ -7.8074292, 54.7226235 ], [ -7.8071323, 54.7213428 ], [ -7.8082381, 54.7210746 ], [ -7.8084132, 54.7202299 ], [ -7.8068694, 54.7202549 ], [ -7.8046963, 54.7186025 ], [ -7.8014549, 54.7192385 ], [ -7.8013195, 54.7184187 ], [ -7.800372, 54.7183553 ], [ -7.7944819, 54.7200161 ], [ -7.7915368, 54.7192174 ], [ -7.7887527, 54.7196442 ], [ -7.7862686, 54.7179728 ], [ -7.780876, 54.7172606 ], [ -7.7786626, 54.7157877 ], [ -7.7779352, 54.7132335 ], [ -7.7761463, 54.7122333 ], [ -7.778059, 54.7114997 ], [ -7.7780553, 54.7103859 ], [ -7.7732481, 54.7088493 ], [ -7.7701567, 54.7091051 ], [ -7.7595691, 54.7066596 ], [ -7.7538107, 54.7075241 ], [ -7.7536424, 54.7070062 ], [ -7.7562594, 54.7063885 ], [ -7.7568324, 54.7055369 ], [ -7.7557661, 54.7051136 ], [ -7.755961, 54.7059226 ], [ -7.7548297, 54.7062179 ], [ -7.7500644, 54.7042795 ], [ -7.7462288, 54.7044316 ], [ -7.7449228, 54.7051834 ], [ -7.7421678, 54.7080142 ], [ -7.7425211, 54.7095097 ], [ -7.7396743, 54.7129392 ], [ -7.7353033, 54.7145123 ], [ -7.735506, 54.7168308 ], [ -7.7271192, 54.7186716 ], [ -7.7115985, 54.7261139 ], [ -7.7019388, 54.7256239 ], [ -7.6972323, 54.7235611 ], [ -7.6966896, 54.7246438 ], [ -7.6975283, 54.7262905 ], [ -7.6876811, 54.7300339 ], [ -7.677323, 54.7309622 ], [ -7.6762454, 54.7331332 ], [ -7.6676812, 54.7378177 ], [ -7.6593548, 54.7417905 ], [ -7.6514004, 54.744401 ], [ -7.6365683, 54.7515101 ], [ -7.6200951, 54.7454003 ], [ -7.6174275, 54.7434968 ], [ -7.6061666, 54.7441752 ], [ -7.6008501, 54.7459892 ], [ -7.5885923, 54.743706 ], [ -7.5888585, 54.7447092 ], [ -7.5866812, 54.7498801 ], [ -7.5791914, 54.7504675 ], [ -7.5770143, 54.7502595 ], [ -7.5753384, 54.7486105 ], [ -7.5781099, 54.7455137 ], [ -7.5785375, 54.7418673 ], [ -7.5587091, 54.7452181 ], [ -7.5552252, 54.7443275 ], [ -7.5491444, 54.7404957 ], [ -7.5433226, 54.7426736 ], [ -7.5432952, 54.743639 ], [ -7.5379546, 54.7472623 ], [ -7.5346934, 54.7470212 ], [ -7.538825, 54.7514794 ], [ -7.5476404, 54.7555354 ], [ -7.5482182, 54.7585129 ], [ -7.5462192, 54.7619186 ], [ -7.5471372, 54.766151 ], [ -7.545895, 54.7683555 ], [ -7.5481273, 54.7724878 ], [ -7.5473579, 54.7749503 ], [ -7.5431541, 54.7796156 ], [ -7.5447029, 54.7816749 ], [ -7.5432368, 54.7824729 ], [ -7.5447065, 54.7846579 ], [ -7.5445331, 54.7866748 ], [ -7.5492235, 54.7893709 ], [ -7.5454514, 54.7938749 ], [ -7.5415786, 54.7962159 ], [ -7.5419183, 54.7984374 ], [ -7.5393287, 54.8006489 ], [ -7.5349751, 54.8021999 ], [ -7.5275004, 54.8028135 ], [ -7.5294611, 54.8049592 ], [ -7.5284679, 54.8075664 ], [ -7.5173254, 54.8082606 ], [ -7.5008474, 54.8175405 ], [ -7.4948752, 54.8189493 ], [ -7.4839264, 54.8238819 ], [ -7.4816251, 54.8274202 ], [ -7.481035, 54.8312703 ], [ -7.4709587, 54.8347999 ], [ -7.4685893, 54.8418854 ], [ -7.4607806, 54.850085 ], [ -7.4608726, 54.8536967 ], [ -7.4561867, 54.85374 ], [ -7.4563793, 54.8574436 ], [ -7.4552603, 54.8600903 ], [ -7.4442153, 54.8694137 ], [ -7.4418836, 54.8756114 ], [ -7.4421986, 54.8794714 ], [ -7.4437647, 54.8813027 ], [ -7.4450773, 54.8852006 ], [ -7.4514978, 54.8933829 ], [ -7.4525838, 54.8984942 ], [ -7.4513944, 54.9027746 ], [ -7.4451666, 54.9107602 ], [ -7.4450491, 54.9127182 ], [ -7.4474089, 54.919365 ], [ -7.4481463, 54.9239127 ], [ -7.4484395, 54.9309772 ], [ -7.4472738, 54.935241 ], [ -7.4412462, 54.9384779 ], [ -7.4251717, 54.9431872 ], [ -7.4153759, 54.9435034 ], [ -7.4049867, 54.9421862 ], [ -7.3923219, 54.9454566 ], [ -7.3969256, 54.9460538 ], [ -7.4022426, 54.949687 ], [ -7.4025972, 54.9521765 ], [ -7.4057695, 54.9536004 ], [ -7.4072048, 54.9552121 ], [ -7.4021381, 54.9595705 ], [ -7.402727, 54.961156 ], [ -7.4074365, 54.9636281 ], [ -7.4020626, 54.9674204 ], [ -7.4028111, 54.9683835 ], [ -7.4003133, 54.9722795 ], [ -7.4023212, 54.9730301 ], [ -7.4020952, 54.9743749 ], [ -7.4059546, 54.9780761 ], [ -7.4037921, 54.9794937 ], [ -7.4071086, 54.9826262 ], [ -7.4040053, 54.9841415 ], [ -7.4037614, 54.9850318 ], [ -7.4017809, 54.9854878 ], [ -7.3994372, 54.9908957 ], [ -7.3920622, 54.9945919 ], [ -7.391351, 54.9977365 ], [ -7.3938887, 54.9994635 ], [ -7.3984697, 54.9988589 ], [ -7.4039534, 55.0015543 ], [ -7.4055844, 55.0033242 ], [ -7.4014265, 55.0067513 ], [ -7.4030287, 55.0073019 ], [ -7.3984909, 55.0091642 ], [ -7.3966629, 55.0120314 ], [ -7.3964042, 55.0164591 ], [ -7.3945207, 55.0185093 ], [ -7.3912247, 55.0201886 ], [ -7.3913226, 55.0223489 ], [ -7.3764043, 55.0287801 ], [ -7.366581, 55.0385756 ], [ -7.3634666, 55.0382039 ], [ -7.3623853, 55.0401507 ], [ -7.3608939, 55.0405782 ], [ -7.3582337, 55.0432926 ], [ -7.3577854, 55.0446714 ], [ -7.3557605, 55.0458613 ], [ -7.3505321, 55.0465221 ], [ -7.344617, 55.0488057 ], [ -7.3461741, 55.0504651 ], [ -7.3451588, 55.050832 ], [ -7.3333022, 55.0501255 ], [ -7.3217522, 55.0451442 ], [ -7.3182838, 55.045074 ], [ -7.3149516, 55.0463974 ], [ -7.3145496, 55.0481034 ], [ -7.3133707, 55.0490988 ], [ -7.2994663, 55.0561027 ], [ -7.2890998, 55.0473619 ], [ -7.2881413, 55.0477049 ], [ -7.2772385, 55.0543635 ], [ -7.2763027, 55.0583677 ], [ -7.274118, 55.060253 ], [ -7.2729113, 55.0632203 ], [ -7.2681753, 55.0648448 ], [ -7.2668285, 55.0662046 ], [ -7.2647739, 55.0666286 ], [ -7.2612266, 55.0658547 ], [ -7.2528694, 55.0665812 ], [ -7.2480853, 55.0702237 ], [ -7.2224838, 55.0776952 ], [ -7.1528679, 55.1109068 ], [ -7.1342276, 55.1185479 ], [ -7.0661739, 55.1431939 ], [ -7.0536508, 55.1484368 ], [ -6.9891594, 55.1798349 ], [ -6.9782285, 55.1954879 ], [ -6.9419925, 55.2046076 ], [ -6.827951, 55.214798 ], [ -6.8217241, 55.2164676 ], [ -6.7194258, 55.2801706 ], [ -6.7442693, 55.4149759 ], [ -6.7559281, 55.418 ], [ -6.7751902, 55.425 ], [ -6.7977552, 55.432 ], [ -6.820981, 55.438 ], [ -6.8447759, 55.443 ], [ -6.8690224, 55.45 ], [ -6.8723638, 55.466 ], [ -6.8772137, 55.48 ], [ -6.8850649, 55.496 ], [ -6.8940905, 55.51 ], [ -6.9053099, 55.524 ], [ -6.91897, 55.538 ], [ -6.934146, 55.551 ], [ -6.9521392, 55.564 ], [ -6.9829148, 55.582 ], [ -7.0182698, 55.598 ], [ -7.0372303, 55.605 ], [ -7.0593476, 55.612 ], [ -7.0998665, 55.622 ], [ -7.127724, 55.627 ], [ -7.1563522, 55.631 ], [ -7.1994275, 55.635 ], [ -7.2427895, 55.636 ], [ -7.2883746, 55.634 ], [ -7.3169741, 55.631 ], [ -7.3432305, 55.627 ], [ -7.3726581, 55.621 ], [ -7.3994844, 55.614 ], [ -7.4306838, 55.604 ], [ -7.4541438, 55.595 ], [ -7.4781837, 55.584 ], [ -7.5044591, 55.57 ], [ -7.5500643, 55.559 ], [ -7.5925599, 55.545 ], [ -7.6277077, 55.53 ], [ -7.6574571, 55.514 ], [ -7.6838994, 55.496 ], [ -7.7057863, 55.477 ], [ -7.741752, 55.472 ], [ -7.7695004, 55.467 ], [ -7.7953212, 55.461 ], [ -7.8229004, 55.453 ], [ -7.8571507, 55.45 ], [ -7.8969314, 55.444 ], [ -7.9425829, 55.434 ], [ -7.9717635, 55.426 ], [ -7.9856239, 55.427 ], [ -8.0129193, 55.437 ], [ -8.0397553, 55.445 ], [ -8.1153879, 55.462 ], [ -8.162329, 55.47 ], [ -8.2052288, 55.474 ], [ -8.252881, 55.475 ], [ -8.2838637, 55.474 ], [ -8.3093262, 55.472 ], [ -8.3341076, 55.469 ], [ -8.3636232, 55.464 ], [ -8.3864227, 55.459 ], [ -8.4123234, 55.452 ], [ -8.4338324, 55.445 ], [ -8.4547932, 55.437 ], [ -8.4729254, 55.429 ], [ -8.4928087, 55.419 ], [ -8.5100324, 55.409 ], [ -8.5250504, 55.399 ], [ -8.5406539, 55.387 ], [ -8.553108, 55.376 ], [ -8.5656538, 55.363 ], [ -8.5768279, 55.349 ], [ -8.5858171, 55.335 ], [ -8.5927963, 55.321 ], [ -8.5978887, 55.307 ], [ -8.601505, 55.291 ], [ -8.6027979, 55.277 ], [ -8.6022705, 55.262 ], [ -8.6283842, 55.244 ], [ -8.6493927, 55.226 ], [ -8.6843554, 55.211 ], [ -8.7109308, 55.197 ], [ -8.7608099, 55.179 ], [ -8.7938605, 55.164 ], [ -8.8136531, 55.153 ], [ -8.8306313, 55.142 ], [ -8.847782, 55.129 ], [ -8.8613716, 55.117 ], [ -8.8711533, 55.107 ], [ -8.8804588, 55.096 ], [ -8.8890209, 55.084 ], [ -8.8960493, 55.072 ], [ -8.9031973, 55.056 ], [ -8.9083793, 55.038 ], [ -8.9151011, 55.022 ], [ -8.9193818, 55.008 ], [ -8.9213571, 54.998 ], [ -8.9225627, 54.986 ], [ -8.9225106, 54.974 ], [ -8.9215074, 54.964 ], [ -8.9191412, 54.952 ], [ -8.9161837, 54.942 ], [ -8.9070825, 54.921 ], [ -8.9891722, 54.879 ], [ -9.008471, 54.867 ], [ -9.024898, 54.855 ], [ -9.052651, 54.84 ], [ -9.0766958, 54.824 ], [ -9.0939439, 54.81 ], [ -9.1092149, 54.795 ], [ -9.125975, 54.774 ], [ -9.1438123, 54.755 ], [ -9.1598851, 54.733 ], [ -9.1686943, 54.717 ], [ -9.1750248, 54.701 ], [ -9.179016, 54.685 ], [ -9.1808123, 54.667 ], [ -9.1798009, 54.649 ], [ -9.1765293, 54.633 ], [ -9.1709609, 54.617 ], [ -9.1629816, 54.601 ], [ -9.1524123, 54.585 ], [ -9.1408326, 54.571 ], [ -9.1268093, 54.557 ], [ -9.1099711, 54.543 ], [ -9.0913341, 54.53 ], [ -9.0709637, 54.518 ], [ -9.0510352, 54.508 ], [ -9.0256235, 54.497 ], [ -9.0285855, 54.496 ], [ -9.0588244, 54.495 ], [ -9.115885, 54.491 ], [ -9.1448007, 54.498 ], [ -9.1773337, 54.504 ], [ -9.2065428, 54.512 ], [ -9.2339021, 54.518 ], [ -9.272779, 54.524 ], [ -9.3067186, 54.527 ], [ -9.3369811, 54.528 ], [ -9.3788902, 54.527 ], [ -9.4128298, 54.524 ], [ -9.4463348, 54.519 ], [ -9.4917898, 54.521 ], [ -9.5103817, 54.521 ], [ -9.5641787, 54.525 ], [ -9.5744641, 54.526 ], [ -9.5938263, 54.534 ], [ -9.6165505, 54.542 ], [ -9.6367302, 54.548 ], [ -9.6610549, 54.554 ], [ -9.7065718, 54.562 ], [ -9.7485145, 54.566 ], [ -9.7920756, 54.567 ], [ -9.836462, 54.565 ], [ -9.8714898, 54.561 ], [ -9.9098265, 54.554 ], [ -9.9446515, 54.545 ], [ -9.9744218, 54.535 ], [ -10.0030018, 54.523 ], [ -10.0299286, 54.509 ], [ -10.0705797, 54.505 ], [ -10.1114085, 54.498 ], [ -10.1474139, 54.489 ], [ -10.180539, 54.478 ], [ -10.2156693, 54.471 ], [ -10.2459953, 54.463 ], [ -10.2674898, 54.456 ], [ -10.2883503, 54.448 ], [ -10.310723, 54.438 ], [ -10.3298882, 54.428 ], [ -10.347996, 54.417 ], [ -10.363591, 54.406 ], [ -10.3782199, 54.394 ], [ -10.3916702, 54.381 ], [ -10.4044991, 54.366 ], [ -10.4153734, 54.35 ], [ -10.4227321, 54.336 ], [ -10.4302753, 54.317 ], [ -10.4512576, 54.298 ], [ -10.4611784, 54.287 ], [ -10.4689488, 54.277 ], [ -10.4996702, 54.25 ], [ -10.516466, 54.232 ], [ -10.5345448, 54.224 ], [ -10.5523703, 54.215 ], [ -10.5695711, 54.205 ], [ -10.5845473, 54.195 ], [ -10.5988805, 54.184 ], [ -10.6112928, 54.173 ], [ -10.6229215, 54.161 ], [ -10.6335999, 54.148 ], [ -10.6430631, 54.134 ], [ -10.6505212, 54.12 ], [ -10.6561099, 54.106 ], [ -10.6603276, 54.09 ], [ -10.6623146, 54.074 ], [ -10.6621126, 54.058 ], [ -10.6597201, 54.042 ], [ -10.6557959, 54.028 ], [ -10.6481377, 54.01 ], [ -10.6387049, 53.994 ], [ -10.6265671, 53.978 ], [ -10.6134666, 53.964 ], [ -10.6106804, 53.948 ], [ -10.6067652, 53.934 ], [ -10.601084, 53.92 ], [ -10.5935445, 53.906 ], [ -10.5840133, 53.892 ], [ -10.5741174, 53.88 ], [ -10.5624579, 53.868 ], [ -10.5466907, 53.854 ], [ -10.544078, 53.842 ], [ -10.540935, 53.832 ], [ -10.5319042, 53.812 ], [ -10.518938, 53.792 ], [ -10.5034823, 53.774 ], [ -10.5319964, 53.758 ], [ -10.5554212, 53.742 ], [ -10.577013, 53.724 ], [ -10.5907305, 53.711 ], [ -10.601775, 53.699 ], [ -10.6164528, 53.679 ], [ -10.6270007, 53.659 ], [ -10.6338156, 53.639 ], [ -10.6377515, 53.615 ], [ -10.6382275, 53.599 ], [ -10.6365421, 53.583 ], [ -10.6326649, 53.567 ], [ -10.6274159, 53.553 ], [ -10.6214729, 53.541 ], [ -10.615458, 53.531 ], [ -10.6069811, 53.519 ], [ -10.5986935, 53.509 ], [ -10.5910721, 53.489 ], [ -10.5825427, 53.473 ], [ -10.574459, 53.461 ], [ -10.5639221, 53.448 ], [ -10.5637955, 53.446 ], [ -10.5694172, 53.428 ], [ -10.5715991, 53.416 ], [ -10.5726024, 53.402 ], [ -10.5717334, 53.386 ], [ -10.5686995, 53.37 ], [ -10.5642244, 53.356 ], [ -10.5579787, 53.342 ], [ -10.5498579, 53.328 ], [ -10.5338188, 53.307 ], [ -10.5147205, 53.288 ], [ -10.4917024, 53.27 ], [ -10.4642415, 53.253 ], [ -10.4358205, 53.239 ], [ -10.4024156, 53.226 ], [ -10.3695003, 53.216 ], [ -10.3314496, 53.207 ], [ -10.3220888, 53.189 ], [ -10.3110424, 53.173 ], [ -10.2971295, 53.157 ], [ -10.2799136, 53.141 ], [ -10.2572398, 53.124 ], [ -10.2324241, 53.109 ], [ -10.2059228, 53.096 ], [ -10.1753736, 53.084 ], [ -10.16757, 53.072 ], [ -10.1591083, 53.061 ], [ -10.1380578, 53.039 ], [ -10.1149728, 53.02 ], [ -10.0887801, 53.003 ], [ -10.072134, 52.994 ], [ -10.0469059, 52.982 ], [ -10.0088405, 52.967 ], [ -9.972286, 52.956 ], [ -9.9010928, 52.941 ], [ -9.8592513, 52.929 ], [ -9.856389, 52.928 ], [ -9.8247216, 52.91 ], [ -9.8347018, 52.898 ], [ -9.8443527, 52.884 ], [ -9.8736171, 52.866 ], [ -9.898323, 52.848 ], [ -9.9171786, 52.831 ], [ -9.9349368, 52.811 ], [ -9.9583514, 52.799 ], [ -9.9857611, 52.787 ], [ -10.0132592, 52.773 ], [ -10.0537744, 52.759 ], [ -10.1021796, 52.739 ], [ -10.1234404, 52.729 ], [ -10.1415743, 52.719 ], [ -10.1805301, 52.695 ], [ -10.1994772, 52.681 ], [ -10.2163596, 52.666 ], [ -10.2343503, 52.646 ], [ -10.2478298, 52.626 ], [ -10.2573726, 52.606 ], [ -10.2637361, 52.584 ], [ -10.2660149, 52.562 ], [ -10.2643003, 52.54 ], [ -10.2585346, 52.518 ], [ -10.249648, 52.498 ], [ -10.2681986, 52.489 ], [ -10.2843048, 52.48 ], [ -10.33499, 52.467 ], [ -10.3717577, 52.459 ], [ -10.4014559, 52.451 ], [ -10.4251967, 52.443 ], [ -10.4791895, 52.422 ], [ -10.5167094, 52.411 ], [ -10.5501491, 52.398 ], [ -10.5764933, 52.385 ], [ -10.6028969, 52.369 ], [ -10.6581283, 52.345 ], [ -10.6857493, 52.331 ], [ -10.7046479, 52.32 ], [ -10.7279788, 52.313 ], [ -10.7500314, 52.305 ], [ -10.7711673, 52.296 ], [ -10.8001046, 52.282 ], [ -10.8175301, 52.272 ], [ -10.8340504, 52.261 ], [ -10.8536102, 52.246 ], [ -10.8681995, 52.233 ], [ -10.8956263, 52.218 ], [ -10.9211224, 52.201 ], [ -10.9393162, 52.186 ], [ -10.9551544, 52.17 ], [ -10.9678838, 52.154 ], [ -10.9789657, 52.136 ], [ -10.9876738, 52.116 ], [ -10.9932209, 52.094 ], [ -11.0014974, 52.078 ], [ -11.0075942, 52.062 ], [ -11.011822, 52.044 ], [ -11.0133788, 52.024 ] ] ] } }
]
}
