{
"type": "FeatureCollection",
"name": "ischia",
"crs": { "type": "name", "properties": { "name": "urn:ogc:def:crs:OGC:1.3:CRS84" } },
"features": [
{ "type": "Feature", "properties": { }, "geometry": { "type": "MultiPolygon", "coordinates": [ [ [ [ 13.9599042, 40.7256787 ], [ 13.9601732, 40.7258236 ], [ 13.9602192, 40.7257364 ], [ 13.9599042, 40.7256787 ] ] ], [ [ [ 13.9600419, 40.7261571 ], [ 13.9602357, 40.7262478 ], [ 13.9602636, 40.7260845 ], [ 13.9600419, 40.7261571 ] ] ], [ [ [ 13.9606209, 40.7264533 ], [ 13.9607766, 40.7262642 ], [ 13.9605766, 40.7264051 ], [ 13.9606209, 40.7264533 ] ] ], [ [ [ 13.960184, 40.7263477 ], [ 13.9601437, 40.7264759 ], [ 13.9602636, 40.7265006 ], [ 13.960184, 40.7263477 ] ] ], [ [ [ 13.9603865, 40.7270113 ], [ 13.9605624, 40.7270652 ], [ 13.9605492, 40.7269605 ], [ 13.9603865, 40.7270113 ] ] ], [ [ [ 13.9603967, 40.7276816 ], [ 13.960496, 40.7276515 ], [ 13.9603969, 40.727638 ], [ 13.9603967, 40.7276816 ] ] ], [ [ [ 13.9309881, 40.7462279 ], [ 13.9367205, 40.7473511 ], [ 13.9378347, 40.7467594 ], [ 13.9382877, 40.7471223 ], [ 13.9394878, 40.7474281 ], [ 13.9389425, 40.7472094 ], [ 13.9389472, 40.7469979 ], [ 13.9405658, 40.7465327 ], [ 13.9413551, 40.7477642 ], [ 13.9425504, 40.7483514 ], [ 13.94147, 40.7476016 ], [ 13.941146, 40.7460172 ], [ 13.9391978, 40.7461811 ], [ 13.9381016, 40.7453566 ], [ 13.9384614, 40.7440918 ], [ 13.940482, 40.7429098 ], [ 13.9420897, 40.7432009 ], [ 13.9426618, 40.7452362 ], [ 13.941485, 40.7458551 ], [ 13.9432806, 40.7470436 ], [ 13.9446983, 40.745743 ], [ 13.9461896, 40.7459015 ], [ 13.94557, 40.7456518 ], [ 13.9458488, 40.7447409 ], [ 13.9474401, 40.7433942 ], [ 13.9502384, 40.7428656 ], [ 13.9506735, 40.7437788 ], [ 13.9505977, 40.7430407 ], [ 13.9528028, 40.7427672 ], [ 13.9549269, 40.7411254 ], [ 13.9557795, 40.7359841 ], [ 13.9567864, 40.7342921 ], [ 13.9604756, 40.7320628 ], [ 13.9624968, 40.7319297 ], [ 13.9596404, 40.7308365 ], [ 13.9590142, 40.7287174 ], [ 13.9603552, 40.7276475 ], [ 13.9591605, 40.7237759 ], [ 13.9647444, 40.7198689 ], [ 13.9643303, 40.7188742 ], [ 13.9652657, 40.7164334 ], [ 13.9642792, 40.7153822 ], [ 13.9653306, 40.7125151 ], [ 13.9631865, 40.7104688 ], [ 13.9615466, 40.7101421 ], [ 13.9607771, 40.7115415 ], [ 13.958576, 40.7111254 ], [ 13.9573843, 40.7087637 ], [ 13.9546159, 40.7089032 ], [ 13.9539674, 40.7076513 ], [ 13.9532494, 40.7083676 ], [ 13.9467097, 40.7088063 ], [ 13.941915, 40.7134387 ], [ 13.939241, 40.7140405 ], [ 13.9397088, 40.7150928 ], [ 13.9386315, 40.7169125 ], [ 13.9416697, 40.7210786 ], [ 13.9393364, 40.7217948 ], [ 13.940032, 40.7225588 ], [ 13.9387705, 40.7258227 ], [ 13.9405555, 40.7268506 ], [ 13.9385848, 40.7279275 ], [ 13.9401486, 40.7296311 ], [ 13.9386683, 40.7304701 ], [ 13.9377293, 40.7293812 ], [ 13.9368304, 40.729958 ], [ 13.936414, 40.7288035 ], [ 13.9348789, 40.7293661 ], [ 13.9349724, 40.7305235 ], [ 13.9330655, 40.7303663 ], [ 13.9364214, 40.7324062 ], [ 13.9373208, 40.7342763 ], [ 13.9332731, 40.7347865 ], [ 13.9323489, 40.7353737 ], [ 13.9332461, 40.7365161 ], [ 13.929841, 40.7380454 ], [ 13.9298443, 40.7388643 ], [ 13.9280021, 40.7389878 ], [ 13.9309881, 40.7462279 ] ] ], [ [ [ 13.9394111, 40.7443306 ], [ 13.9395694, 40.7443338 ], [ 13.9395071, 40.7442748 ], [ 13.9394111, 40.7443306 ] ] ], [ [ [ 13.9436835, 40.7468416 ], [ 13.9436707, 40.7467913 ], [ 13.943655, 40.7468198 ], [ 13.9436835, 40.7468416 ] ] ], [ [ [ 13.9606795, 40.7266344 ], [ 13.9608972, 40.7266599 ], [ 13.9609821, 40.7265673 ], [ 13.9606795, 40.7266344 ] ] ], [ [ [ 13.9608291, 40.7269855 ], [ 13.9612646, 40.7270642 ], [ 13.9612892, 40.7268793 ], [ 13.9608291, 40.7269855 ] ] ], [ [ [ 13.9612722, 40.7273201 ], [ 13.9612973, 40.7273006 ], [ 13.9612645, 40.7273014 ], [ 13.9612722, 40.7273201 ] ] ], [ [ [ 13.9606315, 40.7272748 ], [ 13.9608939, 40.7273761 ], [ 13.9609643, 40.7273031 ], [ 13.9606315, 40.7272748 ] ] ], [ [ [ 13.9612401, 40.7273697 ], [ 13.9612777, 40.727356 ], [ 13.9612153, 40.7273438 ], [ 13.9612401, 40.7273697 ] ] ], [ [ [ 13.9611411, 40.7273133 ], [ 13.961203, 40.7274823 ], [ 13.9612439, 40.727477 ], [ 13.9611411, 40.7273133 ] ] ], [ [ [ 13.9607493, 40.7274507 ], [ 13.9610892, 40.727591 ], [ 13.961028, 40.7273722 ], [ 13.9607493, 40.7274507 ] ] ], [ [ [ 13.9644642, 40.7298843 ], [ 13.9644943, 40.7299824 ], [ 13.9645151, 40.7299669 ], [ 13.9644642, 40.7298843 ] ] ], [ [ [ 13.962977, 40.7317633 ], [ 13.9663519, 40.7323892 ], [ 13.9671168, 40.7308499 ], [ 13.964923, 40.7297316 ], [ 13.962977, 40.7317633 ] ] ] ] } }
]
}
