{
"type": "FeatureCollection",
"name": "isle_of_man",
"crs": { "type": "name", "properties": { "name": "urn:ogc:def:crs:OGC:1.3:CRS84" } },
"features": [
{ "type": "Feature", "properties": { }, "geometry": { "type": "Polygon", "coordinates": [ [ [ -5.1707285, 54.054 ], [ -5.169955, 54.04 ], [ -5.1675004, 54.026 ], [ -5.1633291, 54.012 ], [ -5.1568818, 53.997 ], [ -5.1489129, 53.983 ], [ -5.1356712, 53.964 ], [ -5.1248549, 53.951 ], [ -5.1130188, 53.939 ], [ -5.0991708, 53.927 ], [ -5.084437, 53.916 ], [ -5.0673889, 53.905 ], [ -5.0494423, 53.895 ], [ -5.0307812, 53.886 ], [ -5.0116068, 53.878 ], [ -4.9921542, 53.871 ], [ -4.9691587, 53.864 ], [ -4.930708, 53.855 ], [ -4.8922635, 53.849 ], [ -4.8587123, 53.846 ], [ -4.8076135, 53.845 ], [ -4.7777017, 53.846 ], [ -4.7531165, 53.848 ], [ -4.7226853, 53.852 ], [ -4.6958806, 53.857 ], [ -4.6341138, 53.854 ], [ -4.5896172, 53.855 ], [ -4.5756946, 53.856 ], [ -4.5410894, 53.86 ], [ -4.5031999, 53.867 ], [ -4.4721245, 53.875 ], [ -4.4446733, 53.884 ], [ -4.4197607, 53.894 ], [ -4.3950428, 53.906 ], [ -4.3651136, 53.924 ], [ -4.3372221, 53.945 ], [ -4.3188843, 53.954 ], [ -4.3028308, 53.963 ], [ -4.2505092, 53.987 ], [ -4.2232395, 54.002 ], [ -4.2060255, 54.013 ], [ -4.1910626, 54.024 ], [ -4.1703182, 54.035 ], [ -4.1475303, 54.049 ], [ -4.1320236, 54.06 ], [ -4.110812, 54.077 ], [ -4.088159, 54.099 ], [ -4.0732225, 54.117 ], [ -4.0607768, 54.137 ], [ -4.0513352, 54.159 ], [ -4.0315461, 54.177 ], [ -4.0068788, 54.201 ], [ -3.9935734, 54.217 ], [ -3.9830996, 54.233 ], [ -3.9773999, 54.244 ], [ -3.9724925, 54.256 ], [ -3.9694065, 54.266 ], [ -3.9668713, 54.278 ], [ -3.9657136, 54.288 ], [ -3.965458, 54.3 ], [ -3.966438, 54.312 ], [ -3.9685267, 54.324 ], [ -3.9747268, 54.344 ], [ -3.9852641, 54.365 ], [ -3.9995207, 54.385 ], [ -4.0172941, 54.404 ], [ -4.0170726, 54.424 ], [ -4.0197961, 54.442 ], [ -4.0253903, 54.46 ], [ -4.0344301, 54.479 ], [ -4.0748658, 54.5001033 ], [ -4.0954194, 54.515379 ], [ -4.153469, 54.5506519 ], [ -4.1962416, 54.5534288 ], [ -4.2928961, 54.5509279 ], [ -4.4003826, 54.5464826 ], [ -4.4378778, 54.5420383 ], [ -4.4912042, 54.533983 ], [ -4.5325878, 54.5295386 ], [ -4.6145214, 54.5125952 ], [ -4.6725693, 54.4995405 ], [ -4.7281174, 54.4837084 ], [ -4.7933863, 54.4620435 ], [ -4.868555, 54.4339831 ], [ -4.8670986, 54.432 ], [ -4.8744068, 54.421 ], [ -4.8809614, 54.409 ], [ -4.8948807, 54.392 ], [ -4.922974, 54.379 ], [ -4.9449465, 54.367 ], [ -4.9649055, 54.354 ], [ -4.9886407, 54.336 ], [ -5.0178056, 54.309 ], [ -5.0283078, 54.297 ], [ -5.0387905, 54.2829617 ], [ -5.0482494, 54.266 ], [ -5.0545227, 54.251 ], [ -5.0647134, 54.235 ], [ -5.0719148, 54.221 ], [ -5.0778754, 54.205 ], [ -5.0815379, 54.189 ], [ -5.1044061, 54.172 ], [ -5.1214134, 54.157 ], [ -5.1363046, 54.141 ], [ -5.1488123, 54.124 ], [ -5.157811, 54.108 ], [ -5.1649974, 54.09 ], [ -5.1692655, 54.072 ], [ -5.1707285, 54.054 ] ] ] } }
]
}
