{
"type": "FeatureCollection",
"name": "isle_of_wight",
"crs": { "type": "name", "properties": { "name": "urn:ogc:def:crs:OGC:1.3:CRS84" } },
"features": [
{ "type": "Feature", "properties": { }, "geometry": { "type": "MultiPolygon", "coordinates": [ [ [ [ -1.5917893, 50.6622081 ], [ -1.5905638, 50.6625242 ], [ -1.5903635, 50.6624299 ], [ -1.5917893, 50.6622081 ] ] ], [ [ [ -1.5900971, 50.662564 ], [ -1.5888968, 50.6627698 ], [ -1.5888797, 50.6627149 ], [ -1.5900971, 50.662564 ] ] ], [ [ [ -1.5877413, 50.6630434 ], [ -1.5763866, 50.6640106 ], [ -1.569882, 50.665512 ], [ -1.5695624, 50.6677841 ], [ -1.5710521, 50.6700686 ], [ -1.5704739, 50.6700174 ], [ -1.5709427, 50.6709698 ], [ -1.5701633, 50.6736628 ], [ -1.5595877, 50.6765891 ], [ -1.5482372, 50.6785609 ], [ -1.5441582, 50.683652 ], [ -1.5424471, 50.6888402 ], [ -1.5436316, 50.6900802 ], [ -1.5392717, 50.6897695 ], [ -1.5365107, 50.6915105 ], [ -1.5369033, 50.692417 ], [ -1.5354132, 50.6923688 ], [ -1.5342129, 50.6962254 ], [ -1.5346424, 50.7007396 ], [ -1.5318451, 50.7031632 ], [ -1.5232223, 50.7070037 ], [ -1.515953, 50.7071706 ], [ -1.5078044, 50.7060519 ], [ -1.5012738, 50.7071216 ], [ -1.5003379, 50.7065512 ], [ -1.4990817, 50.7074649 ], [ -1.4870395, 50.7068354 ], [ -1.483942, 50.7080737 ], [ -1.4742061, 50.7097077 ], [ -1.4742349, 50.71079 ], [ -1.4737328, 50.7098067 ], [ -1.4717422, 50.7102139 ], [ -1.4684643, 50.7118752 ], [ -1.4662838, 50.712095 ], [ -1.4650277, 50.7137615 ], [ -1.4637092, 50.7133007 ], [ -1.44255, 50.7224937 ], [ -1.4305401, 50.7260288 ], [ -1.433302, 50.72645 ], [ -1.4300371, 50.7262536 ], [ -1.4326075, 50.726802 ], [ -1.4295121, 50.7263926 ], [ -1.4252575, 50.7271804 ], [ -1.4199516, 50.7261916 ], [ -1.4138962, 50.7264552 ], [ -1.4116359, 50.724635 ], [ -1.41066, 50.7247553 ], [ -1.4099449, 50.727894 ], [ -1.403706, 50.728971 ], [ -1.4038373, 50.7300486 ], [ -1.4032132, 50.7307151 ], [ -1.4034824, 50.7298994 ], [ -1.4021389, 50.7291259 ], [ -1.3992519, 50.7302537 ], [ -1.3974517, 50.7298048 ], [ -1.395045, 50.7311216 ], [ -1.3948831, 50.7305488 ], [ -1.3885149, 50.7330393 ], [ -1.3854756, 50.7333408 ], [ -1.3851574, 50.7343486 ], [ -1.384068, 50.7352144 ], [ -1.3835644, 50.7352848 ], [ -1.3848871, 50.733732 ], [ -1.3813288, 50.7343128 ], [ -1.3817566, 50.7354515 ], [ -1.3832028, 50.7354525 ], [ -1.3817125, 50.7356323 ], [ -1.3804169, 50.7345728 ], [ -1.3789173, 50.7357164 ], [ -1.3785234, 50.7350021 ], [ -1.3745598, 50.7355796 ], [ -1.3668725, 50.7379333 ], [ -1.3556138, 50.7396501 ], [ -1.3509207, 50.7434929 ], [ -1.3508255, 50.7441345 ], [ -1.3526161, 50.7446149 ], [ -1.3486697, 50.7449768 ], [ -1.3470774, 50.746621 ], [ -1.3469877, 50.7488735 ], [ -1.3476648, 50.750067 ], [ -1.3485187, 50.7500593 ], [ -1.34771, 50.7509772 ], [ -1.3458327, 50.750557 ], [ -1.3380992, 50.7552389 ], [ -1.3350561, 50.7555998 ], [ -1.3324978, 50.7573218 ], [ -1.3334712, 50.7564589 ], [ -1.3334936, 50.7557113 ], [ -1.3324214, 50.7570773 ], [ -1.3284158, 50.7579712 ], [ -1.3221244, 50.7645843 ], [ -1.3135522, 50.7675541 ], [ -1.3007874, 50.7669232 ], [ -1.2976308, 50.7648053 ], [ -1.2961052, 50.7617859 ], [ -1.2907433, 50.7624686 ], [ -1.290511, 50.763685 ], [ -1.2893552, 50.7634767 ], [ -1.2918438, 50.764673 ], [ -1.2898952, 50.7639144 ], [ -1.2842982, 50.765798 ], [ -1.2792631, 50.7662676 ], [ -1.2801868, 50.7670954 ], [ -1.2716716, 50.7655597 ], [ -1.2613909, 50.7609582 ], [ -1.2578279, 50.7572573 ], [ -1.2565471, 50.7573515 ], [ -1.2572968, 50.7569528 ], [ -1.256798, 50.7561473 ], [ -1.2538814, 50.7539909 ], [ -1.2480941, 50.7527767 ], [ -1.2440746, 50.749263 ], [ -1.2401136, 50.7485055 ], [ -1.232697, 50.7443466 ], [ -1.2231679, 50.741504 ], [ -1.2217032, 50.7416692 ], [ -1.22109, 50.7409651 ], [ -1.2154448, 50.7401373 ], [ -1.2168418, 50.7397719 ], [ -1.2150447, 50.7390846 ], [ -1.2135829, 50.7391883 ], [ -1.212901, 50.7396777 ], [ -1.213964, 50.7398905 ], [ -1.2132126, 50.7401116 ], [ -1.2112947, 50.7399941 ], [ -1.2127852, 50.7391533 ], [ -1.2122085, 50.7374701 ], [ -1.2116693, 50.7376906 ], [ -1.212303, 50.735607 ], [ -1.2158085, 50.7354534 ], [ -1.2145628, 50.7340509 ], [ -1.2055643, 50.7373356 ], [ -1.2009187, 50.7361659 ], [ -1.1804323, 50.735947 ], [ -1.1736397, 50.7349477 ], [ -1.1708772, 50.7352302 ], [ -1.1707815, 50.7358154 ], [ -1.1647104, 50.7359343 ], [ -1.1592694, 50.7385487 ], [ -1.1574195, 50.7377874 ], [ -1.1579196, 50.7356366 ], [ -1.1573034, 50.7366911 ], [ -1.1530701, 50.7366988 ], [ -1.1502439, 50.7376708 ], [ -1.1503834, 50.7349686 ], [ -1.1494802, 50.7375464 ], [ -1.1470447, 50.7350443 ], [ -1.1492658, 50.7380821 ], [ -1.1474645, 50.7384402 ], [ -1.1453733, 50.7376143 ], [ -1.144362, 50.7381447 ], [ -1.1447696, 50.7378386 ], [ -1.1448792, 50.7370909 ], [ -1.1447749, 50.7339804 ], [ -1.1463247, 50.733372 ], [ -1.1462158, 50.7348739 ], [ -1.1470372, 50.7334085 ], [ -1.1479671, 50.7340848 ], [ -1.1486839, 50.7330801 ], [ -1.1477218, 50.7328416 ], [ -1.1480492, 50.7322795 ], [ -1.1464009, 50.733087 ], [ -1.1460566, 50.7312227 ], [ -1.1443821, 50.7304921 ], [ -1.1453312, 50.7327246 ], [ -1.1440837, 50.7327966 ], [ -1.1438514, 50.733644 ], [ -1.1447858, 50.7333591 ], [ -1.1442052, 50.7360681 ], [ -1.1443576, 50.7388126 ], [ -1.141058, 50.7412614 ], [ -1.1320983, 50.7434249 ], [ -1.1227285, 50.7424362 ], [ -1.1322731, 50.7416953 ], [ -1.134214, 50.7409265 ], [ -1.1346399, 50.739336 ], [ -1.1337576, 50.738598 ], [ -1.1348844, 50.7380103 ], [ -1.1331371, 50.7354637 ], [ -1.1326544, 50.7365336 ], [ -1.1303479, 50.7334423 ], [ -1.1267932, 50.7313134 ], [ -1.1161456, 50.7317815 ], [ -1.1263773, 50.7307879 ], [ -1.1193917, 50.7258485 ], [ -1.1086857, 50.7211299 ], [ -1.1062758, 50.718857 ], [ -1.1069387, 50.7189392 ], [ -1.1068777, 50.7174653 ], [ -1.1051988, 50.7139186 ], [ -1.1025244, 50.7129857 ], [ -1.1004501, 50.7073093 ], [ -1.0951641, 50.705593 ], [ -1.1014079, 50.7124006 ], [ -1.0945004, 50.7083713 ], [ -1.0930946, 50.7063389 ], [ -1.0918382, 50.7059555 ], [ -1.0929451, 50.7056042 ], [ -1.0896725, 50.7051952 ], [ -1.0926716, 50.7047075 ], [ -1.0925855, 50.7040225 ], [ -1.0910327, 50.7043145 ], [ -1.0935015, 50.7011159 ], [ -1.0899487, 50.7031388 ], [ -1.0893574, 50.6990749 ], [ -1.0866974, 50.6968041 ], [ -1.0857943, 50.6974258 ], [ -1.0845664, 50.6956981 ], [ -1.0807917, 50.6950614 ], [ -1.0739776, 50.6912255 ], [ -1.0739524, 50.6919477 ], [ -1.0695672, 50.6901975 ], [ -1.0678362, 50.6877592 ], [ -1.0627189, 50.684127 ], [ -1.0658974, 50.6816525 ], [ -1.0670272, 50.6792563 ], [ -1.0675914, 50.6809353 ], [ -1.0694803, 50.6823996 ], [ -1.067734, 50.6839259 ], [ -1.068395, 50.6840505 ], [ -1.0701163, 50.6818884 ], [ -1.0691055, 50.6790407 ], [ -1.0744832, 50.6781254 ], [ -1.077253, 50.6784746 ], [ -1.0820063, 50.6758027 ], [ -1.0739364, 50.6772531 ], [ -1.0814773, 50.6746479 ], [ -1.0879945, 50.6741155 ], [ -1.0923037, 50.6727372 ], [ -1.0956437, 50.6696161 ], [ -1.0955151, 50.6680655 ], [ -1.0938854, 50.6673779 ], [ -1.0979423, 50.6652327 ], [ -1.113599, 50.6652576 ], [ -1.1317637, 50.6620052 ], [ -1.1307322, 50.6619476 ], [ -1.1400602, 50.6591358 ], [ -1.1579126, 50.6503958 ], [ -1.1666492, 50.6419897 ], [ -1.1680307, 50.6396937 ], [ -1.1683006, 50.6331775 ], [ -1.1705631, 50.6303584 ], [ -1.173633, 50.623014 ], [ -1.1725616, 50.6191356 ], [ -1.170599, 50.6183361 ], [ -1.1717147, 50.6179906 ], [ -1.1719445, 50.6167674 ], [ -1.1716176, 50.6156675 ], [ -1.1704809, 50.6151997 ], [ -1.1716993, 50.6152128 ], [ -1.1727581, 50.6134524 ], [ -1.1757247, 50.6113736 ], [ -1.1760899, 50.6100541 ], [ -1.1744585, 50.607821 ], [ -1.1743393, 50.6057856 ], [ -1.1820503, 50.5974641 ], [ -1.1833135, 50.5980869 ], [ -1.1838958, 50.5979352 ], [ -1.183427, 50.597317 ], [ -1.1842263, 50.5977349 ], [ -1.187536, 50.5960353 ], [ -1.190851, 50.5961173 ], [ -1.1923715, 50.5947026 ], [ -1.1932471, 50.5952536 ], [ -1.1952002, 50.594393 ], [ -1.1961604, 50.5948986 ], [ -1.1965605, 50.5943923 ], [ -1.2009155, 50.5927298 ], [ -1.199927, 50.5932334 ], [ -1.2029006, 50.5925462 ], [ -1.2098537, 50.592717 ], [ -1.2215315, 50.5882717 ], [ -1.2237725, 50.5877178 ], [ -1.2209638, 50.5889129 ], [ -1.2324413, 50.5856427 ], [ -1.2347384, 50.5857363 ], [ -1.2419658, 50.5825973 ], [ -1.2563057, 50.5792203 ], [ -1.2648638, 50.579687 ], [ -1.2652996, 50.5790212 ], [ -1.2720999, 50.5790164 ], [ -1.2715155, 50.5794123 ], [ -1.2774082, 50.5782487 ], [ -1.2795646, 50.5762479 ], [ -1.2837425, 50.5758443 ], [ -1.2827943, 50.5766505 ], [ -1.2804761, 50.5765852 ], [ -1.2854822, 50.5771679 ], [ -1.28672, 50.5761588 ], [ -1.2923508, 50.574795 ], [ -1.2998644, 50.5747991 ], [ -1.3080886, 50.5772252 ], [ -1.3092534, 50.5806197 ], [ -1.3192845, 50.5897094 ], [ -1.3451369, 50.604258 ], [ -1.3555825, 50.6082513 ], [ -1.3593014, 50.6091143 ], [ -1.3600442, 50.6082126 ], [ -1.3602054, 50.6091047 ], [ -1.3620396, 50.6092397 ], [ -1.3682169, 50.6145389 ], [ -1.3898042, 50.626786 ], [ -1.3978818, 50.6287303 ], [ -1.4103066, 50.6342717 ], [ -1.4248415, 50.6368063 ], [ -1.431809, 50.6396018 ], [ -1.4404826, 50.6410691 ], [ -1.4497812, 50.6440471 ], [ -1.4560454, 50.6479482 ], [ -1.455392, 50.6479168 ], [ -1.4583113, 50.6506158 ], [ -1.4663449, 50.6523333 ], [ -1.4662772, 50.6531499 ], [ -1.4676376, 50.653212 ], [ -1.4675526, 50.6542943 ], [ -1.4736227, 50.6596034 ], [ -1.485387, 50.6666415 ], [ -1.4942021, 50.6681038 ], [ -1.5058848, 50.668309 ], [ -1.5107451, 50.6699627 ], [ -1.5134604, 50.6682262 ], [ -1.5269712, 50.667535 ], [ -1.54919, 50.6635211 ], [ -1.5614896, 50.6630623 ], [ -1.5693226, 50.6609314 ], [ -1.5740975, 50.6604616 ], [ -1.5792948, 50.6601029 ], [ -1.5790643, 50.6611025 ], [ -1.5877413, 50.6630434 ] ] ], [ [ [ -1.0859782, 50.7050171 ], [ -1.0835184, 50.7053684 ], [ -1.0830929, 50.7050882 ], [ -1.0834698, 50.7045 ], [ -1.0859782, 50.7050171 ] ] ], [ [ [ -1.0950917, 50.7396737 ], [ -1.0948975, 50.7402491 ], [ -1.0945629, 50.7399268 ], [ -1.0950917, 50.7396737 ] ] ] ] } }
]
}
