{
"type": "FeatureCollection",
"name": "jersey",
"crs": { "type": "name", "properties": { "name": "urn:ogc:def:crs:OGC:1.3:CRS84" } },
"features": [
{ "type": "Feature", "properties": { }, "geometry": { "type": "MultiPolygon", "coordinates": [ [ [ [ -2.38047, 49.4075528 ], [ -2.3807286, 49.407106 ], [ -2.3811299, 49.4076282 ], [ -2.38047, 49.4075528 ] ] ], [ [ [ -2.3789235, 49.4104689 ], [ -2.3796424, 49.4101862 ], [ -2.3802607, 49.4104706 ], [ -2.3789235, 49.4104689 ] ] ], [ [ [ -2.3851597, 49.412556 ], [ -2.3839849, 49.4121268 ], [ -2.3842848, 49.4119559 ], [ -2.3851597, 49.412556 ] ] ], [ [ [ -2.3823106, 49.4157335 ], [ -2.3829361, 49.415373 ], [ -2.382849, 49.4157658 ], [ -2.3823106, 49.4157335 ] ] ], [ [ [ -2.5395242, 49.4184575 ], [ -2.5408527, 49.4173205 ], [ -2.5411747, 49.4182814 ], [ -2.5395242, 49.4184575 ] ] ], [ [ [ -2.3798387, 49.4318098 ], [ -2.3789902, 49.4315158 ], [ -2.3788978, 49.4310674 ], [ -2.3802912, 49.4307497 ], [ -2.3798387, 49.4318098 ] ] ], [ [ [ -2.3953789, 49.4317724 ], [ -2.3924701, 49.4342546 ], [ -2.3918344, 49.4335508 ], [ -2.3910233, 49.4341446 ], [ -2.3878191, 49.4335525 ], [ -2.3880833, 49.4341744 ], [ -2.3858893, 49.4343872 ], [ -2.3821288, 49.4328051 ], [ -2.3814477, 49.4313172 ], [ -2.3821474, 49.4306388 ], [ -2.3843278, 49.4311737 ], [ -2.3846969, 49.4303472 ], [ -2.3858793, 49.430821 ], [ -2.3888987, 49.4283585 ], [ -2.388664, 49.4290118 ], [ -2.3905618, 49.4293571 ], [ -2.3902391, 49.430363 ], [ -2.3889632, 49.4301873 ], [ -2.3903279, 49.4315561 ], [ -2.3914459, 49.4319043 ], [ -2.3925814, 49.4310781 ], [ -2.3929073, 49.4317523 ], [ -2.3953789, 49.4317724 ] ] ], [ [ [ -2.6547245, 49.4394187 ], [ -2.6552825, 49.4389345 ], [ -2.655373, 49.4394877 ], [ -2.6547245, 49.4394187 ] ] ], [ [ [ -2.4590071, 49.4554335 ], [ -2.4605075, 49.4558657 ], [ -2.4586694, 49.4557457 ], [ -2.4590071, 49.4554335 ] ] ], [ [ [ -2.4603237, 49.4569748 ], [ -2.4600384, 49.4565496 ], [ -2.4605759, 49.4568229 ], [ -2.4603237, 49.4569748 ] ] ], [ [ [ -2.459445, 49.4569082 ], [ -2.4593779, 49.4568384 ], [ -2.4594678, 49.4568393 ], [ -2.459445, 49.4569082 ] ] ], [ [ [ -2.4584432, 49.4585638 ], [ -2.4585518, 49.4585333 ], [ -2.4585236, 49.4585769 ], [ -2.4584432, 49.4585638 ] ] ], [ [ [ -2.4587336, 49.4588091 ], [ -2.4586466, 49.4586229 ], [ -2.4588069, 49.4587127 ], [ -2.4587336, 49.4588091 ] ] ], [ [ [ -2.4650841, 49.4597257 ], [ -2.4609663, 49.4612887 ], [ -2.4612314, 49.46174 ], [ -2.4610709, 49.4619954 ], [ -2.4589201, 49.458912 ], [ -2.4638581, 49.4556031 ], [ -2.4656794, 49.456852 ], [ -2.4650841, 49.4597257 ] ] ], [ [ [ -2.6704366, 49.4629276 ], [ -2.6682296, 49.4621161 ], [ -2.6665153, 49.4633506 ], [ -2.6648003, 49.4627506 ], [ -2.6653995, 49.462374 ], [ -2.6653295, 49.460309 ], [ -2.6639503, 49.4594396 ], [ -2.6642578, 49.4583489 ], [ -2.6657117, 49.4575954 ], [ -2.6652465, 49.4587623 ], [ -2.6659408, 49.4597617 ], [ -2.6724434, 49.4608974 ], [ -2.6704366, 49.4629276 ] ] ], [ [ [ -2.6761352, 49.4614266 ], [ -2.67419, 49.4612192 ], [ -2.6746006, 49.4603229 ], [ -2.6757686, 49.4605167 ], [ -2.6761352, 49.4614266 ] ] ], [ [ [ -2.6739473, 49.4359847 ], [ -2.6729928, 49.4358535 ], [ -2.6713717, 49.4373193 ], [ -2.6712602, 49.4363803 ], [ -2.669719, 49.4354805 ], [ -2.6679004, 49.435296 ], [ -2.6659636, 49.4362596 ], [ -2.6640662, 49.4344479 ], [ -2.6595632, 49.4340552 ], [ -2.6572539, 49.4346115 ], [ -2.6539138, 49.4368923 ], [ -2.653825, 49.4389298 ], [ -2.6500128, 49.44269 ], [ -2.6492218, 49.4458606 ], [ -2.6496997, 49.4493428 ], [ -2.6507898, 49.4528493 ], [ -2.6521727, 49.4542457 ], [ -2.6543988, 49.4542854 ], [ -2.6570617, 49.4559156 ], [ -2.6595719, 49.4557573 ], [ -2.6577005, 49.4572059 ], [ -2.6574624, 49.4587071 ], [ -2.6532147, 49.4573344 ], [ -2.6467826, 49.4604544 ], [ -2.6419743, 49.4611044 ], [ -2.6393731, 49.4589651 ], [ -2.635804, 49.4588839 ], [ -2.6314631, 49.4619744 ], [ -2.63099, 49.4630747 ], [ -2.6320602, 49.4640435 ], [ -2.629241, 49.4660154 ], [ -2.6293191, 49.4674744 ], [ -2.6263437, 49.4669093 ], [ -2.6251643, 49.4656232 ], [ -2.6253107, 49.4643467 ], [ -2.6220923, 49.4632397 ], [ -2.6171967, 49.4635191 ], [ -2.6102749, 49.4654433 ], [ -2.60702, 49.4680306 ], [ -2.6064415, 49.4712773 ], [ -2.607614, 49.4731896 ], [ -2.610858, 49.4734911 ], [ -2.6128462, 49.4746584 ], [ -2.6099899, 49.4739858 ], [ -2.6086149, 49.474264 ], [ -2.6078617, 49.4754389 ], [ -2.6064136, 49.4752425 ], [ -2.6067423, 49.4740527 ], [ -2.6048553, 49.4724646 ], [ -2.6036111, 49.4723915 ], [ -2.6025067, 49.4730794 ], [ -2.6028443, 49.4749226 ], [ -2.6020129, 49.4742977 ], [ -2.5997476, 49.4755282 ], [ -2.5959, 49.4752318 ], [ -2.591448, 49.4767244 ], [ -2.5884829, 49.4807513 ], [ -2.5866295, 49.4854894 ], [ -2.5879806, 49.4872795 ], [ -2.5900333, 49.4875368 ], [ -2.589952, 49.488051 ], [ -2.5887699, 49.4884293 ], [ -2.5862498, 49.4872578 ], [ -2.5842059, 49.4881952 ], [ -2.5822263, 49.486831 ], [ -2.5794853, 49.4871517 ], [ -2.578735, 49.4880789 ], [ -2.5802262, 49.4891457 ], [ -2.5747184, 49.4901746 ], [ -2.5745736, 49.4918198 ], [ -2.5759764, 49.4930393 ], [ -2.5747506, 49.4943792 ], [ -2.5724091, 49.4928821 ], [ -2.5694801, 49.4947061 ], [ -2.5693336, 49.4961779 ], [ -2.5714166, 49.4963542 ], [ -2.5709993, 49.496746 ], [ -2.5682999, 49.4970364 ], [ -2.5669132, 49.4960514 ], [ -2.5642616, 49.4967969 ], [ -2.5620048, 49.4948094 ], [ -2.5582416, 49.495654 ], [ -2.555951, 49.4984602 ], [ -2.5528075, 49.4983232 ], [ -2.5542999, 49.4959122 ], [ -2.5529791, 49.4943864 ], [ -2.5481871, 49.4935231 ], [ -2.5479446, 49.4922069 ], [ -2.5461744, 49.4910231 ], [ -2.5430641, 49.4916052 ], [ -2.5418217, 49.4925797 ], [ -2.5434895, 49.494022 ], [ -2.5422889, 49.4957238 ], [ -2.5426392, 49.4976121 ], [ -2.5406007, 49.4995364 ], [ -2.5407788, 49.5029537 ], [ -2.5438573, 49.5045612 ], [ -2.547438, 49.5044883 ], [ -2.5482719, 49.5049812 ], [ -2.5479636, 49.5060409 ], [ -2.5437638, 49.5065282 ], [ -2.5428036, 49.5077697 ], [ -2.5395155, 49.5071842 ], [ -2.5368548, 49.5083156 ], [ -2.5348853, 49.5064941 ], [ -2.5313694, 49.5079424 ], [ -2.5340436, 49.5042825 ], [ -2.5304647, 49.5024893 ], [ -2.5240348, 49.501816 ], [ -2.5230242, 49.5032284 ], [ -2.5204423, 49.5038341 ], [ -2.5207712, 49.5053946 ], [ -2.5187032, 49.5073721 ], [ -2.5186254, 49.5090776 ], [ -2.5169302, 49.5081257 ], [ -2.5171342, 49.5072095 ], [ -2.5155339, 49.505186 ], [ -2.510391, 49.5043743 ], [ -2.5070968, 49.50607 ], [ -2.5054338, 49.5060794 ], [ -2.5048441, 49.5057467 ], [ -2.5055306, 49.5046818 ], [ -2.5037132, 49.5032449 ], [ -2.5044997, 49.5009543 ], [ -2.5026076, 49.4999541 ], [ -2.503276, 49.4992924 ], [ -2.501814, 49.4974762 ], [ -2.5026922, 49.496636 ], [ -2.5024683, 49.4944926 ], [ -2.5037338, 49.4901013 ], [ -2.5050569, 49.4907398 ], [ -2.5087562, 49.4901351 ], [ -2.5066095, 49.4883113 ], [ -2.5090799, 49.4870338 ], [ -2.507872, 49.4856652 ], [ -2.5080513, 49.484712 ], [ -2.5120118, 49.4824426 ], [ -2.51181, 49.4817831 ], [ -2.5126629, 49.4832987 ], [ -2.5139018, 49.4831703 ], [ -2.5140261, 49.4831312 ], [ -2.5136858, 49.4823418 ], [ -2.5142545, 49.4831424 ], [ -2.5164673, 49.4835258 ], [ -2.5197074, 49.4829982 ], [ -2.5183059, 49.4825896 ], [ -2.5176809, 49.4832312 ], [ -2.5165122, 49.4830155 ], [ -2.5174496, 49.4824728 ], [ -2.5124646, 49.4815607 ], [ -2.5129905, 49.4807437 ], [ -2.5114763, 49.4801262 ], [ -2.5100879, 49.4806377 ], [ -2.5078247, 49.4800401 ], [ -2.5083013, 49.4783993 ], [ -2.5119255, 49.476701 ], [ -2.5157117, 49.4771907 ], [ -2.520055, 49.4756754 ], [ -2.5215773, 49.476176 ], [ -2.5276178, 49.4752273 ], [ -2.5337518, 49.4711902 ], [ -2.533583, 49.4695208 ], [ -2.5359094, 49.4661305 ], [ -2.5358393, 49.4645641 ], [ -2.5330295, 49.4625811 ], [ -2.5319376, 49.4628311 ], [ -2.5302382, 49.4611057 ], [ -2.5325876, 49.461553 ], [ -2.5337522, 49.4593512 ], [ -2.5287447, 49.4589588 ], [ -2.5295483, 49.4617441 ], [ -2.5280776, 49.4582272 ], [ -2.5263154, 49.4562263 ], [ -2.5290548, 49.4579626 ], [ -2.5287925, 49.4565639 ], [ -2.5293374, 49.4564032 ], [ -2.5302701, 49.4579898 ], [ -2.5304908, 49.4573573 ], [ -2.5309177, 49.4581377 ], [ -2.5313742, 49.4573819 ], [ -2.5326198, 49.4574202 ], [ -2.5326016, 49.4581602 ], [ -2.5343971, 49.4581442 ], [ -2.5353054, 49.4564157 ], [ -2.533659, 49.457626 ], [ -2.5343798, 49.4563549 ], [ -2.5334619, 49.4563022 ], [ -2.5335362, 49.4556977 ], [ -2.5354347, 49.4561702 ], [ -2.5357215, 49.4547133 ], [ -2.5341544, 49.4546136 ], [ -2.5337703, 49.4554504 ], [ -2.5329392, 49.4543594 ], [ -2.5351166, 49.4543245 ], [ -2.5352858, 49.4527842 ], [ -2.5334171, 49.4528405 ], [ -2.5333864, 49.4539738 ], [ -2.5332877, 49.4528721 ], [ -2.5309992, 49.4532191 ], [ -2.5316531, 49.4543434 ], [ -2.5326432, 49.4540586 ], [ -2.5318136, 49.4546572 ], [ -2.531122, 49.4538433 ], [ -2.5287838, 49.4541728 ], [ -2.5283734, 49.4534664 ], [ -2.5241732, 49.4550681 ], [ -2.5261515, 49.4540385 ], [ -2.5258086, 49.4520465 ], [ -2.5278444, 49.4534515 ], [ -2.5356422, 49.452295 ], [ -2.5353808, 49.4502912 ], [ -2.5321757, 49.4496161 ], [ -2.5324951, 49.449214 ], [ -2.5294928, 49.4477521 ], [ -2.5305237, 49.4466896 ], [ -2.5294888, 49.4457538 ], [ -2.5329643, 49.4457928 ], [ -2.5334637, 49.4446448 ], [ -2.5329926, 49.4420703 ], [ -2.5343554, 49.4388224 ], [ -2.534117, 49.437307 ], [ -2.5333184, 49.4369305 ], [ -2.5336791, 49.4358553 ], [ -2.5354607, 49.4364918 ], [ -2.5371188, 49.4346555 ], [ -2.533698, 49.4329635 ], [ -2.533184, 49.4301782 ], [ -2.531424, 49.4298746 ], [ -2.532698, 49.4288329 ], [ -2.530691, 49.4272772 ], [ -2.5301167, 49.4276411 ], [ -2.5303265, 49.4255826 ], [ -2.5291231, 49.424641 ], [ -2.5294058, 49.4239056 ], [ -2.5280182, 49.4239836 ], [ -2.5290075, 49.4236744 ], [ -2.5280637, 49.4215749 ], [ -2.5294135, 49.4230163 ], [ -2.5312569, 49.4231544 ], [ -2.5306821, 49.4213999 ], [ -2.5324161, 49.4206148 ], [ -2.5315794, 49.4190991 ], [ -2.5330694, 49.4195518 ], [ -2.5331936, 49.4204907 ], [ -2.5338701, 49.4199329 ], [ -2.5346705, 49.4205345 ], [ -2.5345621, 49.4198995 ], [ -2.5359835, 49.4191343 ], [ -2.5372259, 49.4192055 ], [ -2.5374026, 49.4180757 ], [ -2.5394307, 49.4178133 ], [ -2.539206, 49.418485 ], [ -2.5397581, 49.4189017 ], [ -2.5385377, 49.4193952 ], [ -2.5388658, 49.4200479 ], [ -2.5412295, 49.4196944 ], [ -2.5402828, 49.4208339 ], [ -2.5403421, 49.4230286 ], [ -2.5378885, 49.425771 ], [ -2.5400363, 49.4258772 ], [ -2.5413734, 49.4250476 ], [ -2.5426275, 49.4259996 ], [ -2.5446831, 49.4256427 ], [ -2.5462111, 49.4262065 ], [ -2.5464099, 49.427568 ], [ -2.547842, 49.4267725 ], [ -2.5471636, 49.4255691 ], [ -2.5486025, 49.4251916 ], [ -2.5484829, 49.4244823 ], [ -2.5500896, 49.4232626 ], [ -2.5527206, 49.4243652 ], [ -2.5523975, 49.4227376 ], [ -2.5526284, 49.4217716 ], [ -2.5526078, 49.4224937 ], [ -2.5543394, 49.4218408 ], [ -2.5580971, 49.4233582 ], [ -2.5575627, 49.4222451 ], [ -2.5580863, 49.4221104 ], [ -2.5558661, 49.4205124 ], [ -2.5554413, 49.4198683 ], [ -2.5559655, 49.420421 ], [ -2.5576881, 49.4187459 ], [ -2.559539, 49.4198906 ], [ -2.5594396, 49.417927 ], [ -2.5616221, 49.4175481 ], [ -2.5606025, 49.4169583 ], [ -2.5618071, 49.4169931 ], [ -2.5631981, 49.4155331 ], [ -2.5630304, 49.416886 ], [ -2.5642088, 49.4174411 ], [ -2.5636778, 49.4180117 ], [ -2.5669087, 49.4196476 ], [ -2.5673191, 49.421534 ], [ -2.5663946, 49.4220172 ], [ -2.5666793, 49.4229084 ], [ -2.5691698, 49.4226563 ], [ -2.5704841, 49.4237898 ], [ -2.5696466, 49.424212 ], [ -2.5704084, 49.424945 ], [ -2.5717419, 49.4233187 ], [ -2.5745527, 49.4244072 ], [ -2.5748971, 49.4237362 ], [ -2.5766365, 49.4236923 ], [ -2.578437, 49.4253772 ], [ -2.5782028, 49.4242934 ], [ -2.5791129, 49.422783 ], [ -2.5795947, 49.424955 ], [ -2.5817505, 49.4257439 ], [ -2.5825339, 49.4252879 ], [ -2.5815946, 49.4235814 ], [ -2.5835919, 49.4237745 ], [ -2.5824801, 49.4218898 ], [ -2.5832758, 49.4206144 ], [ -2.5844051, 49.421806 ], [ -2.5857033, 49.4211836 ], [ -2.585168, 49.4203304 ], [ -2.5862654, 49.4199778 ], [ -2.5919961, 49.4205437 ], [ -2.5916165, 49.4194085 ], [ -2.5923712, 49.4194071 ], [ -2.5911583, 49.4188239 ], [ -2.5915787, 49.4179884 ], [ -2.5905749, 49.4171656 ], [ -2.5915251, 49.417096 ], [ -2.5915318, 49.4164212 ], [ -2.5929036, 49.417688 ], [ -2.5936464, 49.4173398 ], [ -2.593567, 49.4187238 ], [ -2.6008066, 49.4187894 ], [ -2.6015628, 49.4179927 ], [ -2.6027606, 49.4187894 ], [ -2.602269, 49.41936 ], [ -2.6028275, 49.4198124 ], [ -2.6051228, 49.4188895 ], [ -2.6078865, 49.4204131 ], [ -2.6103156, 49.4197645 ], [ -2.6101817, 49.4189504 ], [ -2.6114197, 49.4194598 ], [ -2.6106903, 49.4186893 ], [ -2.6116325, 49.4184982 ], [ -2.6116757, 49.4177133 ], [ -2.6139369, 49.4182051 ], [ -2.6136079, 49.4202694 ], [ -2.6169916, 49.4196118 ], [ -2.6168199, 49.41892 ], [ -2.6181984, 49.4197558 ], [ -2.6190751, 49.4188111 ], [ -2.6226618, 49.4208614 ], [ -2.6272925, 49.4206656 ], [ -2.6276873, 49.4211574 ], [ -2.6266758, 49.4213416 ], [ -2.6278415, 49.4224626 ], [ -2.6290469, 49.4228642 ], [ -2.6306608, 49.4222087 ], [ -2.6335739, 49.4238175 ], [ -2.633873, 49.423181 ], [ -2.6381801, 49.4227535 ], [ -2.6399255, 49.4245509 ], [ -2.643076, 49.4245892 ], [ -2.643053, 49.4255149 ], [ -2.6444483, 49.42642 ], [ -2.6467547, 49.4251655 ], [ -2.6465396, 49.4262838 ], [ -2.6485047, 49.426216 ], [ -2.6500686, 49.4255772 ], [ -2.6498128, 49.425008 ], [ -2.651159, 49.424004 ], [ -2.6527594, 49.4250135 ], [ -2.6569921, 49.423524 ], [ -2.6592697, 49.4245034 ], [ -2.6618464, 49.4231311 ], [ -2.6632349, 49.425253 ], [ -2.6630091, 49.4239744 ], [ -2.6637953, 49.4231963 ], [ -2.6650564, 49.4253251 ], [ -2.6665891, 49.4252802 ], [ -2.6669413, 49.4239338 ], [ -2.66864, 49.425209 ], [ -2.6687177, 49.4267419 ], [ -2.6704058, 49.426418 ], [ -2.67114, 49.4276299 ], [ -2.6721296, 49.4272536 ], [ -2.6729485, 49.4293357 ], [ -2.6745493, 49.4297153 ], [ -2.6743321, 49.431698 ], [ -2.6751703, 49.4326642 ], [ -2.6739473, 49.4359847 ] ] ], [ [ [ -2.4646641, 49.4634339 ], [ -2.4636129, 49.462207 ], [ -2.4657432, 49.4626322 ], [ -2.4646641, 49.4634339 ] ] ], [ [ [ -2.4408144, 49.4654827 ], [ -2.4408854, 49.4659244 ], [ -2.4404925, 49.4657023 ], [ -2.4408144, 49.4654827 ] ] ], [ [ [ -2.636569, 49.4682136 ], [ -2.63628, 49.4688342 ], [ -2.6356431, 49.4684815 ], [ -2.6356125, 49.4682821 ], [ -2.636569, 49.4682136 ] ] ], [ [ [ -2.4409285, 49.4688022 ], [ -2.4411787, 49.4693647 ], [ -2.4404673, 49.4688119 ], [ -2.4409285, 49.4688022 ] ] ], [ [ [ -2.4886583, 49.470919 ], [ -2.4879508, 49.471531 ], [ -2.4877772, 49.471134 ], [ -2.4886583, 49.470919 ] ] ], [ [ [ -2.440293, 49.4711024 ], [ -2.4402713, 49.4716495 ], [ -2.4397981, 49.4715763 ], [ -2.440293, 49.4711024 ] ] ], [ [ [ -2.4562946, 49.4728849 ], [ -2.4564469, 49.4722175 ], [ -2.4569054, 49.4727345 ], [ -2.4562946, 49.4728849 ] ] ], [ [ [ -2.4579404, 49.4796674 ], [ -2.4481007, 49.4828877 ], [ -2.4484039, 49.4773617 ], [ -2.4445263, 49.4749277 ], [ -2.4440592, 49.4744294 ], [ -2.4448968, 49.4734142 ], [ -2.440916, 49.4702374 ], [ -2.4441673, 49.4682828 ], [ -2.4431663, 49.4668342 ], [ -2.4448679, 49.4668292 ], [ -2.4444654, 49.4654606 ], [ -2.4453936, 49.4642472 ], [ -2.4463523, 49.4648235 ], [ -2.4507199, 49.4629095 ], [ -2.4520413, 49.4630266 ], [ -2.4515582, 49.4636523 ], [ -2.4533776, 49.4658291 ], [ -2.4528159, 49.46661 ], [ -2.4543496, 49.4701684 ], [ -2.4527424, 49.4697363 ], [ -2.4521369, 49.471928 ], [ -2.4579404, 49.4796674 ] ] ], [ [ [ -2.4417544, 49.4753208 ], [ -2.4417303, 49.4746567 ], [ -2.4429721, 49.4752354 ], [ -2.4417544, 49.4753208 ] ] ], [ [ [ -2.4682556, 49.476035 ], [ -2.4680545, 49.4754735 ], [ -2.4685784, 49.4757083 ], [ -2.4682556, 49.476035 ] ] ], [ [ [ -2.4708053, 49.4767508 ], [ -2.4701244, 49.478251 ], [ -2.4697534, 49.4772863 ], [ -2.4708053, 49.4767508 ] ] ], [ [ [ -2.4612754, 49.4786111 ], [ -2.4612407, 49.4774102 ], [ -2.4628415, 49.4782416 ], [ -2.4623555, 49.478637 ], [ -2.4612754, 49.4786111 ] ] ], [ [ [ -2.4713254, 49.4787084 ], [ -2.4708203, 49.479609 ], [ -2.4706852, 49.4794656 ], [ -2.4713254, 49.4787084 ] ] ], [ [ [ -2.466017, 49.4806725 ], [ -2.4662114, 49.4804849 ], [ -2.466186, 49.4806321 ], [ -2.466017, 49.4806725 ] ] ], [ [ [ -2.470749, 49.4813609 ], [ -2.4700296, 49.4818667 ], [ -2.4686767, 49.4804057 ], [ -2.470749, 49.4813609 ] ] ], [ [ [ -2.5033379, 49.4895279 ], [ -2.5021666, 49.4891736 ], [ -2.5021403, 49.4888848 ], [ -2.5031121, 49.4888902 ], [ -2.5033379, 49.4895279 ] ] ], [ [ [ -2.5047986, 49.4894549 ], [ -2.5038703, 49.4894749 ], [ -2.5047819, 49.4892017 ], [ -2.5047986, 49.4894549 ] ] ], [ [ [ -2.5019445, 49.4902044 ], [ -2.5015551, 49.4904644 ], [ -2.5015505, 49.4902034 ], [ -2.5019445, 49.4902044 ] ] ], [ [ [ -2.4298228, 49.4904442 ], [ -2.4309264, 49.4906426 ], [ -2.4311645, 49.4909305 ], [ -2.4300189, 49.4911509 ], [ -2.4298228, 49.4904442 ] ] ], [ [ [ -2.4374184, 49.4925332 ], [ -2.4366697, 49.4920768 ], [ -2.4374637, 49.4919378 ], [ -2.4374184, 49.4925332 ] ] ], [ [ [ -2.4984801, 49.4954821 ], [ -2.4978417, 49.4945788 ], [ -2.4996651, 49.4950784 ], [ -2.4995272, 49.495453 ], [ -2.4984801, 49.4954821 ] ] ], [ [ [ -2.4989068, 49.4990563 ], [ -2.4990519, 49.4999426 ], [ -2.4980702, 49.4998624 ], [ -2.4982902, 49.4992153 ], [ -2.4989068, 49.4990563 ] ] ], [ [ [ -2.4280622, 49.5000211 ], [ -2.4292269, 49.499831 ], [ -2.4292508, 49.4999884 ], [ -2.4280622, 49.5000211 ] ] ], [ [ [ -2.4984565, 49.5007961 ], [ -2.499127, 49.5002492 ], [ -2.4997064, 49.5005766 ], [ -2.4991989, 49.5013685 ], [ -2.4984565, 49.5007961 ] ] ], [ [ [ -2.4952754, 49.5003502 ], [ -2.4956831, 49.5007787 ], [ -2.4954524, 49.5016218 ], [ -2.4949267, 49.5011724 ], [ -2.4952754, 49.5003502 ] ] ], [ [ [ -2.4251993, 49.5060165 ], [ -2.4253441, 49.5064259 ], [ -2.4243611, 49.505875 ], [ -2.4251993, 49.5060165 ] ] ], [ [ [ -2.4109535, 49.5097457 ], [ -2.4095525, 49.509863 ], [ -2.4089659, 49.5093916 ], [ -2.4109535, 49.5097457 ] ] ], [ [ [ -2.3848173, 49.7199411 ], [ -2.3849218, 49.7200938 ], [ -2.3847237, 49.720016 ], [ -2.3848173, 49.7199411 ] ] ], [ [ [ -2.3814635, 49.7219996 ], [ -2.3810558, 49.722447 ], [ -2.3809432, 49.7221834 ], [ -2.3814635, 49.7219996 ] ] ], [ [ [ -2.2279911, 49.17515 ], [ -2.2276953, 49.1750082 ], [ -2.2280418, 49.1750266 ], [ -2.2279911, 49.17515 ] ] ], [ [ [ -2.2109818, 49.1769075 ], [ -2.211468, 49.1768677 ], [ -2.2109738, 49.177195 ], [ -2.2109818, 49.1769075 ] ] ], [ [ [ -2.2512696, 49.1796188 ], [ -2.2501573, 49.1805141 ], [ -2.2484464, 49.1794007 ], [ -2.2505276, 49.1791885 ], [ -2.2512696, 49.1796188 ] ] ], [ [ [ -2.2121078, 49.2873917 ], [ -2.2123735, 49.2870716 ], [ -2.2130851, 49.2875218 ], [ -2.2121078, 49.2873917 ] ] ], [ [ [ -2.2169314, 49.2889391 ], [ -2.2168663, 49.288785 ], [ -2.2169991, 49.2888585 ], [ -2.2169314, 49.2889391 ] ] ], [ [ [ -2.2137313, 49.2897084 ], [ -2.2138252, 49.2895915 ], [ -2.2138471, 49.2896596 ], [ -2.2137313, 49.2897084 ] ] ], [ [ [ -2.2122558, 49.2901952 ], [ -2.2121867, 49.2901084 ], [ -2.2122442, 49.2901488 ], [ -2.2122558, 49.2901952 ] ] ], [ [ [ -2.2135575, 49.2901 ], [ -2.2136031, 49.2902393 ], [ -2.2134789, 49.2901833 ], [ -2.2135575, 49.2901 ] ] ], [ [ [ -2.2131733, 49.290332 ], [ -2.2132253, 49.2902073 ], [ -2.2132575, 49.2903448 ], [ -2.2131733, 49.290332 ] ] ], [ [ [ -2.2129368, 49.2903797 ], [ -2.2127819, 49.2903349 ], [ -2.2129192, 49.2903523 ], [ -2.2129368, 49.2903797 ] ] ], [ [ [ -2.2127849, 49.29058 ], [ -2.2126669, 49.2906797 ], [ -2.2126105, 49.2905625 ], [ -2.2127849, 49.29058 ] ] ], [ [ [ -2.2152083, 49.2921859 ], [ -2.2153048, 49.2921999 ], [ -2.215272, 49.2922288 ], [ -2.2152083, 49.2921859 ] ] ], [ [ [ -2.2151694, 49.2922821 ], [ -2.2152123, 49.2923521 ], [ -2.2151493, 49.292311 ], [ -2.2151694, 49.2922821 ] ] ], [ [ [ -2.2147268, 49.2935359 ], [ -2.2146678, 49.2935184 ], [ -2.214696, 49.2934975 ], [ -2.2147268, 49.2935359 ] ] ], [ [ [ -2.2134033, 49.293607 ], [ -2.2134242, 49.2937191 ], [ -2.2133011, 49.2936867 ], [ -2.2134033, 49.293607 ] ] ], [ [ [ -2.2145786, 49.2939208 ], [ -2.2146014, 49.2939803 ], [ -2.2145169, 49.293951 ], [ -2.2145786, 49.2939208 ] ] ], [ [ [ -2.3662393, 49.4024153 ], [ -2.3668252, 49.4006868 ], [ -2.3684943, 49.400118 ], [ -2.3681775, 49.4018266 ], [ -2.3662393, 49.4024153 ] ] ], [ [ [ -2.3782993, 49.4081736 ], [ -2.3779285, 49.4076549 ], [ -2.378485, 49.4080254 ], [ -2.3782993, 49.4081736 ] ] ], [ [ [ -2.3831856, 49.4139198 ], [ -2.3792877, 49.4166235 ], [ -2.379398, 49.4161905 ], [ -2.3792191, 49.4161114 ], [ -2.3783831, 49.4176405 ], [ -2.3733418, 49.4181448 ], [ -2.373696, 49.4202564 ], [ -2.3728564, 49.4189234 ], [ -2.3704134, 49.4187877 ], [ -2.3675071, 49.4204193 ], [ -2.367676, 49.4215114 ], [ -2.369678, 49.4219661 ], [ -2.3694333, 49.4226462 ], [ -2.3683161, 49.422449 ], [ -2.3692369, 49.4236926 ], [ -2.3674102, 49.4250546 ], [ -2.3678709, 49.4259038 ], [ -2.3699346, 49.4250462 ], [ -2.3729712, 49.4256721 ], [ -2.3733993, 49.425156 ], [ -2.374089, 49.4260214 ], [ -2.3733817, 49.426249 ], [ -2.3734961, 49.4265983 ], [ -2.3771348, 49.4273549 ], [ -2.3765175, 49.427811 ], [ -2.3774113, 49.4285486 ], [ -2.3755807, 49.4283213 ], [ -2.374431, 49.4293122 ], [ -2.3762729, 49.4296667 ], [ -2.37656, 49.4309292 ], [ -2.3786748, 49.4317439 ], [ -2.3764116, 49.4323176 ], [ -2.376143, 49.4334186 ], [ -2.3748563, 49.4338713 ], [ -2.3749774, 49.434753 ], [ -2.3730567, 49.4347797 ], [ -2.3721576, 49.4340212 ], [ -2.3694491, 49.4348558 ], [ -2.3707324, 49.4360396 ], [ -2.3694758, 49.43728 ], [ -2.3711251, 49.4381633 ], [ -2.3687667, 49.4384688 ], [ -2.3689907, 49.4392102 ], [ -2.3676748, 49.4403349 ], [ -2.3657633, 49.440589 ], [ -2.3661487, 49.4416639 ], [ -2.3655927, 49.4418932 ], [ -2.3675083, 49.4427893 ], [ -2.3666949, 49.4430018 ], [ -2.3667962, 49.4438636 ], [ -2.3679166, 49.4441887 ], [ -2.3670262, 49.44591 ], [ -2.3661408, 49.4458322 ], [ -2.3667831, 49.4464296 ], [ -2.3656339, 49.4468327 ], [ -2.3671369, 49.4470688 ], [ -2.3659766, 49.447661 ], [ -2.3673633, 49.4478333 ], [ -2.3676864, 49.4491411 ], [ -2.3647911, 49.4489024 ], [ -2.3643219, 49.4471466 ], [ -2.3628985, 49.446917 ], [ -2.3613788, 49.4477495 ], [ -2.3625782, 49.4463775 ], [ -2.3618794, 49.4464124 ], [ -2.3624231, 49.4454114 ], [ -2.3610151, 49.444777 ], [ -2.3597255, 49.4452716 ], [ -2.3590619, 49.4445883 ], [ -2.3576565, 49.4447905 ], [ -2.3576044, 49.4441299 ], [ -2.3573123, 49.4448869 ], [ -2.3560028, 49.4441317 ], [ -2.3541752, 49.4443706 ], [ -2.3532243, 49.4425581 ], [ -2.3542495, 49.441686 ], [ -2.3534976, 49.4417279 ], [ -2.352304, 49.4377726 ], [ -2.3497485, 49.4374165 ], [ -2.3491594, 49.4381618 ], [ -2.3467406, 49.4368418 ], [ -2.3449712, 49.4369586 ], [ -2.3447841, 49.4354723 ], [ -2.3440305, 49.4351247 ], [ -2.3449486, 49.4351012 ], [ -2.3442695, 49.4342036 ], [ -2.3457899, 49.4329643 ], [ -2.34403, 49.432735 ], [ -2.3444597, 49.4318512 ], [ -2.3426119, 49.4327096 ], [ -2.3428859, 49.4313447 ], [ -2.3420421, 49.4304629 ], [ -2.3432094, 49.4298969 ], [ -2.3426862, 49.4303043 ], [ -2.3437651, 49.4305444 ], [ -2.3433772, 49.4298453 ], [ -2.3442238, 49.4300355 ], [ -2.3438833, 49.4291417 ], [ -2.3448541, 49.4288074 ], [ -2.3430635, 49.4281105 ], [ -2.3443251, 49.4283513 ], [ -2.3480595, 49.4251056 ], [ -2.3468349, 49.4244272 ], [ -2.3468341, 49.4235719 ], [ -2.3489039, 49.4229369 ], [ -2.3480222, 49.4238496 ], [ -2.349138, 49.4245537 ], [ -2.3496835, 49.4263629 ], [ -2.3512529, 49.4261919 ], [ -2.3529989, 49.4253928 ], [ -2.3531314, 49.4236975 ], [ -2.353847, 49.4237485 ], [ -2.35447, 49.4225327 ], [ -2.3557395, 49.4223321 ], [ -2.3560455, 49.4240463 ], [ -2.3590826, 49.4240666 ], [ -2.3602037, 49.4234318 ], [ -2.3599374, 49.4218767 ], [ -2.363641, 49.4202225 ], [ -2.3655907, 49.4202059 ], [ -2.3652997, 49.4194752 ], [ -2.3666382, 49.4179467 ], [ -2.3658489, 49.4164346 ], [ -2.3676789, 49.4160828 ], [ -2.3675869, 49.4153922 ], [ -2.368915, 49.4146648 ], [ -2.3686856, 49.4106935 ], [ -2.3707707, 49.4100804 ], [ -2.3710788, 49.4090603 ], [ -2.3738282, 49.4087191 ], [ -2.3731704, 49.4080172 ], [ -2.3755286, 49.407425 ], [ -2.3749599, 49.4082941 ], [ -2.3767476, 49.4075707 ], [ -2.3784823, 49.4083044 ], [ -2.3766333, 49.4090163 ], [ -2.3784126, 49.4094528 ], [ -2.3758488, 49.4110374 ], [ -2.3802895, 49.4107778 ], [ -2.3811441, 49.4127464 ], [ -2.3826207, 49.411863 ], [ -2.3831856, 49.4139198 ] ] ], [ [ [ -2.338017, 49.4297324 ], [ -2.338784, 49.4300467 ], [ -2.3395019, 49.4292879 ], [ -2.3387541, 49.4283171 ], [ -2.3402545, 49.4296579 ], [ -2.3383174, 49.430497 ], [ -2.338017, 49.4297324 ] ] ], [ [ [ -2.3428646, 49.4378051 ], [ -2.3420451, 49.438367 ], [ -2.3413714, 49.4374132 ], [ -2.3430671, 49.4376366 ], [ -2.3433514, 49.4382322 ], [ -2.3428646, 49.4378051 ] ] ], [ [ [ -2.3434555, 49.4439545 ], [ -2.3429584, 49.4422797 ], [ -2.3440791, 49.441772 ], [ -2.3435383, 49.4422998 ], [ -2.3434555, 49.4439545 ] ] ], [ [ [ -2.3694608, 49.4497955 ], [ -2.3689915, 49.4497903 ], [ -2.3689378, 49.4496019 ], [ -2.3694608, 49.4497955 ] ] ], [ [ [ -2.3671114, 49.4502221 ], [ -2.367091, 49.4495195 ], [ -2.3679011, 49.4494709 ], [ -2.3693338, 49.4506331 ], [ -2.3671114, 49.4502221 ] ] ], [ [ [ -2.370008, 49.4503082 ], [ -2.3696459, 49.4504372 ], [ -2.3695896, 49.450343 ], [ -2.370008, 49.4503082 ] ] ], [ [ [ -2.3702714, 49.4507607 ], [ -2.370354, 49.4507772 ], [ -2.3702231, 49.4507955 ], [ -2.3702714, 49.4507607 ] ] ], [ [ [ -2.3700778, 49.4509673 ], [ -2.3702092, 49.4508679 ], [ -2.3702762, 49.450983 ], [ -2.3700778, 49.4509673 ] ] ], [ [ [ -2.369603, 49.4521983 ], [ -2.3688519, 49.4518984 ], [ -2.3684577, 49.4509168 ], [ -2.3694715, 49.4508296 ], [ -2.369603, 49.4521983 ] ] ], [ [ [ -2.221164, 49.699923 ], [ -2.2201938, 49.7005024 ], [ -2.2196901, 49.6999731 ], [ -2.221164, 49.699923 ] ] ], [ [ [ -2.222128, 49.7005899 ], [ -2.2215661, 49.7010415 ], [ -2.2209063, 49.7008775 ], [ -2.2214298, 49.7002244 ], [ -2.222128, 49.7005899 ] ] ], [ [ [ -2.2336505, 49.713666 ], [ -2.231615, 49.7138396 ], [ -2.2327854, 49.7129326 ], [ -2.2336505, 49.713666 ] ] ], [ [ [ -2.3717056, 49.721886 ], [ -2.3719258, 49.7217083 ], [ -2.3716844, 49.7219372 ], [ -2.3717056, 49.721886 ] ] ], [ [ [ -2.3719846, 49.7219138 ], [ -2.3723228, 49.7217534 ], [ -2.3719634, 49.7219545 ], [ -2.3719846, 49.7219138 ] ] ], [ [ [ -2.378803, 49.7222875 ], [ -2.3760243, 49.7228562 ], [ -2.3746507, 49.7217091 ], [ -2.3771881, 49.7208629 ], [ -2.3761906, 49.7216008 ], [ -2.3780949, 49.7215245 ], [ -2.378803, 49.7222875 ] ] ], [ [ [ -2.3707186, 49.7221981 ], [ -2.3709656, 49.7218297 ], [ -2.3713572, 49.7220343 ], [ -2.3707186, 49.7221981 ] ] ], [ [ [ -2.374592, 49.7223776 ], [ -2.3741035, 49.7217993 ], [ -2.3743988, 49.7216701 ], [ -2.374592, 49.7223776 ] ] ], [ [ [ -2.3735405, 49.7225233 ], [ -2.3735349, 49.721945 ], [ -2.3740123, 49.7223126 ], [ -2.3735405, 49.7225233 ] ] ], [ [ [ -2.3698365, 49.7221083 ], [ -2.3698687, 49.7225661 ], [ -2.3688923, 49.7224135 ], [ -2.3698365, 49.7221083 ] ] ], [ [ [ -2.3714806, 49.7224643 ], [ -2.3715342, 49.7226447 ], [ -2.3714109, 49.7225163 ], [ -2.3714806, 49.7224643 ] ] ], [ [ [ -2.3724084, 49.7224999 ], [ -2.3727466, 49.7224782 ], [ -2.3726069, 49.7227288 ], [ -2.3724084, 49.7224999 ] ] ], [ [ [ -2.3712821, 49.7228007 ], [ -2.3711909, 49.7229082 ], [ -2.3711156, 49.7227947 ], [ -2.3712821, 49.7228007 ] ] ], [ [ [ -2.2910097, 49.7231784 ], [ -2.290269, 49.7231584 ], [ -2.2906556, 49.7227876 ], [ -2.2910097, 49.7231784 ] ] ], [ [ [ -2.2604128, 49.729719 ], [ -2.2584875, 49.7305612 ], [ -2.25879, 49.730018 ], [ -2.2580826, 49.7298193 ], [ -2.2605984, 49.7284468 ], [ -2.2604128, 49.729719 ] ] ], [ [ [ -2.2563485, 49.7313071 ], [ -2.2521141, 49.7313928 ], [ -2.2486454, 49.7332062 ], [ -2.2469028, 49.7320493 ], [ -2.2483566, 49.7307588 ], [ -2.2542851, 49.7287984 ], [ -2.2575469, 49.7298727 ], [ -2.2563485, 49.7313071 ] ] ], [ [ [ -2.2786485, 49.7342242 ], [ -2.2764714, 49.7350082 ], [ -2.2761346, 49.7349837 ], [ -2.276802, 49.734245 ], [ -2.2786485, 49.7342242 ] ] ], [ [ [ -2.2461568, 49.7377693 ], [ -2.2462734, 49.7373225 ], [ -2.2464303, 49.7375596 ], [ -2.2461568, 49.7377693 ] ] ], [ [ [ -2.2103654, 49.1754831 ], [ -2.2105568, 49.1760506 ], [ -2.2103038, 49.1760042 ], [ -2.2103654, 49.1754831 ] ] ], [ [ [ -2.2041953, 49.1781712 ], [ -2.2041259, 49.1782991 ], [ -2.20401, 49.1782223 ], [ -2.2041953, 49.1781712 ] ] ], [ [ [ -2.2066217, 49.1785497 ], [ -2.206792, 49.1784908 ], [ -2.2067558, 49.1785772 ], [ -2.2066217, 49.1785497 ] ] ], [ [ [ -2.2089075, 49.2870596 ], [ -2.2090501, 49.2874486 ], [ -2.2088142, 49.28716 ], [ -2.2089075, 49.2870596 ] ] ], [ [ [ -2.2098427, 49.2878569 ], [ -2.2097773, 49.2878773 ], [ -2.2098272, 49.2877231 ], [ -2.2098427, 49.2878569 ] ] ], [ [ [ -2.2034822, 49.2885952 ], [ -2.2034775, 49.2887394 ], [ -2.2033557, 49.28873 ], [ -2.2034822, 49.2885952 ] ] ], [ [ [ -2.2054047, 49.2887431 ], [ -2.2057847, 49.2887213 ], [ -2.2054039, 49.2889445 ], [ -2.2054047, 49.2887431 ] ] ], [ [ [ -2.2028455, 49.2888234 ], [ -2.2034173, 49.2890242 ], [ -2.2029503, 49.2892355 ], [ -2.2028455, 49.2888234 ] ] ], [ [ [ -2.2105389, 49.289523 ], [ -2.2103146, 49.2894531 ], [ -2.2103884, 49.2893204 ], [ -2.2105389, 49.289523 ] ] ], [ [ [ -2.2043175, 49.2896092 ], [ -2.2045462, 49.2895059 ], [ -2.2045156, 49.2896289 ], [ -2.2043175, 49.2896092 ] ] ], [ [ [ -2.2107814, 49.2896917 ], [ -2.2105037, 49.2896371 ], [ -2.2108355, 49.2896323 ], [ -2.2107814, 49.2896917 ] ] ], [ [ [ -2.2108122, 49.2899752 ], [ -2.2108947, 49.2897856 ], [ -2.2110748, 49.2899887 ], [ -2.2108122, 49.2899752 ] ] ], [ [ [ -2.2043036, 49.2908085 ], [ -2.2045675, 49.29039 ], [ -2.2041802, 49.291297 ], [ -2.2043036, 49.2908085 ] ] ], [ [ [ -2.204463, 49.2909373 ], [ -2.2049112, 49.2907486 ], [ -2.2050834, 49.2907871 ], [ -2.204463, 49.2909373 ] ] ], [ [ [ -2.2032997, 49.2923702 ], [ -2.2024041, 49.292332 ], [ -2.2020253, 49.2931305 ], [ -2.2004282, 49.2918652 ], [ -2.1974241, 49.2909764 ], [ -2.200521, 49.2913884 ], [ -2.2001223, 49.2904901 ], [ -2.2009835, 49.2912112 ], [ -2.2019719, 49.2892273 ], [ -2.2029797, 49.2896904 ], [ -2.2026027, 49.2903198 ], [ -2.2043571, 49.2904249 ], [ -2.2032997, 49.2923702 ] ] ], [ [ [ -2.2044795, 49.2911444 ], [ -2.2046638, 49.2912548 ], [ -2.2043939, 49.291268 ], [ -2.2044795, 49.2911444 ] ] ], [ [ [ -2.2041709, 49.2922976 ], [ -2.2040796, 49.2924412 ], [ -2.2040149, 49.2924102 ], [ -2.2041709, 49.2922976 ] ] ], [ [ [ -2.2000538, 49.2921171 ], [ -2.1999704, 49.2927311 ], [ -2.199642, 49.2927202 ], [ -2.1995973, 49.2924405 ], [ -2.2000538, 49.2921171 ] ] ], [ [ [ -2.2028308, 49.292857 ], [ -2.2027182, 49.2927148 ], [ -2.2028381, 49.2927864 ], [ -2.2028308, 49.292857 ] ] ], [ [ [ -2.2007659, 49.292871 ], [ -2.2007597, 49.2930497 ], [ -2.2005183, 49.2929633 ], [ -2.2007659, 49.292871 ] ] ], [ [ [ -2.2023457, 49.2930295 ], [ -2.2026494, 49.2932017 ], [ -2.2022903, 49.293088 ], [ -2.2023457, 49.2930295 ] ] ], [ [ [ -2.2011763, 49.2930644 ], [ -2.2012177, 49.2932107 ], [ -2.2011145, 49.2931261 ], [ -2.2011763, 49.2930644 ] ] ], [ [ [ -2.2016986, 49.2932776 ], [ -2.201578, 49.2932251 ], [ -2.2016252, 49.2931896 ], [ -2.2016986, 49.2932776 ] ] ], [ [ [ -2.2082684, 49.29325 ], [ -2.2081664, 49.2933986 ], [ -2.2079729, 49.2933806 ], [ -2.2082684, 49.29325 ] ] ], [ [ [ -2.207611, 49.2935117 ], [ -2.2077852, 49.2934472 ], [ -2.2078473, 49.2934925 ], [ -2.207611, 49.2935117 ] ] ], [ [ [ -2.2085685, 49.2935591 ], [ -2.208657, 49.2935889 ], [ -2.2085416, 49.2936361 ], [ -2.2085685, 49.2935591 ] ] ], [ [ [ -2.2073722, 49.2938512 ], [ -2.2073749, 49.2937393 ], [ -2.2074071, 49.2937848 ], [ -2.2073722, 49.2938512 ] ] ], [ [ [ -2.207391, 49.2936973 ], [ -2.2080374, 49.2937445 ], [ -2.2083351, 49.2940227 ], [ -2.207391, 49.2936973 ] ] ], [ [ [ -2.2071308, 49.2938145 ], [ -2.2072086, 49.2939317 ], [ -2.207045, 49.2938547 ], [ -2.2071308, 49.2938145 ] ] ], [ [ [ -2.2075787, 49.2939072 ], [ -2.2075787, 49.2940262 ], [ -2.2074044, 49.2939982 ], [ -2.2075787, 49.2939072 ] ] ], [ [ [ -2.2077611, 49.2941679 ], [ -2.2077799, 49.2939754 ], [ -2.2079247, 49.2940227 ], [ -2.2077611, 49.2941679 ] ] ], [ [ [ -2.2069816, 49.2941307 ], [ -2.2069236, 49.2941878 ], [ -2.2069055, 49.2941731 ], [ -2.2069816, 49.2941307 ] ] ], [ [ [ -2.2102737, 49.2940994 ], [ -2.2102271, 49.2942438 ], [ -2.2101932, 49.2941712 ], [ -2.2102737, 49.2940994 ] ] ], [ [ [ -2.2076511, 49.2945719 ], [ -2.2074258, 49.2941101 ], [ -2.2079301, 49.294348 ], [ -2.2076511, 49.2945719 ] ] ], [ [ [ -2.1991888, 49.2945387 ], [ -2.1990627, 49.2945903 ], [ -2.1990627, 49.2945378 ], [ -2.1991888, 49.2945387 ] ] ], [ [ [ -2.2107483, 49.2949985 ], [ -2.2105728, 49.2950498 ], [ -2.2106527, 49.2949432 ], [ -2.2107483, 49.2949985 ] ] ], [ [ [ -2.2109077, 49.2949276 ], [ -2.2111332, 49.2950714 ], [ -2.2108002, 49.2950125 ], [ -2.2109077, 49.2949276 ] ] ], [ [ [ -2.2093554, 49.2954982 ], [ -2.2093774, 49.2944671 ], [ -2.2101954, 49.2948262 ], [ -2.2102132, 49.2953699 ], [ -2.2093554, 49.2954982 ] ] ], [ [ [ -2.2112158, 49.2952908 ], [ -2.2111811, 49.295143 ], [ -2.211303, 49.2952099 ], [ -2.2112158, 49.2952908 ] ] ], [ [ [ -2.2107651, 49.2951453 ], [ -2.2106635, 49.2953047 ], [ -2.2105738, 49.29523 ], [ -2.2107651, 49.2951453 ] ] ], [ [ [ -2.2105491, 49.2955578 ], [ -2.2107073, 49.2954141 ], [ -2.2107706, 49.2955332 ], [ -2.2105491, 49.2955578 ] ] ], [ [ [ -2.2104332, 49.2958284 ], [ -2.2104463, 49.2959984 ], [ -2.2103136, 49.2959004 ], [ -2.2104332, 49.2958284 ] ] ], [ [ [ -2.2048058, 49.2983144 ], [ -2.2048589, 49.2986824 ], [ -2.2045988, 49.2984609 ], [ -2.2048058, 49.2983144 ] ] ], [ [ [ -2.2061213, 49.2984265 ], [ -2.2061396, 49.2985747 ], [ -2.2060119, 49.2985033 ], [ -2.2061213, 49.2984265 ] ] ], [ [ [ -2.2069982, 49.2986439 ], [ -2.2069581, 49.2990842 ], [ -2.2066418, 49.2989398 ], [ -2.2069982, 49.2986439 ] ] ], [ [ [ -2.2083105, 49.6975887 ], [ -2.2107618, 49.6970247 ], [ -2.2110679, 49.6973232 ], [ -2.2083105, 49.6975887 ] ] ], [ [ [ -2.1457202, 48.9560772 ], [ -2.1456176, 48.9562498 ], [ -2.1455575, 48.9560953 ], [ -2.1457202, 48.9560772 ] ] ], [ [ [ -2.1467774, 48.9568864 ], [ -2.1468553, 48.9569697 ], [ -2.1467947, 48.9569981 ], [ -2.1467774, 48.9568864 ] ] ], [ [ [ -2.1441407, 48.9597464 ], [ -2.1441173, 48.9598654 ], [ -2.1440296, 48.9597848 ], [ -2.1441407, 48.9597464 ] ] ], [ [ [ -2.1448539, 48.9600765 ], [ -2.1448714, 48.9603375 ], [ -2.1447136, 48.9600765 ], [ -2.1448539, 48.9600765 ] ] ], [ [ [ -2.1444955, 48.9602047 ], [ -2.144544, 48.9602567 ], [ -2.1444779, 48.9602857 ], [ -2.1444955, 48.9602047 ] ] ], [ [ [ -2.1445704, 48.9605171 ], [ -2.1443457, 48.9607369 ], [ -2.1442268, 48.9606415 ], [ -2.1445704, 48.9605171 ] ] ], [ [ [ -2.1759447, 48.9615199 ], [ -2.1755612, 48.9620606 ], [ -2.1746171, 48.9615833 ], [ -2.1759447, 48.9615199 ] ] ], [ [ [ -2.1664215, 48.9631723 ], [ -2.1663864, 48.9630188 ], [ -2.1665735, 48.9630034 ], [ -2.1664215, 48.9631723 ] ] ], [ [ [ -2.1674445, 48.9630533 ], [ -2.1673978, 48.9633795 ], [ -2.167199, 48.9633296 ], [ -2.1674445, 48.9630533 ] ] ], [ [ [ -2.1736043, 48.9636634 ], [ -2.1733354, 48.9638466 ], [ -2.1733963, 48.9636301 ], [ -2.1736043, 48.9636634 ] ] ], [ [ [ -2.1721662, 48.9783198 ], [ -2.1727488, 48.9782927 ], [ -2.1729134, 48.9784757 ], [ -2.1727268, 48.9786086 ], [ -2.1721662, 48.9783198 ] ] ], [ [ [ -2.1748196, 48.9790343 ], [ -2.1747472, 48.9788072 ], [ -2.1750404, 48.9789968 ], [ -2.1748196, 48.9790343 ] ] ], [ [ [ -2.1738849, 48.9793811 ], [ -2.1744548, 48.9790364 ], [ -2.1745563, 48.9793274 ], [ -2.1738849, 48.9793811 ] ] ], [ [ [ -2.1709061, 48.9795393 ], [ -2.1706975, 48.979328 ], [ -2.1710715, 48.9794041 ], [ -2.1709061, 48.9795393 ] ] ], [ [ [ -2.1653518, 48.9823786 ], [ -2.1652173, 48.9828313 ], [ -2.1647146, 48.9825781 ], [ -2.1653518, 48.9823786 ] ] ], [ [ [ -2.1727362, 48.9995944 ], [ -2.1732957, 49.0000395 ], [ -2.1726833, 49.0002216 ], [ -2.1727362, 48.9995944 ] ] ], [ [ [ -2.1744098, 49.000972 ], [ -2.1741175, 49.0011944 ], [ -2.1734745, 49.001041 ], [ -2.1744098, 49.000972 ] ] ], [ [ [ -2.1708929, 49.0008817 ], [ -2.1708794, 49.0016151 ], [ -2.1702936, 49.0016416 ], [ -2.170105, 49.0014207 ], [ -2.1708929, 49.0008817 ] ] ], [ [ [ -2.1693567, 49.0021346 ], [ -2.1696395, 49.0025941 ], [ -2.1709997, 49.0030667 ], [ -2.169451, 49.0032081 ], [ -2.1693567, 49.0021346 ] ] ], [ [ [ -2.1786475, 49.0040103 ], [ -2.1792445, 49.0038348 ], [ -2.1796253, 49.0041588 ], [ -2.1786475, 49.0040103 ] ] ], [ [ [ -2.168033, 49.1650857 ], [ -2.1681395, 49.1653292 ], [ -2.1676027, 49.1652809 ], [ -2.168033, 49.1650857 ] ] ], [ [ [ -2.1723715, 49.1674959 ], [ -2.1722794, 49.1665949 ], [ -2.1730569, 49.1671772 ], [ -2.1723715, 49.1674959 ] ] ], [ [ [ -2.1771288, 49.1702579 ], [ -2.1773472, 49.1697522 ], [ -2.1780338, 49.1698431 ], [ -2.1780135, 49.1701711 ], [ -2.1771288, 49.1702579 ] ] ], [ [ [ -2.1932435, 49.1706388 ], [ -2.1930583, 49.170934 ], [ -2.1930772, 49.1706486 ], [ -2.1932435, 49.1706388 ] ] ], [ [ [ -2.1885896, 49.1735621 ], [ -2.1884726, 49.1737574 ], [ -2.1881832, 49.1736386 ], [ -2.1885896, 49.1735621 ] ] ], [ [ [ -2.1899103, 49.1736311 ], [ -2.1902318, 49.1736802 ], [ -2.1898254, 49.1738978 ], [ -2.1899103, 49.1736311 ] ] ], [ [ [ -2.1605517, 49.1855719 ], [ -2.1596839, 49.184405 ], [ -2.1609192, 49.1837398 ], [ -2.162572, 49.1847257 ], [ -2.1602533, 49.1847968 ], [ -2.1605517, 49.1855719 ] ] ], [ [ [ -2.1816745, 49.2495413 ], [ -2.1821281, 49.2484616 ], [ -2.1828333, 49.2487992 ], [ -2.1826622, 49.249072 ], [ -2.1816745, 49.2495413 ] ] ], [ [ [ -2.1985472, 49.2903998 ], [ -2.1983556, 49.2902199 ], [ -2.1986506, 49.2903383 ], [ -2.1985472, 49.2903998 ] ] ], [ [ [ -2.1984982, 49.2904644 ], [ -2.1988246, 49.290521 ], [ -2.1988657, 49.2906402 ], [ -2.1984622, 49.2906165 ], [ -2.1984982, 49.2904644 ] ] ], [ [ [ -2.1989635, 49.2904552 ], [ -2.1993131, 49.2908181 ], [ -2.1988791, 49.2905771 ], [ -2.1989635, 49.2904552 ] ] ], [ [ [ -2.1988441, 49.29409 ], [ -2.1987315, 49.2940472 ], [ -2.1988884, 49.294062 ], [ -2.1988441, 49.29409 ] ] ], [ [ [ -2.198208, 49.2944997 ], [ -2.1983496, 49.2943915 ], [ -2.1982974, 49.2945349 ], [ -2.198208, 49.2944997 ] ] ], [ [ [ -2.1957796, 49.294406 ], [ -2.1959379, 49.2945514 ], [ -2.1957354, 49.2945934 ], [ -2.1957796, 49.294406 ] ] ], [ [ [ -2.1983331, 49.2948203 ], [ -2.1985297, 49.294697 ], [ -2.1985989, 49.2948817 ], [ -2.1983331, 49.2948203 ] ] ], [ [ [ -2.1987209, 49.2957264 ], [ -2.1990876, 49.2955909 ], [ -2.1990939, 49.2956563 ], [ -2.1987209, 49.2957264 ] ] ], [ [ [ -2.1943702, 49.295876 ], [ -2.1942575, 49.2958498 ], [ -2.1942602, 49.2958025 ], [ -2.1943702, 49.295876 ] ] ], [ [ [ -2.196003, 49.2959009 ], [ -2.195714, 49.2959416 ], [ -2.1959346, 49.2957264 ], [ -2.196003, 49.2959009 ] ] ], [ [ [ -2.1986933, 49.295836 ], [ -2.1984673, 49.2960204 ], [ -2.1983163, 49.2959896 ], [ -2.1986933, 49.295836 ] ] ], [ [ [ -2.1942776, 49.2968669 ], [ -2.1944118, 49.2965013 ], [ -2.194503, 49.296608 ], [ -2.1942776, 49.2968669 ] ] ], [ [ [ -2.2325673, 49.7099394 ], [ -2.2287401, 49.7118962 ], [ -2.2283736, 49.7139531 ], [ -2.2252397, 49.7143063 ], [ -2.2222039, 49.7159465 ], [ -2.2208425, 49.7203986 ], [ -2.2112263, 49.7207878 ], [ -2.208613, 49.7213459 ], [ -2.2082372, 49.7219499 ], [ -2.20884, 49.7222488 ], [ -2.2078925, 49.7224774 ], [ -2.2061549, 49.7216521 ], [ -2.2064939, 49.7212503 ], [ -2.2048669, 49.7214095 ], [ -2.2038367, 49.7223587 ], [ -2.2061887, 49.7245422 ], [ -2.204973, 49.7242153 ], [ -2.2052677, 49.7257158 ], [ -2.2043584, 49.7254239 ], [ -2.1945927, 49.7304286 ], [ -2.202805, 49.7260394 ], [ -2.2033091, 49.7248414 ], [ -2.2020928, 49.7241364 ], [ -2.2030076, 49.7241549 ], [ -2.2028486, 49.723575 ], [ -2.2006136, 49.7241506 ], [ -2.1998945, 49.7256208 ], [ -2.2001344, 49.7238543 ], [ -2.198071, 49.7230865 ], [ -2.1993116, 49.7232703 ], [ -2.1985108, 49.7216823 ], [ -2.1934343, 49.7209056 ], [ -2.1895067, 49.7213144 ], [ -2.1861449, 49.7230617 ], [ -2.1856074, 49.724503 ], [ -2.188193, 49.7260861 ], [ -2.1884593, 49.727524 ], [ -2.1867019, 49.7270529 ], [ -2.1871214, 49.7278995 ], [ -2.1863957, 49.726966 ], [ -2.1864237, 49.7274654 ], [ -2.1860823, 49.7271701 ], [ -2.1857125, 49.7269993 ], [ -2.186169, 49.7280142 ], [ -2.1842807, 49.728684 ], [ -2.1855488, 49.7297816 ], [ -2.1849909, 49.7303308 ], [ -2.1821696, 49.7297859 ], [ -2.1817346, 49.7287098 ], [ -2.1793264, 49.7289343 ], [ -2.1785064, 49.7300509 ], [ -2.1799743, 49.730481 ], [ -2.1791549, 49.7309364 ], [ -2.1803582, 49.7316111 ], [ -2.1778601, 49.7304502 ], [ -2.177473, 49.730847 ], [ -2.1786499, 49.7323686 ], [ -2.1775718, 49.7328279 ], [ -2.1765111, 49.7320573 ], [ -2.1767622, 49.7312871 ], [ -2.1755176, 49.7316279 ], [ -2.1748621, 49.730977 ], [ -2.1757801, 49.7309792 ], [ -2.1757946, 49.7301768 ], [ -2.1732376, 49.7285642 ], [ -2.1715238, 49.7285462 ], [ -2.1697679, 49.7304312 ], [ -2.1691046, 49.7290212 ], [ -2.167309, 49.7302015 ], [ -2.1662953, 49.7295497 ], [ -2.161826, 49.729811 ], [ -2.1622034, 49.7290558 ], [ -2.1593221, 49.7292753 ], [ -2.159645, 49.72641 ], [ -2.160637, 49.726161 ], [ -2.1615106, 49.7243946 ], [ -2.1627609, 49.7246024 ], [ -2.1658551, 49.7217959 ], [ -2.1718634, 49.7223432 ], [ -2.1750939, 49.7214377 ], [ -2.1755677, 49.7198968 ], [ -2.1728009, 49.7179499 ], [ -2.1728533, 49.7165954 ], [ -2.175248, 49.715755 ], [ -2.175265, 49.71473 ], [ -2.1768484, 49.7139565 ], [ -2.1782705, 49.7141017 ], [ -2.1788751, 49.7149664 ], [ -2.1814306, 49.714755 ], [ -2.1811195, 49.7126854 ], [ -2.1868145, 49.7111086 ], [ -2.1862295, 49.7104427 ], [ -2.1881854, 49.7106827 ], [ -2.1874503, 49.7090703 ], [ -2.1899875, 49.7084543 ], [ -2.1922809, 49.7067334 ], [ -2.1939187, 49.7069722 ], [ -2.1982913, 49.7056349 ], [ -2.1995717, 49.7063611 ], [ -2.2019403, 49.706252 ], [ -2.2022902, 49.705527 ], [ -2.206273, 49.7047883 ], [ -2.207272, 49.703456 ], [ -2.2092689, 49.7034965 ], [ -2.2134369, 49.7013727 ], [ -2.2164741, 49.7014844 ], [ -2.2168649, 49.7021897 ], [ -2.217151, 49.701519 ], [ -2.2218581, 49.7013017 ], [ -2.222784, 49.7023651 ], [ -2.224378, 49.7019524 ], [ -2.2258718, 49.7029771 ], [ -2.2274652, 49.7025856 ], [ -2.2281829, 49.7012924 ], [ -2.23063, 49.7024983 ], [ -2.2322125, 49.7019849 ], [ -2.2312116, 49.7030401 ], [ -2.2327792, 49.7034557 ], [ -2.2320891, 49.7037924 ], [ -2.2325773, 49.7042018 ], [ -2.2339052, 49.7037963 ], [ -2.2331476, 49.7046423 ], [ -2.231172, 49.7048794 ], [ -2.232075, 49.7057317 ], [ -2.2343832, 49.7059639 ], [ -2.2339474, 49.7071291 ], [ -2.2317868, 49.707854 ], [ -2.2327892, 49.7093917 ], [ -2.2344302, 49.7094743 ], [ -2.2333203, 49.7098743 ], [ -2.232492, 49.7092753 ], [ -2.2320128, 49.7096427 ], [ -2.2325673, 49.7099394 ] ] ], [ [ [ -2.1685484, 49.7177704 ], [ -2.1671893, 49.7192218 ], [ -2.1665566, 49.7183407 ], [ -2.1685484, 49.7177704 ] ] ], [ [ [ -2.158903, 49.7254291 ], [ -2.157114, 49.7263122 ], [ -2.1563525, 49.7268656 ], [ -2.15779, 49.7252268 ], [ -2.158903, 49.7254291 ] ] ], [ [ [ -2.1662587, 49.7306676 ], [ -2.1668867, 49.7313045 ], [ -2.166197, 49.7314144 ], [ -2.1662587, 49.7306676 ] ] ], [ [ [ -2.1614986, 49.7317245 ], [ -2.162937, 49.730407 ], [ -2.1640011, 49.7308013 ], [ -2.1614986, 49.7317245 ] ] ], [ [ [ -2.1838848, 49.7313599 ], [ -2.1829172, 49.7319199 ], [ -2.1819694, 49.7312255 ], [ -2.1838848, 49.7313599 ] ] ], [ [ [ -2.061163, 48.9549273 ], [ -2.0613453, 48.9551383 ], [ -2.0609189, 48.9550653 ], [ -2.061163, 48.9549273 ] ] ], [ [ [ -2.1431114, 48.9573303 ], [ -2.1425203, 48.9574219 ], [ -2.1424439, 48.9572998 ], [ -2.1431114, 48.9573303 ] ] ], [ [ [ -2.1170524, 48.9588857 ], [ -2.1170307, 48.958336 ], [ -2.1175143, 48.9586109 ], [ -2.1170524, 48.9588857 ] ] ], [ [ [ -2.0657945, 48.958232 ], [ -2.0649898, 48.9594471 ], [ -2.0644292, 48.9585419 ], [ -2.0657945, 48.958232 ] ] ], [ [ [ -2.1441114, 48.9592705 ], [ -2.1439536, 48.9594125 ], [ -2.1439419, 48.9592244 ], [ -2.1441114, 48.9592705 ] ] ], [ [ [ -2.0670229, 48.960141 ], [ -2.0660305, 48.9596162 ], [ -2.0660359, 48.9589716 ], [ -2.0675111, 48.9593697 ], [ -2.0670229, 48.960141 ] ] ], [ [ [ -2.1428078, 48.9598923 ], [ -2.1428721, 48.9597081 ], [ -2.1430007, 48.9598194 ], [ -2.1428078, 48.9598923 ] ] ], [ [ [ -2.1441739, 48.9599819 ], [ -2.143936, 48.9599472 ], [ -2.1439624, 48.9599038 ], [ -2.1441739, 48.9599819 ] ] ], [ [ [ -2.1415338, 48.9600828 ], [ -2.1416409, 48.9601506 ], [ -2.1414726, 48.9601958 ], [ -2.1415338, 48.9600828 ] ] ], [ [ [ -2.1426407, 48.9600716 ], [ -2.1426715, 48.9601757 ], [ -2.1425702, 48.9601063 ], [ -2.1426407, 48.9600716 ] ] ], [ [ [ -2.1439536, 48.9601815 ], [ -2.144077, 48.9601815 ], [ -2.1439844, 48.9602452 ], [ -2.1439536, 48.9601815 ] ] ], [ [ [ -2.1342726, 48.9601344 ], [ -2.1342197, 48.9603369 ], [ -2.1340832, 48.9600881 ], [ -2.1342726, 48.9601344 ] ] ], [ [ [ -2.1433371, 48.9611927 ], [ -2.1425132, 48.9608889 ], [ -2.1434913, 48.9609583 ], [ -2.1433371, 48.9611927 ] ] ], [ [ [ -2.1099429, 48.9618794 ], [ -2.1102262, 48.9618391 ], [ -2.1101365, 48.962022 ], [ -2.1099429, 48.9618794 ] ] ], [ [ [ -2.110401, 48.9619507 ], [ -2.1106843, 48.9622793 ], [ -2.1103537, 48.9621522 ], [ -2.110401, 48.9619507 ] ] ], [ [ [ -2.065773, 48.9632722 ], [ -2.0647806, 48.963811 ], [ -2.0624363, 48.9643006 ], [ -2.0606634, 48.962809 ], [ -2.0619133, 48.9629693 ], [ -2.0619482, 48.9621962 ], [ -2.0639759, 48.9614477 ], [ -2.0639491, 48.9623564 ], [ -2.0653439, 48.9622296 ], [ -2.065773, 48.9632722 ] ] ], [ [ [ -2.137836, 48.9636284 ], [ -2.1383208, 48.9635979 ], [ -2.1378161, 48.9637396 ], [ -2.137836, 48.9636284 ] ] ], [ [ [ -2.0630868, 48.9707206 ], [ -2.0624632, 48.9718536 ], [ -2.0616089, 48.9707734 ], [ -2.0623679, 48.97018 ], [ -2.0630868, 48.9707206 ] ] ], [ [ [ -2.0837971, 48.9734313 ], [ -2.0841724, 48.9735041 ], [ -2.0842804, 48.9738437 ], [ -2.0840985, 48.9739203 ], [ -2.0837971, 48.9734313 ] ] ], [ [ [ -2.0858921, 48.9739998 ], [ -2.0860195, 48.973871 ], [ -2.0859911, 48.9740212 ], [ -2.0858921, 48.9739998 ] ] ], [ [ [ -2.0786001, 48.9741956 ], [ -2.0793828, 48.9739334 ], [ -2.0794418, 48.9740022 ], [ -2.0786001, 48.9741956 ] ] ], [ [ [ -2.0844627, 48.9742357 ], [ -2.0842678, 48.9743313 ], [ -2.0841863, 48.9743116 ], [ -2.0844627, 48.9742357 ] ] ], [ [ [ -2.0861207, 48.9745688 ], [ -2.086371, 48.9743011 ], [ -2.0865712, 48.9746066 ], [ -2.0861207, 48.9745688 ] ] ], [ [ [ -2.0866674, 48.974772 ], [ -2.0866304, 48.9749117 ], [ -2.0863176, 48.9747976 ], [ -2.0866674, 48.974772 ] ] ], [ [ [ -2.083523, 48.9757338 ], [ -2.0828682, 48.9756322 ], [ -2.082827, 48.975183 ], [ -2.083523, 48.9757338 ] ] ], [ [ [ -2.0835919, 48.9758794 ], [ -2.0838768, 48.9758085 ], [ -2.0835723, 48.9759439 ], [ -2.0835919, 48.9758794 ] ] ], [ [ [ -2.0867434, 48.9765301 ], [ -2.0867666, 48.9768788 ], [ -2.0866106, 48.9768134 ], [ -2.0867434, 48.9765301 ] ] ], [ [ [ -2.0872554, 48.977106 ], [ -2.0881657, 48.9764508 ], [ -2.088487, 48.9773571 ], [ -2.0879133, 48.9770659 ], [ -2.0872554, 48.977106 ] ] ], [ [ [ -2.120713, 48.9769116 ], [ -2.1216759, 48.9769845 ], [ -2.1217608, 48.9771528 ], [ -2.1212606, 48.977177 ], [ -2.120713, 48.9769116 ] ] ], [ [ [ -2.1201592, 48.9772011 ], [ -2.1204434, 48.9774876 ], [ -2.1201541, 48.9775975 ], [ -2.1201592, 48.9772011 ] ] ], [ [ [ -2.1141283, 48.9815773 ], [ -2.1137802, 48.9811609 ], [ -2.114353, 48.9813113 ], [ -2.1141283, 48.9815773 ] ] ], [ [ [ -2.1002414, 48.9877836 ], [ -2.1004316, 48.987823 ], [ -2.1002389, 48.9879052 ], [ -2.1002414, 48.9877836 ] ] ], [ [ [ -2.100797, 48.9877935 ], [ -2.1006869, 48.9879906 ], [ -2.1006018, 48.9878033 ], [ -2.100797, 48.9877935 ] ] ], [ [ [ -2.1003841, 48.9880694 ], [ -2.100309, 48.988209 ], [ -2.1001989, 48.9881811 ], [ -2.1003841, 48.9880694 ] ] ], [ [ [ -2.123277, 48.9987203 ], [ -2.1232565, 48.9993955 ], [ -2.1236475, 49.00028 ], [ -2.1224846, 48.9988689 ], [ -2.123277, 48.9987203 ] ] ], [ [ [ -2.1205188, 48.9998817 ], [ -2.1213319, 48.9996859 ], [ -2.1220112, 49.0005366 ], [ -2.1218979, 49.0006514 ], [ -2.1205188, 48.9998817 ] ] ], [ [ [ -2.0487606, 49.1482202 ], [ -2.0477966, 49.1485335 ], [ -2.0476851, 49.1478693 ], [ -2.0487606, 49.1482202 ] ] ], [ [ [ -2.0506171, 49.1485282 ], [ -2.0494364, 49.1486457 ], [ -2.049455, 49.1482374 ], [ -2.0506171, 49.1485282 ] ] ], [ [ [ -2.0770394, 49.1608207 ], [ -2.0773906, 49.1602298 ], [ -2.0781028, 49.1610179 ], [ -2.0778438, 49.1611018 ], [ -2.0770394, 49.1608207 ] ] ], [ [ [ -2.0594054, 49.1648516 ], [ -2.0599456, 49.1647686 ], [ -2.0600246, 49.1649042 ], [ -2.0594054, 49.1648516 ] ] ], [ [ [ -2.0605654, 49.1655922 ], [ -2.0603424, 49.1654033 ], [ -2.0606108, 49.1654837 ], [ -2.0605654, 49.1655922 ] ] ], [ [ [ -2.1255999, 49.1764718 ], [ -2.1255722, 49.1777311 ], [ -2.1238407, 49.1788867 ], [ -2.1230812, 49.1783453 ], [ -2.124828, 49.1765477 ], [ -2.1242123, 49.1759127 ], [ -2.125593, 49.1752657 ], [ -2.1247343, 49.1751537 ], [ -2.1257083, 49.1747042 ], [ -2.1229821, 49.1704523 ], [ -2.1248537, 49.1731206 ], [ -2.1255916, 49.1730712 ], [ -2.1252195, 49.1737125 ], [ -2.1263361, 49.1753319 ], [ -2.1274823, 49.1756215 ], [ -2.1255999, 49.1764718 ] ] ], [ [ [ -2.254512, 49.249467 ], [ -2.2531188, 49.251108 ], [ -2.2540306, 49.2519231 ], [ -2.2511765, 49.254171 ], [ -2.2514769, 49.255181 ], [ -2.2497419, 49.2549927 ], [ -2.2490394, 49.2565078 ], [ -2.2474442, 49.2565377 ], [ -2.2478908, 49.2579013 ], [ -2.2469508, 49.2585189 ], [ -2.2449689, 49.2579954 ], [ -2.2446335, 49.2588269 ], [ -2.2436737, 49.2588725 ], [ -2.2418628, 49.2576821 ], [ -2.2402376, 49.2579535 ], [ -2.2396618, 49.2569959 ], [ -2.2313283, 49.2559683 ], [ -2.2303738, 49.2567965 ], [ -2.2294414, 49.2565599 ], [ -2.2300938, 49.2570151 ], [ -2.228275, 49.2567002 ], [ -2.2296973, 49.25793 ], [ -2.2280397, 49.258501 ], [ -2.2300902, 49.2586544 ], [ -2.2300141, 49.2594808 ], [ -2.2276211, 49.2599364 ], [ -2.2278941, 49.2611623 ], [ -2.2273147, 49.2613319 ], [ -2.2262599, 49.2604498 ], [ -2.2270282, 49.2596945 ], [ -2.2261541, 49.2597477 ], [ -2.2263376, 49.2589059 ], [ -2.2273346, 49.2587178 ], [ -2.2220841, 49.2575481 ], [ -2.2203879, 49.2562698 ], [ -2.2204376, 49.2552594 ], [ -2.2183572, 49.2557562 ], [ -2.218524, 49.2547872 ], [ -2.2177559, 49.2544509 ], [ -2.2156962, 49.2551273 ], [ -2.2156809, 49.2544488 ], [ -2.2127852, 49.2535841 ], [ -2.2121264, 49.2545251 ], [ -2.2114015, 49.2543185 ], [ -2.2097531, 49.2514496 ], [ -2.2070864, 49.252151 ], [ -2.2067254, 49.2501937 ], [ -2.2031335, 49.2489491 ], [ -2.2027502, 49.2473796 ], [ -2.1994052, 49.2470261 ], [ -2.1987706, 49.2482619 ], [ -2.1970956, 49.2487698 ], [ -2.1970868, 49.2474548 ], [ -2.1963304, 49.2470227 ], [ -2.1946303, 49.2475639 ], [ -2.194802, 49.24881 ], [ -2.1937179, 49.2502292 ], [ -2.1937806, 49.2492586 ], [ -2.1929516, 49.2493984 ], [ -2.1927378, 49.2486588 ], [ -2.1907561, 49.2481901 ], [ -2.1906108, 49.2489351 ], [ -2.1890194, 49.2484051 ], [ -2.1887885, 49.2476045 ], [ -2.1886432, 49.2487614 ], [ -2.187362, 49.248757 ], [ -2.1876134, 49.2494575 ], [ -2.1862604, 49.2500094 ], [ -2.1862055, 49.2485936 ], [ -2.1842848, 49.2484318 ], [ -2.1832411, 49.2471155 ], [ -2.1798605, 49.2507178 ], [ -2.1771643, 49.2494792 ], [ -2.1742074, 49.2493106 ], [ -2.1737167, 49.2512779 ], [ -2.1743351, 49.2518153 ], [ -2.1700462, 49.2535517 ], [ -2.1703126, 49.254921 ], [ -2.1683752, 49.2550762 ], [ -2.1676287, 49.2567299 ], [ -2.1654107, 49.2577456 ], [ -2.1654923, 49.2585391 ], [ -2.1642255, 49.2573713 ], [ -2.1594755, 49.2579732 ], [ -2.1605702, 49.2615072 ], [ -2.1560823, 49.2597702 ], [ -2.1529279, 49.2603688 ], [ -2.1524427, 49.2621288 ], [ -2.15139, 49.2604782 ], [ -2.1482943, 49.2602691 ], [ -2.1468054, 49.2593082 ], [ -2.1452361, 49.2564174 ], [ -2.1418309, 49.2559881 ], [ -2.1391986, 49.2534595 ], [ -2.1356736, 49.2528648 ], [ -2.134572, 49.2534929 ], [ -2.129531, 49.2534223 ], [ -2.1292134, 49.2542783 ], [ -2.1287575, 49.2533903 ], [ -2.1257514, 49.2529147 ], [ -2.1247106, 49.2536793 ], [ -2.121284, 49.253914 ], [ -2.1202971, 49.2531821 ], [ -2.1207494, 49.252211 ], [ -2.1194879, 49.2517167 ], [ -2.1209526, 49.2520524 ], [ -2.1208636, 49.2510223 ], [ -2.1167061, 49.2497745 ], [ -2.1134284, 49.2502339 ], [ -2.1118468, 49.2518513 ], [ -2.1092336, 49.2497285 ], [ -2.1045534, 49.2501878 ], [ -2.103462, 49.2535963 ], [ -2.1014711, 49.2551479 ], [ -2.0986336, 49.2550324 ], [ -2.0969606, 49.2534061 ], [ -2.0930856, 49.2538113 ], [ -2.0915359, 49.2529359 ], [ -2.0907285, 49.2512553 ], [ -2.0911921, 49.2500943 ], [ -2.0898951, 49.2491775 ], [ -2.0884497, 49.2489104 ], [ -2.0868364, 49.2473055 ], [ -2.0848432, 49.2481232 ], [ -2.0856041, 49.2463763 ], [ -2.083662, 49.244649 ], [ -2.0840906, 49.2439415 ], [ -2.0828925, 49.2417642 ], [ -2.0816799, 49.2404753 ], [ -2.0809566, 49.2407751 ], [ -2.0802785, 49.2407394 ], [ -2.0819351, 49.2395465 ], [ -2.0815485, 49.238531 ], [ -2.07305, 49.236232 ], [ -2.0675831, 49.23683 ], [ -2.0667959, 49.2386223 ], [ -2.064402, 49.238085 ], [ -2.063656, 49.2383907 ], [ -2.0638907, 49.2391542 ], [ -2.0571375, 49.2392523 ], [ -2.0563711, 49.2396805 ], [ -2.0570792, 49.240314 ], [ -2.0561042, 49.2404104 ], [ -2.0563129, 49.2411252 ], [ -2.0546116, 49.2414118 ], [ -2.0541159, 49.2422624 ], [ -2.0527253, 49.2418306 ], [ -2.051608, 49.2436583 ], [ -2.0507867, 49.240444 ], [ -2.0472891, 49.2392994 ], [ -2.0450622, 49.2403143 ], [ -2.0434791, 49.2401172 ], [ -2.0449842, 49.2383524 ], [ -2.0441961, 49.2373886 ], [ -2.0447268, 49.2378419 ], [ -2.0457988, 49.2371599 ], [ -2.0448316, 49.235862 ], [ -2.0388714, 49.235642 ], [ -2.0362104, 49.2340125 ], [ -2.0352172, 49.2352544 ], [ -2.0313957, 49.2327528 ], [ -2.0274252, 49.2322271 ], [ -2.0262164, 49.2332325 ], [ -2.0249407, 49.2329788 ], [ -2.0245119, 49.232255 ], [ -2.0258211, 49.2318703 ], [ -2.0241845, 49.2297406 ], [ -2.0247154, 49.229047 ], [ -2.0240673, 49.2267202 ], [ -2.0228823, 49.2256247 ], [ -2.0185564, 49.2247541 ], [ -2.0104193, 49.2221834 ], [ -2.0194518, 49.2244557 ], [ -2.023789, 49.2233999 ], [ -2.0266127, 49.2215155 ], [ -2.0262651, 49.2199114 ], [ -2.0296207, 49.2185472 ], [ -2.0298211, 49.2160864 ], [ -2.0290152, 49.2148961 ], [ -2.0280624, 49.2147402 ], [ -2.0258971, 49.2122182 ], [ -2.0228219, 49.2122799 ], [ -2.024735, 49.2117497 ], [ -2.0242907, 49.209212 ], [ -2.0200263, 49.2089315 ], [ -2.0220955, 49.2064801 ], [ -2.0217817, 49.2040821 ], [ -2.0194025, 49.2037745 ], [ -2.0169816, 49.2016849 ], [ -2.0182998, 49.2013721 ], [ -2.017634, 49.1996394 ], [ -2.0222912, 49.1967141 ], [ -2.0202834, 49.1986872 ], [ -2.0206993, 49.1997004 ], [ -2.0290794, 49.1972415 ], [ -2.032542, 49.1921247 ], [ -2.0335765, 49.1869481 ], [ -2.0331042, 49.1816802 ], [ -2.028177, 49.1670393 ], [ -2.0333163, 49.164741 ], [ -2.0334348, 49.1634949 ], [ -2.0316756, 49.162535 ], [ -2.0336035, 49.1633885 ], [ -2.0335187, 49.1640388 ], [ -2.0349064, 49.1640279 ], [ -2.0395741, 49.1663716 ], [ -2.0478746, 49.1687662 ], [ -2.0531167, 49.1693529 ], [ -2.0569782, 49.1689718 ], [ -2.0618863, 49.1666829 ], [ -2.0658338, 49.1672786 ], [ -2.0687225, 49.1668201 ], [ -2.071452, 49.1646131 ], [ -2.0706602, 49.163243 ], [ -2.0780411, 49.1631375 ], [ -2.0918863, 49.175172 ], [ -2.095441, 49.1768321 ], [ -2.0970271, 49.1768642 ], [ -2.0971063, 49.1762952 ], [ -2.0990826, 49.177211 ], [ -2.1067252, 49.1758353 ], [ -2.107333, 49.1745941 ], [ -2.1062142, 49.173534 ], [ -2.1072635, 49.1723199 ], [ -2.1073385, 49.1696354 ], [ -2.109986, 49.1681108 ], [ -2.1124262, 49.1680271 ], [ -2.1160081, 49.1705608 ], [ -2.1174202, 49.1730361 ], [ -2.1147994, 49.1725057 ], [ -2.1140974, 49.1734592 ], [ -2.1164709, 49.1743076 ], [ -2.1157497, 49.1756686 ], [ -2.1157974, 49.1741879 ], [ -2.1124361, 49.1744543 ], [ -2.1125609, 49.1754148 ], [ -2.1144053, 49.175296 ], [ -2.1147378, 49.1762009 ], [ -2.1110406, 49.1757552 ], [ -2.1110875, 49.1770788 ], [ -2.112155, 49.1772149 ], [ -2.112434, 49.1781321 ], [ -2.1102462, 49.1773588 ], [ -2.1098911, 49.1777708 ], [ -2.1107456, 49.1780539 ], [ -2.1089059, 49.1786479 ], [ -2.1098993, 49.1790737 ], [ -2.1085984, 49.1812043 ], [ -2.1094528, 49.1814808 ], [ -2.1116444, 49.1786658 ], [ -2.1125097, 49.1788511 ], [ -2.1096111, 49.1823943 ], [ -2.1111875, 49.1828953 ], [ -2.1123294, 49.1814744 ], [ -2.113867, 49.1792529 ], [ -2.1141072, 49.1767476 ], [ -2.1146311, 49.1766931 ], [ -2.1143844, 49.179223 ], [ -2.118304, 49.1787465 ], [ -2.1168656, 49.1766448 ], [ -2.1170483, 49.1766002 ], [ -2.11925, 49.1796913 ], [ -2.1187024, 49.1805259 ], [ -2.1152047, 49.1808373 ], [ -2.1157432, 49.1832965 ], [ -2.1174789, 49.1838569 ], [ -2.1192631, 49.1804938 ], [ -2.1182004, 49.1833487 ], [ -2.1162587, 49.1857161 ], [ -2.1187001, 49.1883087 ], [ -2.1289951, 49.1939813 ], [ -2.1329201, 49.195177 ], [ -2.1377945, 49.1962866 ], [ -2.1481417, 49.1969616 ], [ -2.1547777, 49.1964192 ], [ -2.1617127, 49.1947707 ], [ -2.1658664, 49.1928675 ], [ -2.1681634, 49.190697 ], [ -2.1691882, 49.188269 ], [ -2.1670413, 49.1869401 ], [ -2.1687101, 49.187517 ], [ -2.1700852, 49.1869213 ], [ -2.1686361, 49.1854763 ], [ -2.1666195, 49.1867335 ], [ -2.1695432, 49.183394 ], [ -2.1696005, 49.1823878 ], [ -2.1680269, 49.18204 ], [ -2.1685585, 49.1810236 ], [ -2.1677069, 49.1806648 ], [ -2.1696206, 49.1783326 ], [ -2.1689307, 49.1772066 ], [ -2.167976, 49.1772487 ], [ -2.1678787, 49.1760028 ], [ -2.1640398, 49.1749444 ], [ -2.1647502, 49.1740323 ], [ -2.1635986, 49.1718894 ], [ -2.1660263, 49.1674501 ], [ -2.168148, 49.1656909 ], [ -2.1712653, 49.166222 ], [ -2.1718461, 49.1671488 ], [ -2.170994, 49.1677202 ], [ -2.1712912, 49.1687056 ], [ -2.1735222, 49.168748 ], [ -2.1748297, 49.1695893 ], [ -2.175139, 49.1711654 ], [ -2.17815, 49.1717413 ], [ -2.1809772, 49.171563 ], [ -2.1820306, 49.1695829 ], [ -2.1833162, 49.168967 ], [ -2.1847153, 49.1696477 ], [ -2.186925, 49.1688259 ], [ -2.1894885, 49.1692905 ], [ -2.1870919, 49.1704109 ], [ -2.186392, 49.1715553 ], [ -2.1876763, 49.1727584 ], [ -2.1888247, 49.1757595 ], [ -2.185822, 49.1764619 ], [ -2.1858921, 49.1784159 ], [ -2.1885964, 49.1814928 ], [ -2.1905759, 49.1815224 ], [ -2.1903797, 49.1824226 ], [ -2.1915722, 49.1831625 ], [ -2.196208, 49.1844713 ], [ -2.1994902, 49.1847671 ], [ -2.2017947, 49.1841009 ], [ -2.2021576, 49.1831234 ], [ -2.2007386, 49.1825381 ], [ -2.2042233, 49.1811599 ], [ -2.2044551, 49.1781401 ], [ -2.2081347, 49.1793581 ], [ -2.2087494, 49.1791899 ], [ -2.2088385, 49.1771484 ], [ -2.213795, 49.1777859 ], [ -2.2199457, 49.1749914 ], [ -2.2214143, 49.1755873 ], [ -2.224085, 49.1741778 ], [ -2.2256664, 49.1745094 ], [ -2.2254879, 49.1752905 ], [ -2.2268948, 49.1744812 ], [ -2.2268236, 49.1751213 ], [ -2.2314139, 49.1757231 ], [ -2.2305755, 49.1762585 ], [ -2.2327644, 49.1772252 ], [ -2.2335699, 49.1767504 ], [ -2.2330792, 49.177722 ], [ -2.2349504, 49.1774653 ], [ -2.2344767, 49.1784678 ], [ -2.2352495, 49.1783342 ], [ -2.2361842, 49.1799622 ], [ -2.2392045, 49.1785369 ], [ -2.2416589, 49.1807816 ], [ -2.245242, 49.1814263 ], [ -2.2453167, 49.1822333 ], [ -2.241797, 49.1820703 ], [ -2.2400142, 49.1835664 ], [ -2.2347284, 49.1840525 ], [ -2.2338635, 49.1850668 ], [ -2.2359764, 49.1861025 ], [ -2.2354164, 49.1863832 ], [ -2.2361162, 49.1870893 ], [ -2.2311891, 49.1876192 ], [ -2.229889, 49.1887838 ], [ -2.2277882, 49.1934024 ], [ -2.2266253, 49.1939846 ], [ -2.2257534, 49.1977157 ], [ -2.2240587, 49.2003724 ], [ -2.2235775, 49.2066771 ], [ -2.2275571, 49.2193063 ], [ -2.2299223, 49.2238637 ], [ -2.2386223, 49.2332024 ], [ -2.2416301, 49.2378796 ], [ -2.2469888, 49.2409714 ], [ -2.2501164, 49.2396639 ], [ -2.2504293, 49.2424042 ], [ -2.2489948, 49.2425272 ], [ -2.2536367, 49.2470059 ], [ -2.2526442, 49.2491871 ], [ -2.254512, 49.249467 ] ] ], [ [ [ -2.1042088, 49.2541736 ], [ -2.1041569, 49.2532093 ], [ -2.1044721, 49.2543362 ], [ -2.1042088, 49.2541736 ] ] ], [ [ [ -2.0405374, 49.2960389 ], [ -2.0406436, 49.2958814 ], [ -2.0407408, 49.2959548 ], [ -2.0405374, 49.2960389 ] ] ], [ [ [ -2.0349513, 49.29886 ], [ -2.0347249, 49.2987743 ], [ -2.0347957, 49.2987361 ], [ -2.0349513, 49.29886 ] ] ], [ [ [ -2.0078242, 49.1576937 ], [ -2.0076613, 49.1575554 ], [ -2.0078902, 49.157625 ], [ -2.0078242, 49.1576937 ] ] ], [ [ [ -1.9164566, 49.2725724 ], [ -1.9165179, 49.2724969 ], [ -1.9165887, 49.2724915 ], [ -1.9164566, 49.2725724 ] ] ], [ [ [ -1.9371552, 49.2727164 ], [ -1.9373274, 49.2729534 ], [ -1.9370881, 49.2729477 ], [ -1.9371552, 49.2727164 ] ] ], [ [ [ -1.9142643, 49.279925 ], [ -1.9144012, 49.2799894 ], [ -1.9142818, 49.2799842 ], [ -1.9142643, 49.279925 ] ] ], [ [ [ -1.9269903, 49.2829358 ], [ -1.9265486, 49.2834895 ], [ -1.9262338, 49.2834489 ], [ -1.9263324, 49.2826385 ], [ -1.9269903, 49.2829358 ] ] ], [ [ [ -1.9248995, 49.2835871 ], [ -1.9251836, 49.2836607 ], [ -1.9248692, 49.2836358 ], [ -1.9248995, 49.2835871 ] ] ], [ [ [ -1.9254835, 49.2851878 ], [ -1.9255554, 49.2839028 ], [ -1.9266223, 49.2839363 ], [ -1.9272649, 49.2864414 ], [ -1.9254835, 49.2851878 ] ] ], [ [ [ -1.9377941, 49.2854015 ], [ -1.937537, 49.2852168 ], [ -1.9378895, 49.2852231 ], [ -1.9377941, 49.2854015 ] ] ], [ [ [ -1.939854, 49.2854295 ], [ -1.9399881, 49.2856569 ], [ -1.9398433, 49.2856674 ], [ -1.939854, 49.2854295 ] ] ], [ [ [ -1.9378379, 49.2857458 ], [ -1.9380607, 49.2858412 ], [ -1.9378638, 49.2858004 ], [ -1.9378379, 49.2857458 ] ] ], [ [ [ -1.9216642, 49.2858779 ], [ -1.9214973, 49.2857891 ], [ -1.9217083, 49.2856915 ], [ -1.9216642, 49.2858779 ] ] ], [ [ [ -1.9149782, 49.285859 ], [ -1.9152397, 49.2858756 ], [ -1.9152189, 49.2861081 ], [ -1.9149782, 49.285859 ] ] ], [ [ [ -1.9410865, 49.2858393 ], [ -1.9411898, 49.2860488 ], [ -1.9409981, 49.2861677 ], [ -1.9410865, 49.2858393 ] ] ], [ [ [ -1.9320354, 49.2868186 ], [ -1.9321722, 49.2870303 ], [ -1.9319522, 49.2869481 ], [ -1.9320354, 49.2868186 ] ] ], [ [ [ -1.9436038, 49.2874275 ], [ -1.9434589, 49.2875779 ], [ -1.9434375, 49.2874695 ], [ -1.9436038, 49.2874275 ] ] ], [ [ [ -1.9123936, 49.2878226 ], [ -1.9129367, 49.2878463 ], [ -1.9130864, 49.2879499 ], [ -1.9123936, 49.2878226 ] ] ], [ [ [ -1.933921, 49.288122 ], [ -1.9336849, 49.2884439 ], [ -1.9336394, 49.2884107 ], [ -1.933921, 49.288122 ] ] ], [ [ [ -1.9580782, 49.2889279 ], [ -1.9580347, 49.2890397 ], [ -1.9579959, 49.2889354 ], [ -1.9580782, 49.2889279 ] ] ], [ [ [ -1.9446552, 49.2902371 ], [ -1.9449878, 49.2898872 ], [ -1.9447652, 49.2903771 ], [ -1.9446552, 49.2902371 ] ] ], [ [ [ -1.9687613, 49.290431 ], [ -1.9686582, 49.2900474 ], [ -1.9689756, 49.290406 ], [ -1.9687613, 49.290431 ] ] ], [ [ [ -1.9276025, 49.2904965 ], [ -1.9281428, 49.2900226 ], [ -1.9289549, 49.2905616 ], [ -1.928139, 49.2907945 ], [ -1.9276025, 49.2904965 ] ] ], [ [ [ -1.9683308, 49.2905708 ], [ -1.9683651, 49.29029 ], [ -1.9684905, 49.2904086 ], [ -1.9683308, 49.2905708 ] ] ], [ [ [ -1.9141143, 49.2905899 ], [ -1.9139884, 49.2903173 ], [ -1.914612, 49.2903899 ], [ -1.9141143, 49.2905899 ] ] ], [ [ [ -1.9295463, 49.2905747 ], [ -1.9295087, 49.2908109 ], [ -1.9294524, 49.2907287 ], [ -1.9295463, 49.2905747 ] ] ], [ [ [ -1.968441, 49.2909071 ], [ -1.9684043, 49.2906466 ], [ -1.9686193, 49.2908161 ], [ -1.968441, 49.2909071 ] ] ], [ [ [ -1.9681037, 49.2911718 ], [ -1.9681901, 49.290749 ], [ -1.9683811, 49.29091 ], [ -1.9681037, 49.2911718 ] ] ], [ [ [ -1.9347525, 49.2913864 ], [ -1.9346532, 49.291313 ], [ -1.9347712, 49.291306 ], [ -1.9347525, 49.2913864 ] ] ], [ [ [ -1.947531, 49.2917509 ], [ -1.9472086, 49.2913602 ], [ -1.9475094, 49.2915571 ], [ -1.947531, 49.2917509 ] ] ], [ [ [ -1.9310935, 49.2914526 ], [ -1.9314489, 49.2917408 ], [ -1.9309906, 49.2916454 ], [ -1.9310935, 49.2914526 ] ] ], [ [ [ -1.9812673, 49.2919501 ], [ -1.9813535, 49.2919501 ], [ -1.9814955, 49.2920989 ], [ -1.9812673, 49.2919501 ] ] ], [ [ [ -1.9832354, 49.2920572 ], [ -1.983393, 49.2923514 ], [ -1.9832231, 49.2923031 ], [ -1.9832354, 49.2920572 ] ] ], [ [ [ -1.9307828, 49.2925725 ], [ -1.9296927, 49.2923008 ], [ -1.9310725, 49.2922156 ], [ -1.9307828, 49.2925725 ] ] ], [ [ [ -1.9828543, 49.2927771 ], [ -1.9830233, 49.2925889 ], [ -1.9830398, 49.2927514 ], [ -1.9828543, 49.2927771 ] ] ], [ [ [ -1.9423002, 49.2936971 ], [ -1.9422398, 49.2935045 ], [ -1.9423978, 49.2936486 ], [ -1.9423002, 49.2936971 ] ] ], [ [ [ -1.915213, 49.294165 ], [ -1.9152205, 49.29404 ], [ -1.9153114, 49.2941766 ], [ -1.915213, 49.294165 ] ] ], [ [ [ -2.0159934, 49.2946786 ], [ -2.0160899, 49.2945474 ], [ -2.0160872, 49.2946803 ], [ -2.0159934, 49.2946786 ] ] ], [ [ [ -2.0158298, 49.2946733 ], [ -2.0156822, 49.2947363 ], [ -2.015591, 49.2947188 ], [ -2.0157466, 49.2946243 ], [ -2.0158298, 49.2946733 ] ] ], [ [ [ -1.9383869, 49.294962 ], [ -1.9383976, 49.2950775 ], [ -1.938293, 49.2949603 ], [ -1.9383869, 49.294962 ] ] ], [ [ [ -2.0161919, 49.2952191 ], [ -2.0158941, 49.2950371 ], [ -2.0157788, 49.2950791 ], [ -2.0160148, 49.2949812 ], [ -2.0161919, 49.2952191 ] ] ], [ [ [ -1.9513091, 49.2952219 ], [ -1.9512346, 49.2953897 ], [ -1.9511161, 49.2953107 ], [ -1.9513091, 49.2952219 ] ] ], [ [ [ -1.9421801, 49.2954621 ], [ -1.9423205, 49.2960794 ], [ -1.94212, 49.2960977 ], [ -1.9421801, 49.2954621 ] ] ], [ [ [ -1.9333741, 49.296951 ], [ -1.9335995, 49.2972079 ], [ -1.9332396, 49.2969426 ], [ -1.9333741, 49.296951 ] ] ], [ [ [ -1.937778, 49.2989886 ], [ -1.9377521, 49.2991807 ], [ -1.937647, 49.2989946 ], [ -1.937778, 49.2989886 ] ] ], [ [ [ -2.0343825, 49.2994307 ], [ -2.0345861, 49.2995715 ], [ -2.0342947, 49.2994444 ], [ -2.0343825, 49.2994307 ] ] ], [ [ [ -2.0309642, 49.3026036 ], [ -2.0309364, 49.3028978 ], [ -2.0308622, 49.3028857 ], [ -2.0309642, 49.3026036 ] ] ], [ [ [ -2.0314709, 49.3028071 ], [ -2.031406, 49.3028696 ], [ -2.0312979, 49.3028413 ], [ -2.0314709, 49.3028071 ] ] ] ] } }
]
}
