{
"type": "FeatureCollection",
"name": "kos",
"crs": { "type": "name", "properties": { "name": "urn:ogc:def:crs:OGC:1.3:CRS84" } },
"features": [
{ "type": "Feature", "properties": { }, "geometry": { "type": "Polygon", "coordinates": [ [ [ 26.9171931, 36.7187637 ], [ 26.9216631, 36.7139779 ], [ 26.922199, 36.7076343 ], [ 26.9243507, 36.7060387 ], [ 26.9247964, 36.7041288 ], [ 26.9293949, 36.7022895 ], [ 26.9303127, 36.7008808 ], [ 26.9340319, 36.6986512 ], [ 26.9370878, 36.6950516 ], [ 26.9378947, 36.6924176 ], [ 26.9394529, 36.6910669 ], [ 26.9422793, 36.6861459 ], [ 26.9476044, 36.6848827 ], [ 26.9538376, 36.6806509 ], [ 26.9545443, 36.6797765 ], [ 26.9533848, 36.6774569 ], [ 26.9539173, 36.6764844 ], [ 26.9559897, 36.6761168 ], [ 26.9585457, 36.6776963 ], [ 26.9599921, 36.6770316 ], [ 26.9599789, 36.6761296 ], [ 26.9615056, 36.6746969 ], [ 26.9676742, 36.6730337 ], [ 26.9695917, 36.6716991 ], [ 26.9713269, 36.6726222 ], [ 26.974083, 36.6726945 ], [ 26.9742252, 36.6737874 ], [ 26.9703288, 36.6777186 ], [ 26.9691393, 36.6803752 ], [ 26.9668851, 36.6826782 ], [ 26.9667904, 36.684456 ], [ 26.9682851, 36.6867369 ], [ 26.9686361, 36.6891726 ], [ 26.9665905, 36.6921635 ], [ 26.9679786, 36.6975878 ], [ 26.9670252, 36.7005088 ], [ 26.9676339, 36.7043082 ], [ 26.9667387, 36.7049898 ], [ 26.9692752, 36.7081488 ], [ 26.9706594, 36.708605 ], [ 26.9719856, 36.7117874 ], [ 26.9752127, 36.7121685 ], [ 26.9753292, 36.7131467 ], [ 26.9774157, 36.7135803 ], [ 26.9798368, 36.715438 ], [ 26.9831173, 36.7142778 ], [ 26.9845141, 36.7166061 ], [ 26.9828914, 36.7182585 ], [ 26.9838774, 36.7187939 ], [ 26.9836286, 36.7204025 ], [ 26.9843585, 36.7210553 ], [ 26.9831773, 36.7214251 ], [ 26.9829684, 36.7239772 ], [ 26.9804069, 36.7284359 ], [ 26.9767724, 36.7317481 ], [ 26.9724666, 36.7338604 ], [ 26.9720324, 36.7357678 ], [ 26.9732453, 36.7367366 ], [ 26.9715014, 36.735818 ], [ 26.9702372, 36.7374127 ], [ 26.9717033, 36.7434416 ], [ 26.9744423, 36.746637 ], [ 26.9789125, 36.749653 ], [ 26.9841944, 36.7517492 ], [ 26.9895168, 36.752463 ], [ 26.9895242, 36.7533303 ], [ 26.9918772, 36.7546788 ], [ 26.993505, 36.7543231 ], [ 26.9969065, 36.7558156 ], [ 26.9983696, 36.7550158 ], [ 26.999357, 36.7561566 ], [ 27.0026616, 36.7571377 ], [ 27.0075899, 36.7560379 ], [ 27.0052206, 36.7574183 ], [ 27.0063834, 36.7597877 ], [ 27.0155806, 36.7638857 ], [ 27.0267297, 36.7662666 ], [ 27.0428616, 36.7679273 ], [ 27.0609465, 36.7673181 ], [ 27.0659002, 36.7654616 ], [ 27.0693779, 36.7652841 ], [ 27.0844153, 36.7616401 ], [ 27.0873729, 36.760213 ], [ 27.0889479, 36.7603275 ], [ 27.1015086, 36.7564191 ], [ 27.1088371, 36.7578824 ], [ 27.1124192, 36.7573979 ], [ 27.1149956, 36.7606813 ], [ 27.1177148, 36.7620491 ], [ 27.118435, 36.7622895 ], [ 27.1187007, 36.7621114 ], [ 27.1189347, 36.7620898 ], [ 27.1191886, 36.7622525 ], [ 27.1184719, 36.7624208 ], [ 27.138993, 36.7766343 ], [ 27.139304, 36.7776 ], [ 27.1408047, 36.7779345 ], [ 27.1432369, 36.7807904 ], [ 27.1448027, 36.7805083 ], [ 27.1472239, 36.7827892 ], [ 27.1447995, 36.780804 ], [ 27.143724, 36.7815769 ], [ 27.1453984, 36.7830834 ], [ 27.1460523, 36.7826743 ], [ 27.1454609, 36.7831421 ], [ 27.1503135, 36.7882117 ], [ 27.1535212, 36.7930391 ], [ 27.159115, 36.7977797 ], [ 27.1631384, 36.8030788 ], [ 27.1679392, 36.80634 ], [ 27.1822887, 36.811957 ], [ 27.1886879, 36.812335 ], [ 27.2009045, 36.8182946 ], [ 27.2043939, 36.819148 ], [ 27.2094904, 36.8189899 ], [ 27.211684, 36.8212373 ], [ 27.2173794, 36.8222824 ], [ 27.222081, 36.8242245 ], [ 27.2265653, 36.8249218 ], [ 27.2282113, 36.8243004 ], [ 27.2313767, 36.8263904 ], [ 27.2554174, 36.8305939 ], [ 27.2654767, 36.8305979 ], [ 27.2698457, 36.8325057 ], [ 27.2749811, 36.8329758 ], [ 27.285312, 36.836201 ], [ 27.288198, 36.838634 ], [ 27.302266, 36.839884 ], [ 27.306426, 36.840901 ], [ 27.3132336, 36.8441406 ], [ 27.3243326, 36.8454281 ], [ 27.332029, 36.848283 ], [ 27.3412832, 36.8525298 ], [ 27.3460906, 36.8556769 ], [ 27.3492617, 36.8565427 ], [ 27.3500621, 36.8576659 ], [ 27.3559917, 36.8590367 ], [ 27.3542804, 36.8612751 ], [ 27.3518169, 36.8748261 ], [ 27.3499985, 36.8758446 ], [ 27.3466012, 36.8822742 ], [ 27.3389891, 36.8905253 ], [ 27.337368, 36.8905935 ], [ 27.3278596, 36.8850625 ], [ 27.323829, 36.8845771 ], [ 27.3076695, 36.8867916 ], [ 27.3043896, 36.8882851 ], [ 27.3038191, 36.8901205 ], [ 27.3027741, 36.8900511 ], [ 27.3006817, 36.8922007 ], [ 27.3010942, 36.8929441 ], [ 27.3005265, 36.8922209 ], [ 27.298626, 36.8921285 ], [ 27.294338, 36.8930265 ], [ 27.2916419, 36.8952913 ], [ 27.2902046, 36.897654 ], [ 27.29205, 36.8976476 ], [ 27.2901844, 36.8987258 ], [ 27.2888307, 36.8968258 ], [ 27.2898506, 36.8949634 ], [ 27.287733, 36.8945762 ], [ 27.2863269, 36.8961232 ], [ 27.2882254, 36.8973101 ], [ 27.2884715, 36.8983408 ], [ 27.2864181, 36.8992279 ], [ 27.2851118, 36.9053751 ], [ 27.282233, 36.911741 ], [ 27.2817595, 36.9148006 ], [ 27.2798587, 36.915546 ], [ 27.2763182, 36.9149755 ], [ 27.2743977, 36.9133167 ], [ 27.268267, 36.9107228 ], [ 27.2518618, 36.901196 ], [ 27.2353224, 36.8944286 ], [ 27.2298093, 36.8932735 ], [ 27.2237979, 36.8933629 ], [ 27.2117997, 36.890481 ], [ 27.188944, 36.8895723 ], [ 27.1761914, 36.8914108 ], [ 27.1680472, 36.889615 ], [ 27.1476455, 36.8809099 ], [ 27.1442099, 36.8802817 ], [ 27.1366465, 36.8746838 ], [ 27.1188024, 36.8640281 ], [ 27.1047241, 36.8570991 ], [ 27.0953305, 36.8536017 ], [ 27.0862867, 36.8527321 ], [ 27.0812055, 36.8502972 ], [ 27.0759778, 36.850601 ], [ 27.0758899, 36.8518103 ], [ 27.0770075, 36.8525484 ], [ 27.0756624, 36.8520418 ], [ 27.0722709, 36.8455148 ], [ 27.0697438, 36.8424083 ], [ 27.0674702, 36.840928 ], [ 27.0630214, 36.8405929 ], [ 27.0598535, 36.8378473 ], [ 27.0529941, 36.8302054 ], [ 27.0499715, 36.8283192 ], [ 27.0416778, 36.8180518 ], [ 27.0381821, 36.8164948 ], [ 27.0364656, 36.8168313 ], [ 27.0319633, 36.8123673 ], [ 27.0290258, 36.8122157 ], [ 27.0236119, 36.8032286 ], [ 27.002919, 36.778993 ], [ 26.9971863, 36.7732962 ], [ 26.9924278, 36.7701499 ], [ 26.9893838, 36.7693108 ], [ 26.9843375, 36.7716836 ], [ 26.9817056, 36.7713531 ], [ 26.9774902, 36.772898 ], [ 26.9759532, 36.7724145 ], [ 26.9737018, 36.7730497 ], [ 26.963627, 36.7731097 ], [ 26.9627964, 36.7746019 ], [ 26.9644282, 36.7747438 ], [ 26.9650347, 36.7739206 ], [ 26.9656226, 36.7746888 ], [ 26.9629159, 36.7751368 ], [ 26.9611289, 36.7746693 ], [ 26.9609674, 36.7738776 ], [ 26.9604215, 36.7745919 ], [ 26.9590113, 36.7745098 ], [ 26.9548044, 36.7715746 ], [ 26.9519288, 36.771375 ], [ 26.9487084, 36.7690554 ], [ 26.9485259, 36.7681285 ], [ 26.9477886, 36.7692186 ], [ 26.9455614, 36.7693198 ], [ 26.9440125, 36.7670091 ], [ 26.9432021, 36.7676131 ], [ 26.9417824, 36.7672757 ], [ 26.9391407, 36.7654299 ], [ 26.938291, 36.7666502 ], [ 26.9349171, 36.7679284 ], [ 26.9317121, 36.7677958 ], [ 26.9305271, 36.766301 ], [ 26.9291801, 36.7664163 ], [ 26.9293841, 36.7650724 ], [ 26.9262045, 36.7616019 ], [ 26.9218935, 36.7640156 ], [ 26.9225111, 36.760421 ], [ 26.9216947, 36.7589595 ], [ 26.9214825, 36.7548603 ], [ 26.9181131, 36.7508425 ], [ 26.917757, 36.7491429 ], [ 26.9206208, 36.7467702 ], [ 26.9206109, 36.7450035 ], [ 26.9220776, 36.7452162 ], [ 26.9219154, 36.7436267 ], [ 26.9232411, 36.7436552 ], [ 26.924012, 36.7416965 ], [ 26.923153, 36.7384914 ], [ 26.92171, 36.7373545 ], [ 26.9219847, 36.7339793 ], [ 26.9193385, 36.724472 ], [ 26.9173319, 36.7216512 ], [ 26.9178235, 36.7200983 ], [ 26.9171931, 36.7187637 ] ] ] } }
]
}
