{
"type": "FeatureCollection",
"name": "lanzarote",
"crs": { "type": "name", "properties": { "name": "urn:ogc:def:crs:OGC:1.3:CRS84" } },
"features": [
{ "type": "Feature", "properties": { }, "geometry": { "type": "Polygon", "coordinates": [ [ [ -13.8823067, 28.8855675 ], [ -13.8799136, 28.8808266 ], [ -13.875382, 28.8771491 ], [ -13.8750042, 28.8743411 ], [ -13.8757896, 28.8719015 ], [ -13.8748082, 28.8689327 ], [ -13.8776899, 28.8639268 ], [ -13.8766448, 28.8618696 ], [ -13.8770896, 28.8602351 ], [ -13.8765094, 28.8585517 ], [ -13.8752841, 28.8580175 ], [ -13.8730293, 28.8549173 ], [ -13.8695529, 28.8553952 ], [ -13.8677794, 28.8577099 ], [ -13.8630927, 28.8606424 ], [ -13.8606573, 28.8612671 ], [ -13.8580587, 28.8605131 ], [ -13.8541159, 28.8620325 ], [ -13.8465759, 28.8609282 ], [ -13.8429047, 28.8570263 ], [ -13.8431504, 28.8580624 ], [ -13.8416229, 28.8576994 ], [ -13.8412583, 28.8569407 ], [ -13.8425, 28.8568511 ], [ -13.8416209, 28.8567553 ], [ -13.8408441, 28.856999 ], [ -13.8399655, 28.8554407 ], [ -13.8370563, 28.8566576 ], [ -13.8361507, 28.8581912 ], [ -13.8352724, 28.855559 ], [ -13.8315152, 28.85775 ], [ -13.8342825, 28.8563519 ], [ -13.8348675, 28.8574001 ], [ -13.832235, 28.8594353 ], [ -13.8327399, 28.8598968 ], [ -13.8343287, 28.8586432 ], [ -13.8351474, 28.8592021 ], [ -13.8335371, 28.8599615 ], [ -13.8335424, 28.8608404 ], [ -13.8290772, 28.8627477 ], [ -13.8276121, 28.8618448 ], [ -13.8253983, 28.8619742 ], [ -13.8248786, 28.8608108 ], [ -13.8249694, 28.8617592 ], [ -13.8233952, 28.8621591 ], [ -13.8219205, 28.8614847 ], [ -13.8224637, 28.8606926 ], [ -13.8213377, 28.8613731 ], [ -13.8178057, 28.8605901 ], [ -13.8167129, 28.8593034 ], [ -13.8173061, 28.8583055 ], [ -13.8186698, 28.858281 ], [ -13.8180259, 28.8572897 ], [ -13.817084, 28.8580283 ], [ -13.8164243, 28.857094 ], [ -13.8168186, 28.8583403 ], [ -13.8151002, 28.8589666 ], [ -13.8134512, 28.8580182 ], [ -13.8131096, 28.8561159 ], [ -13.8163996, 28.8561568 ], [ -13.8196722, 28.8576138 ], [ -13.8157556, 28.8557958 ], [ -13.811584, 28.8562491 ], [ -13.8113352, 28.8545704 ], [ -13.8094392, 28.8569557 ], [ -13.8087258, 28.8564707 ], [ -13.8072545, 28.8574563 ], [ -13.8053121, 28.8569379 ], [ -13.8020757, 28.8589292 ], [ -13.7988492, 28.8574716 ], [ -13.7980756, 28.8543779 ], [ -13.7951759, 28.8548989 ], [ -13.7916934, 28.8507774 ], [ -13.7894073, 28.8461299 ], [ -13.7889498, 28.8441511 ], [ -13.7896437, 28.8429743 ], [ -13.7882637, 28.8425223 ], [ -13.7895446, 28.8417585 ], [ -13.7885291, 28.8401764 ], [ -13.789573, 28.8396694 ], [ -13.7889541, 28.8390495 ], [ -13.7878834, 28.839458 ], [ -13.7872053, 28.8383842 ], [ -13.7859191, 28.8390604 ], [ -13.7834669, 28.8429115 ], [ -13.7808409, 28.8440204 ], [ -13.7785901, 28.8437572 ], [ -13.7787774, 28.846187 ], [ -13.7743339, 28.8478693 ], [ -13.7747148, 28.8514019 ], [ -13.7712835, 28.8537462 ], [ -13.7723147, 28.85522 ], [ -13.7717463, 28.8566827 ], [ -13.7691556, 28.8572904 ], [ -13.7688534, 28.8585496 ], [ -13.7672344, 28.8590571 ], [ -13.7665965, 28.8610586 ], [ -13.7646925, 28.861796 ], [ -13.7643765, 28.8634122 ], [ -13.7623846, 28.8638193 ], [ -13.7608201, 28.8656848 ], [ -13.7603291, 28.8677043 ], [ -13.7582793, 28.8680246 ], [ -13.7575381, 28.8700293 ], [ -13.7526518, 28.8741513 ], [ -13.7490303, 28.87451 ], [ -13.7498392, 28.8769409 ], [ -13.7494088, 28.8777828 ], [ -13.7481236, 28.8777514 ], [ -13.7501489, 28.8804494 ], [ -13.749935, 28.8816154 ], [ -13.7475747, 28.8869238 ], [ -13.7451093, 28.8886598 ], [ -13.7457854, 28.8901132 ], [ -13.7454118, 28.8914052 ], [ -13.7429346, 28.8957642 ], [ -13.7435056, 28.8981548 ], [ -13.7427613, 28.8999659 ], [ -13.7395098, 28.9029498 ], [ -13.7388698, 28.9049287 ], [ -13.7360213, 28.9068212 ], [ -13.7279307, 28.9061189 ], [ -13.7248776, 28.9080264 ], [ -13.7226355, 28.910569 ], [ -13.7144483, 28.9131289 ], [ -13.7108998, 28.9156148 ], [ -13.7076166, 28.9165673 ], [ -13.7065814, 28.9159476 ], [ -13.7050265, 28.9167791 ], [ -13.7043276, 28.9163472 ], [ -13.7007518, 28.9180667 ], [ -13.7001107, 28.916703 ], [ -13.7070086, 28.9153181 ], [ -13.6999782, 28.9165827 ], [ -13.7001703, 28.9177517 ], [ -13.6945464, 28.9184192 ], [ -13.6907211, 28.9199644 ], [ -13.6853297, 28.9192735 ], [ -13.6814759, 28.9206473 ], [ -13.6800039, 28.9203393 ], [ -13.6789748, 28.9213763 ], [ -13.673391, 28.9216353 ], [ -13.672661, 28.9213885 ], [ -13.6736865, 28.9204504 ], [ -13.6764535, 28.920637 ], [ -13.6760921, 28.9199436 ], [ -13.671362, 28.9206096 ], [ -13.6704385, 28.9194002 ], [ -13.6691459, 28.9193049 ], [ -13.6688886, 28.9183924 ], [ -13.6688848, 28.9191072 ], [ -13.6681261, 28.918842 ], [ -13.6685995, 28.9182382 ], [ -13.6673261, 28.9192771 ], [ -13.6572577, 28.9201176 ], [ -13.6546403, 28.9187046 ], [ -13.6483578, 28.9199762 ], [ -13.64383, 28.9192588 ], [ -13.6393491, 28.921076 ], [ -13.6368536, 28.9246139 ], [ -13.6329332, 28.9276538 ], [ -13.6302988, 28.9284175 ], [ -13.6288279, 28.927062 ], [ -13.6272215, 28.926894 ], [ -13.6217821, 28.9308985 ], [ -13.6188353, 28.9318896 ], [ -13.6160372, 28.9312056 ], [ -13.6116322, 28.9346067 ], [ -13.6096879, 28.9342704 ], [ -13.6067648, 28.9408051 ], [ -13.6018306, 28.9454646 ], [ -13.5969839, 28.9486872 ], [ -13.5931832, 28.9491332 ], [ -13.5877195, 28.9516762 ], [ -13.5852224, 28.9510753 ], [ -13.5813627, 28.9537286 ], [ -13.5765427, 28.9527358 ], [ -13.576245, 28.9543693 ], [ -13.5748261, 28.955111 ], [ -13.5718718, 28.9543345 ], [ -13.5717185, 28.9533811 ], [ -13.5712745, 28.9544264 ], [ -13.5659177, 28.9544542 ], [ -13.5634857, 28.9559224 ], [ -13.5595497, 28.9562583 ], [ -13.5600326, 28.9575212 ], [ -13.5588395, 28.9583334 ], [ -13.5550821, 28.9574891 ], [ -13.5548078, 28.9566579 ], [ -13.5512331, 28.9569433 ], [ -13.5451529, 28.9601454 ], [ -13.5437796, 28.9589188 ], [ -13.5416418, 28.9584764 ], [ -13.5395872, 28.9598541 ], [ -13.5378703, 28.962788 ], [ -13.5350395, 28.9615164 ], [ -13.5377564, 28.9629701 ], [ -13.5356369, 28.96563 ], [ -13.5340807, 28.9648016 ], [ -13.5325099, 28.967289 ], [ -13.5336167, 28.9680724 ], [ -13.536194, 28.9658688 ], [ -13.5378437, 28.9658618 ], [ -13.5373298, 28.9655483 ], [ -13.5402039, 28.959861 ], [ -13.5422635, 28.9611379 ], [ -13.5426052, 28.9622418 ], [ -13.5408606, 28.9641184 ], [ -13.5396189, 28.9643588 ], [ -13.5395943, 28.9661942 ], [ -13.5371341, 28.9680241 ], [ -13.5364494, 28.9695953 ], [ -13.5331092, 28.9704987 ], [ -13.5317136, 28.9732977 ], [ -13.5297255, 28.9734816 ], [ -13.5310734, 28.9684303 ], [ -13.5302583, 28.9671879 ], [ -13.5287726, 28.9713463 ], [ -13.5262886, 28.9715218 ], [ -13.5283046, 28.9642048 ], [ -13.5304372, 28.9607942 ], [ -13.5281178, 28.9641894 ], [ -13.5250762, 28.9756117 ], [ -13.5231595, 28.9763071 ], [ -13.5235567, 28.9770433 ], [ -13.5226939, 28.9771091 ], [ -13.5201049, 28.9745847 ], [ -13.516495, 28.9771323 ], [ -13.5157229, 28.9814034 ], [ -13.5113047, 28.9813871 ], [ -13.5102191, 28.9844543 ], [ -13.5080745, 28.9850178 ], [ -13.5087043, 28.9852414 ], [ -13.5084314, 28.9862104 ], [ -13.5078299, 28.9858139 ], [ -13.5067664, 28.9869178 ], [ -13.5018836, 28.9880154 ], [ -13.4999482, 28.9899444 ], [ -13.498051, 28.9902984 ], [ -13.4954401, 28.9930277 ], [ -13.4892294, 28.9922798 ], [ -13.4898792, 28.9929649 ], [ -13.4888105, 28.993446 ], [ -13.4871971, 28.9923866 ], [ -13.48802, 28.9922646 ], [ -13.4875827, 28.9922472 ], [ -13.4862031, 28.9925528 ], [ -13.4857101, 28.9944393 ], [ -13.4867048, 28.9948776 ], [ -13.4855714, 28.9957724 ], [ -13.4875957, 28.9951742 ], [ -13.4885597, 28.9981718 ], [ -13.4874631, 28.9993185 ], [ -13.4866582, 28.998777 ], [ -13.4870023, 28.9993948 ], [ -13.485851, 28.9998866 ], [ -13.4838466, 28.9995371 ], [ -13.4839439, 28.9990956 ], [ -13.4835398, 28.9984412 ], [ -13.483616, 28.9994417 ], [ -13.480834, 29.0002465 ], [ -13.4820171, 29.0000612 ], [ -13.4825856, 29.0008003 ], [ -13.4811741, 29.002495 ], [ -13.4800764, 29.0022941 ], [ -13.4798233, 29.0011539 ], [ -13.4799674, 29.0027404 ], [ -13.4762215, 29.0058495 ], [ -13.476251, 29.0138853 ], [ -13.4731812, 29.0153502 ], [ -13.468923, 29.0149512 ], [ -13.4647247, 29.0191875 ], [ -13.4636266, 29.0244268 ], [ -13.4655285, 29.0272104 ], [ -13.465647, 29.0291025 ], [ -13.4671545, 29.0298193 ], [ -13.4691902, 29.0340274 ], [ -13.4689669, 29.0359486 ], [ -13.4675581, 29.0362916 ], [ -13.4680705, 29.0397886 ], [ -13.4668419, 29.0406452 ], [ -13.4658435, 29.0434361 ], [ -13.4643582, 29.0439445 ], [ -13.4634554, 29.0455461 ], [ -13.4648692, 29.0508005 ], [ -13.4660638, 29.0525076 ], [ -13.4654376, 29.0542233 ], [ -13.4665686, 29.0551104 ], [ -13.4653376, 29.0568533 ], [ -13.4627128, 29.0569495 ], [ -13.4616545, 29.0580651 ], [ -13.4618798, 29.0591553 ], [ -13.4611505, 29.0587658 ], [ -13.4592245, 29.0661078 ], [ -13.4573959, 29.0687085 ], [ -13.4560208, 29.0690184 ], [ -13.4555912, 29.0706595 ], [ -13.4563904, 29.0707698 ], [ -13.4550418, 29.0729028 ], [ -13.4537036, 29.0733049 ], [ -13.4535561, 29.0765434 ], [ -13.4523966, 29.077432 ], [ -13.4514843, 29.0799913 ], [ -13.4518663, 29.0812903 ], [ -13.4499785, 29.0838086 ], [ -13.4493017, 29.0837129 ], [ -13.4498121, 29.0838852 ], [ -13.4492848, 29.0852143 ], [ -13.4483019, 29.0858771 ], [ -13.4474564, 29.0913196 ], [ -13.4482758, 29.0954936 ], [ -13.4496284, 29.0964515 ], [ -13.4488439, 29.1007777 ], [ -13.4508845, 29.1024902 ], [ -13.4538661, 29.1029033 ], [ -13.4545369, 29.1039662 ], [ -13.4557549, 29.104118 ], [ -13.4550685, 29.1076405 ], [ -13.4577585, 29.1087458 ], [ -13.4576268, 29.1099413 ], [ -13.4607502, 29.1118069 ], [ -13.4639614, 29.1154381 ], [ -13.4641889, 29.118734 ], [ -13.4631016, 29.1201865 ], [ -13.4648506, 29.1225753 ], [ -13.4646825, 29.1277837 ], [ -13.4637603, 29.1293615 ], [ -13.4618716, 29.1293854 ], [ -13.4601912, 29.1323469 ], [ -13.4592633, 29.1317688 ], [ -13.4595347, 29.1323742 ], [ -13.4588262, 29.1321046 ], [ -13.4575838, 29.1332091 ], [ -13.4560377, 29.1358426 ], [ -13.4558254, 29.1378743 ], [ -13.4517871, 29.1403569 ], [ -13.4506944, 29.142757 ], [ -13.4495945, 29.1432716 ], [ -13.4497654, 29.1440271 ], [ -13.4467815, 29.1435118 ], [ -13.4459041, 29.1451553 ], [ -13.4472952, 29.1461846 ], [ -13.4464388, 29.1470786 ], [ -13.4447927, 29.1481167 ], [ -13.4428692, 29.1480042 ], [ -13.4421051, 29.1493165 ], [ -13.4391332, 29.1502114 ], [ -13.4386343, 29.1515639 ], [ -13.4359652, 29.1521645 ], [ -13.4345415, 29.1537939 ], [ -13.4295608, 29.153888 ], [ -13.4280076, 29.1555625 ], [ -13.4284732, 29.1565348 ], [ -13.4268558, 29.1627456 ], [ -13.4272243, 29.163765 ], [ -13.4242753, 29.16584 ], [ -13.4246141, 29.1671748 ], [ -13.4276075, 29.1687271 ], [ -13.4255991, 29.1694222 ], [ -13.4252669, 29.17199 ], [ -13.4259928, 29.1728116 ], [ -13.4222515, 29.1769743 ], [ -13.4219944, 29.180289 ], [ -13.4213164, 29.1803241 ], [ -13.4204743, 29.1823949 ], [ -13.4209914, 29.1834187 ], [ -13.4200971, 29.1842738 ], [ -13.4205172, 29.1872329 ], [ -13.4218583, 29.1891141 ], [ -13.4207431, 29.1910951 ], [ -13.421442, 29.1914206 ], [ -13.420384, 29.1917803 ], [ -13.4204041, 29.1933258 ], [ -13.4216567, 29.1935412 ], [ -13.4204028, 29.194068 ], [ -13.4213402, 29.1940704 ], [ -13.4216963, 29.1958086 ], [ -13.4198324, 29.196168 ], [ -13.4191938, 29.1972378 ], [ -13.4205581, 29.1988246 ], [ -13.4196583, 29.2001123 ], [ -13.4209237, 29.2003332 ], [ -13.4195134, 29.2017407 ], [ -13.4218467, 29.2026878 ], [ -13.4220539, 29.2043366 ], [ -13.4242071, 29.2055777 ], [ -13.4235647, 29.2085346 ], [ -13.4274713, 29.2094441 ], [ -13.4288842, 29.2078489 ], [ -13.42954, 29.2092033 ], [ -13.4329283, 29.2095741 ], [ -13.4350203, 29.211195 ], [ -13.4356276, 29.2126658 ], [ -13.4351529, 29.2134068 ], [ -13.4370703, 29.2142924 ], [ -13.4365637, 29.2158742 ], [ -13.4376393, 29.2158871 ], [ -13.4379719, 29.2172343 ], [ -13.4400321, 29.2174294 ], [ -13.441436, 29.2189093 ], [ -13.4421266, 29.2167357 ], [ -13.4458411, 29.218056 ], [ -13.445703, 29.2206369 ], [ -13.4489095, 29.2206673 ], [ -13.4483261, 29.2226348 ], [ -13.4491376, 29.2220168 ], [ -13.4500253, 29.2225693 ], [ -13.449508, 29.2228876 ], [ -13.4496027, 29.2247773 ], [ -13.4503428, 29.2256878 ], [ -13.4524181, 29.2268275 ], [ -13.449771, 29.2245608 ], [ -13.4511963, 29.2217189 ], [ -13.452299, 29.2232427 ], [ -13.4516745, 29.2239751 ], [ -13.4529681, 29.2239233 ], [ -13.4545919, 29.2261215 ], [ -13.4581761, 29.2263831 ], [ -13.4613256, 29.2247004 ], [ -13.4659728, 29.2265692 ], [ -13.46778, 29.2296393 ], [ -13.4678048, 29.2328031 ], [ -13.4687923, 29.233756 ], [ -13.4682531, 29.2348121 ], [ -13.4692942, 29.2380582 ], [ -13.470085, 29.238483 ], [ -13.4697345, 29.2407957 ], [ -13.4703078, 29.2410032 ], [ -13.4709336, 29.2402929 ], [ -13.4706282, 29.2379038 ], [ -13.4727104, 29.233235 ], [ -13.4776328, 29.2283661 ], [ -13.4875312, 29.222128 ], [ -13.4970709, 29.2182234 ], [ -13.4967824, 29.2113219 ], [ -13.4976244, 29.2073177 ], [ -13.500067, 29.2061934 ], [ -13.5021425, 29.2069359 ], [ -13.5041839, 29.2037762 ], [ -13.5037758, 29.203199 ], [ -13.5063893, 29.2012707 ], [ -13.5072031, 29.1956542 ], [ -13.5082529, 29.1948389 ], [ -13.5095811, 29.1952341 ], [ -13.5103461, 29.1940245 ], [ -13.5092925, 29.1911692 ], [ -13.5085089, 29.1909463 ], [ -13.510793, 29.1879879 ], [ -13.5112433, 29.1864465 ], [ -13.510709, 29.1858381 ], [ -13.5121955, 29.1840485 ], [ -13.5122046, 29.1829163 ], [ -13.511669, 29.1830203 ], [ -13.5135127, 29.1800408 ], [ -13.5135025, 29.1783039 ], [ -13.5151593, 29.1767344 ], [ -13.516641, 29.1766279 ], [ -13.5160453, 29.1748988 ], [ -13.5170361, 29.1730252 ], [ -13.5205742, 29.1708183 ], [ -13.5222463, 29.1687297 ], [ -13.5218288, 29.166877 ], [ -13.5227304, 29.1642424 ], [ -13.5216833, 29.1585461 ], [ -13.5231135, 29.1577859 ], [ -13.5208695, 29.1562035 ], [ -13.5227937, 29.1557765 ], [ -13.5217723, 29.154883 ], [ -13.5215881, 29.1532704 ], [ -13.5227645, 29.1527281 ], [ -13.5227511, 29.1503847 ], [ -13.524263, 29.1495229 ], [ -13.5234721, 29.1487646 ], [ -13.5234425, 29.1468578 ], [ -13.5244191, 29.1446227 ], [ -13.5242684, 29.1417028 ], [ -13.5279054, 29.1385848 ], [ -13.5391229, 29.123933 ], [ -13.545239, 29.1196956 ], [ -13.5516292, 29.1169505 ], [ -13.5594496, 29.1155617 ], [ -13.56616, 29.1194024 ], [ -13.5654658, 29.1200774 ], [ -13.5694664, 29.1208444 ], [ -13.5693617, 29.1219429 ], [ -13.5714965, 29.1226175 ], [ -13.5720061, 29.1243802 ], [ -13.5735926, 29.1258507 ], [ -13.5755544, 29.1258887 ], [ -13.578117, 29.1288667 ], [ -13.5800042, 29.1294684 ], [ -13.584109, 29.1335703 ], [ -13.5968785, 29.1363761 ], [ -13.6037417, 29.1361821 ], [ -13.610827, 29.1313071 ], [ -13.6119224, 29.1286146 ], [ -13.6145066, 29.1278574 ], [ -13.6163653, 29.128697 ], [ -13.6218756, 29.1271863 ], [ -13.6235514, 29.1248142 ], [ -13.6251833, 29.1241384 ], [ -13.6280198, 29.1193092 ], [ -13.6303071, 29.1170867 ], [ -13.6331013, 29.1158429 ], [ -13.6343848, 29.1159016 ], [ -13.6351005, 29.1170024 ], [ -13.6395393, 29.1169551 ], [ -13.6409909, 29.1199169 ], [ -13.6401498, 29.1224677 ], [ -13.6421122, 29.1243687 ], [ -13.6431261, 29.1231511 ], [ -13.6451557, 29.1246008 ], [ -13.6516087, 29.1231566 ], [ -13.6526964, 29.1212245 ], [ -13.6567251, 29.1236734 ], [ -13.6583379, 29.1237321 ], [ -13.6617517, 29.120609 ], [ -13.6626253, 29.1184369 ], [ -13.6620832, 29.1163741 ], [ -13.6589568, 29.1143111 ], [ -13.657296, 29.114208 ], [ -13.6567652, 29.1127894 ], [ -13.6586334, 29.112038 ], [ -13.6610948, 29.113268 ], [ -13.6621337, 29.1129904 ], [ -13.662982, 29.111323 ], [ -13.6636493, 29.1118922 ], [ -13.6649073, 29.1110648 ], [ -13.6651683, 29.1097879 ], [ -13.6671303, 29.1100169 ], [ -13.6694325, 29.108032 ], [ -13.6730864, 29.1064246 ], [ -13.6745654, 29.1067017 ], [ -13.6750862, 29.1056464 ], [ -13.6758192, 29.1061022 ], [ -13.6774282, 29.1036024 ], [ -13.6799551, 29.1043004 ], [ -13.6813788, 29.1037178 ], [ -13.6807832, 29.102063 ], [ -13.6824302, 29.1009641 ], [ -13.680986, 29.0985133 ], [ -13.6835723, 29.0953258 ], [ -13.6872826, 29.0936129 ], [ -13.6884095, 29.0921362 ], [ -13.6910521, 29.0924131 ], [ -13.6921173, 29.0905865 ], [ -13.6936354, 29.0907604 ], [ -13.6944562, 29.0899874 ], [ -13.6985846, 29.0910416 ], [ -13.7019095, 29.090323 ], [ -13.7016535, 29.0892306 ], [ -13.7033734, 29.0879815 ], [ -13.7038701, 29.0852138 ], [ -13.705355, 29.0849348 ], [ -13.7072758, 29.0798234 ], [ -13.7097994, 29.0793554 ], [ -13.7105963, 29.0809928 ], [ -13.7119656, 29.0817349 ], [ -13.7149555, 29.0808933 ], [ -13.7162014, 29.0825735 ], [ -13.7232588, 29.0853019 ], [ -13.7244449, 29.0848336 ], [ -13.7239165, 29.0838233 ], [ -13.7255231, 29.0843226 ], [ -13.7262344, 29.0834112 ], [ -13.7266325, 29.083805 ], [ -13.7272628, 29.0812765 ], [ -13.7312963, 29.0824806 ], [ -13.7312898, 29.0817461 ], [ -13.7365867, 29.0805909 ], [ -13.7367922, 29.0799711 ], [ -13.7391619, 29.0801411 ], [ -13.7396232, 29.0808607 ], [ -13.7409482, 29.0800872 ], [ -13.743444, 29.0802852 ], [ -13.7447033, 29.0781439 ], [ -13.7459425, 29.0777149 ], [ -13.752128, 29.0790479 ], [ -13.7520043, 29.0784018 ], [ -13.7531576, 29.0779024 ], [ -13.7563954, 29.0775219 ], [ -13.7580076, 29.0757868 ], [ -13.7581217, 29.0734754 ], [ -13.7592186, 29.0728612 ], [ -13.7586556, 29.0721061 ], [ -13.7607118, 29.0687934 ], [ -13.7607664, 29.0672794 ], [ -13.7629015, 29.0658856 ], [ -13.7660436, 29.0655189 ], [ -13.7659007, 29.064217 ], [ -13.7674357, 29.0638261 ], [ -13.7693906, 29.0664725 ], [ -13.7704504, 29.0640572 ], [ -13.7722643, 29.0624147 ], [ -13.7730578, 29.0629652 ], [ -13.7744522, 29.0622449 ], [ -13.7754371, 29.0634866 ], [ -13.7758478, 29.0627019 ], [ -13.7759497, 29.0632364 ], [ -13.7783624, 29.061843 ], [ -13.7792392, 29.0621151 ], [ -13.7822718, 29.057764 ], [ -13.7833778, 29.0575108 ], [ -13.7834733, 29.0563793 ], [ -13.7935777, 29.0520137 ], [ -13.7931518, 29.051216 ], [ -13.7938679, 29.0514456 ], [ -13.7935941, 29.0508744 ], [ -13.7968779, 29.0479148 ], [ -13.799555, 29.0421138 ], [ -13.8047856, 29.0399142 ], [ -13.8044235, 29.039459 ], [ -13.8076271, 29.0371461 ], [ -13.8088695, 29.0350873 ], [ -13.8109592, 29.0347269 ], [ -13.8115711, 29.0337802 ], [ -13.811986, 29.0343294 ], [ -13.8148026, 29.0339213 ], [ -13.8166581, 29.0323215 ], [ -13.8175156, 29.0303084 ], [ -13.8174526, 29.0287854 ], [ -13.816498, 29.0287502 ], [ -13.8177393, 29.0274012 ], [ -13.8173429, 29.0264626 ], [ -13.8181521, 29.0251023 ], [ -13.8190863, 29.0253514 ], [ -13.8184, 29.0248026 ], [ -13.8213788, 29.02075 ], [ -13.8209945, 29.0203081 ], [ -13.8228176, 29.0191773 ], [ -13.8228774, 29.0169254 ], [ -13.8278298, 29.0111421 ], [ -13.8280484, 29.0095888 ], [ -13.8299273, 29.0073421 ], [ -13.8298775, 29.0035571 ], [ -13.8311951, 29.0011252 ], [ -13.8306929, 28.9996083 ], [ -13.8315015, 28.9983103 ], [ -13.8314453, 28.9973234 ], [ -13.8302386, 28.9966542 ], [ -13.8313798, 28.9945032 ], [ -13.8324038, 28.9944079 ], [ -13.8323615, 28.9923397 ], [ -13.8340784, 28.9894892 ], [ -13.8325657, 28.9873464 ], [ -13.8321078, 28.9822139 ], [ -13.8301653, 28.9795956 ], [ -13.8311789, 28.978797 ], [ -13.8295487, 28.978916 ], [ -13.8299506, 28.9779839 ], [ -13.828952, 28.9780304 ], [ -13.8287363, 28.9766915 ], [ -13.8292616, 28.9755312 ], [ -13.8302965, 28.9753789 ], [ -13.8299932, 28.9747735 ], [ -13.8335296, 28.9733613 ], [ -13.8337648, 28.9699809 ], [ -13.8349195, 28.9696964 ], [ -13.834059, 28.9681622 ], [ -13.8346423, 28.9672974 ], [ -13.8335917, 28.9664464 ], [ -13.8342798, 28.9640968 ], [ -13.8305147, 28.9600387 ], [ -13.8324037, 28.9584578 ], [ -13.8323201, 28.9574369 ], [ -13.8337195, 28.9571281 ], [ -13.8331174, 28.9556676 ], [ -13.8342009, 28.9550723 ], [ -13.8327867, 28.9542655 ], [ -13.8343637, 28.9539818 ], [ -13.8334585, 28.9520596 ], [ -13.8344709, 28.9511489 ], [ -13.832528, 28.9494667 ], [ -13.8333105, 28.9483813 ], [ -13.8324898, 28.9482941 ], [ -13.8331112, 28.9456434 ], [ -13.8324429, 28.9446619 ], [ -13.8336187, 28.9429393 ], [ -13.8337474, 28.9406782 ], [ -13.8345637, 28.9404284 ], [ -13.8302419, 28.9344251 ], [ -13.828984, 28.9304052 ], [ -13.8354833, 28.9226331 ], [ -13.8394133, 28.9200045 ], [ -13.8402127, 28.9177884 ], [ -13.8426054, 28.9173859 ], [ -13.8435126, 28.9157864 ], [ -13.8444014, 28.9164254 ], [ -13.8478034, 28.9154328 ], [ -13.8489041, 28.9126345 ], [ -13.8482432, 28.9122872 ], [ -13.850191, 28.9122655 ], [ -13.8508069, 28.911504 ], [ -13.8520042, 28.9073122 ], [ -13.8540665, 28.90748 ], [ -13.854121, 28.9057561 ], [ -13.8572168, 28.9043535 ], [ -13.8565452, 28.9011506 ], [ -13.8567912, 28.8999439 ], [ -13.8582627, 28.899036 ], [ -13.8581591, 28.8974238 ], [ -13.8605879, 28.895764 ], [ -13.8632981, 28.8956636 ], [ -13.8634116, 28.895116 ], [ -13.8664212, 28.8959234 ], [ -13.8664779, 28.8950372 ], [ -13.8687591, 28.8950918 ], [ -13.8692996, 28.893963 ], [ -13.8735192, 28.8940284 ], [ -13.874254, 28.8926064 ], [ -13.8814059, 28.8872057 ], [ -13.8823067, 28.8855675 ] ] ] } }
]
}
