{
"type": "FeatureCollection",
"name": "madeira",
"crs": { "type": "name", "properties": { "name": "urn:ogc:def:crs:OGC:1.3:CRS84" } },
"features": [
{ "type": "Feature", "properties": { }, "geometry": { "type": "MultiPolygon", "coordinates": [ [ [ [ -16.9300666, 32.6359485 ], [ -16.9298668, 32.6357394 ], [ -16.9300331, 32.6355684 ], [ -16.9300666, 32.6359485 ] ] ], [ [ [ -16.848201, 32.6392024 ], [ -16.8482503, 32.6392066 ], [ -16.8482506, 32.6392203 ], [ -16.848201, 32.6392024 ] ] ], [ [ [ -16.8481175, 32.6394562 ], [ -16.8479679, 32.6395093 ], [ -16.8481194, 32.6394136 ], [ -16.8481175, 32.6394562 ] ] ], [ [ [ -16.8993045, 32.6461565 ], [ -16.8991497, 32.6461403 ], [ -16.899099, 32.6460845 ], [ -16.8993045, 32.6461565 ] ] ], [ [ [ -16.8984642, 32.6461391 ], [ -16.8984086, 32.6461151 ], [ -16.8984814, 32.6461129 ], [ -16.8984642, 32.6461391 ] ] ], [ [ [ -16.8897114, 32.6462159 ], [ -16.8897344, 32.6461312 ], [ -16.8898162, 32.6461743 ], [ -16.8897114, 32.6462159 ] ] ], [ [ [ -16.8900511, 32.6462574 ], [ -16.8901306, 32.6461317 ], [ -16.890216, 32.6461416 ], [ -16.8900511, 32.6462574 ] ] ], [ [ [ -16.8991197, 32.6462266 ], [ -16.8991727, 32.6462005 ], [ -16.8991759, 32.6462308 ], [ -16.8991197, 32.6462266 ] ] ], [ [ [ -16.8991835, 32.6463029 ], [ -16.8992487, 32.6463192 ], [ -16.8991787, 32.6463209 ], [ -16.8991835, 32.6463029 ] ] ], [ [ [ -16.8928196, 32.6465805 ], [ -16.8928768, 32.6466249 ], [ -16.8928207, 32.6466395 ], [ -16.8928196, 32.6465805 ] ] ], [ [ [ -17.0408108, 32.6622701 ], [ -17.0409746, 32.6621203 ], [ -17.0412177, 32.6621632 ], [ -17.0411029, 32.6622928 ], [ -17.0408108, 32.6622701 ] ] ], [ [ [ -17.104426, 32.6778747 ], [ -17.1040178, 32.67827 ], [ -17.1038577, 32.6782613 ], [ -17.104426, 32.6778747 ] ] ], [ [ [ -16.7734235, 32.6907257 ], [ -16.7733576, 32.6905899 ], [ -16.7735317, 32.6907718 ], [ -16.7734235, 32.6907257 ] ] ], [ [ [ -17.1880647, 32.7236617 ], [ -17.1881112, 32.72374 ], [ -17.1880193, 32.7237177 ], [ -17.1880647, 32.7236617 ] ] ], [ [ [ -16.7324421, 32.7508724 ], [ -16.7324137, 32.7507402 ], [ -16.7325143, 32.750817 ], [ -16.7324421, 32.7508724 ] ] ], [ [ [ -16.7324121, 32.7510988 ], [ -16.732379, 32.7509829 ], [ -16.7324674, 32.7510769 ], [ -16.7324121, 32.7510988 ] ] ], [ [ [ -16.7325387, 32.7513781 ], [ -16.7323758, 32.7513444 ], [ -16.7325037, 32.7512664 ], [ -16.7325387, 32.7513781 ] ] ], [ [ [ -17.263906, 32.8159557 ], [ -17.2593027, 32.8174332 ], [ -17.2486629, 32.8255292 ], [ -17.246367, 32.8278648 ], [ -17.2436592, 32.8330813 ], [ -17.2299021, 32.8405818 ], [ -17.2237048, 32.846791 ], [ -17.2199587, 32.848629 ], [ -17.2193575, 32.8508433 ], [ -17.2163572, 32.8531579 ], [ -17.2144038, 32.8561468 ], [ -17.2096512, 32.8577032 ], [ -17.2073793, 32.8594245 ], [ -17.2004217, 32.8681753 ], [ -17.1949348, 32.8706178 ], [ -17.1886092, 32.8699209 ], [ -17.1778965, 32.866598 ], [ -17.1720848, 32.8680637 ], [ -17.1710704, 32.8690377 ], [ -17.1701161, 32.8689261 ], [ -17.1698325, 32.8676014 ], [ -17.1649766, 32.8685994 ], [ -17.1657538, 32.8675818 ], [ -17.1637106, 32.8655351 ], [ -17.1652127, 32.8664914 ], [ -17.1667516, 32.8658821 ], [ -17.1639906, 32.8622436 ], [ -17.1581396, 32.8582182 ], [ -17.1516296, 32.8551359 ], [ -17.1499477, 32.8523653 ], [ -17.1499612, 32.8479369 ], [ -17.1407786, 32.8424362 ], [ -17.1404069, 32.840652 ], [ -17.1382342, 32.8390366 ], [ -17.1368864, 32.8357455 ], [ -17.125031, 32.8275483 ], [ -17.1164655, 32.8257674 ], [ -17.1153619, 32.8260376 ], [ -17.1142785, 32.8276349 ], [ -17.1140467, 32.8274096 ], [ -17.1138917, 32.8273951 ], [ -17.1134222, 32.8275757 ], [ -17.1136517, 32.8260889 ], [ -17.1119388, 32.8260211 ], [ -17.1113307, 32.8281231 ], [ -17.1087183, 32.8259103 ], [ -17.1059219, 32.8268075 ], [ -17.1052909, 32.8250238 ], [ -17.1038685, 32.8257453 ], [ -17.1045513, 32.8248553 ], [ -17.1036774, 32.8241299 ], [ -17.1034196, 32.8242835 ], [ -17.1029605, 32.8228762 ], [ -17.1022561, 32.82357 ], [ -17.1028851, 32.8234762 ], [ -17.1030912, 32.8240695 ], [ -17.1020658, 32.8243278 ], [ -17.1023549, 32.8230689 ], [ -17.1013213, 32.8219237 ], [ -17.1024713, 32.8225631 ], [ -17.1029146, 32.8205847 ], [ -17.0982095, 32.8178783 ], [ -17.0967948, 32.8193572 ], [ -17.0967765, 32.8172156 ], [ -17.0932626, 32.8154409 ], [ -17.0824839, 32.8161847 ], [ -17.074712, 32.8137763 ], [ -17.0714634, 32.8142141 ], [ -17.0594891, 32.8100578 ], [ -17.0512271, 32.8084864 ], [ -17.0481105, 32.8093212 ], [ -17.0437932, 32.8120691 ], [ -17.039665, 32.8115046 ], [ -17.0336516, 32.8138118 ], [ -17.0328953, 32.813113 ], [ -17.0274184, 32.8150821 ], [ -17.0160298, 32.8155097 ], [ -17.0071622, 32.8210145 ], [ -16.9990777, 32.8231496 ], [ -16.9933095, 32.828328 ], [ -16.989661, 32.8303662 ], [ -16.9844665, 32.828797 ], [ -16.9833379, 32.8281507 ], [ -16.9848862, 32.8283657 ], [ -16.9825132, 32.8265057 ], [ -16.9768961, 32.828191 ], [ -16.9696175, 32.826587 ], [ -16.9667327, 32.8274383 ], [ -16.9636595, 32.8266499 ], [ -16.9609483, 32.827267 ], [ -16.9604185, 32.8291553 ], [ -16.9594939, 32.8282587 ], [ -16.9489193, 32.8305972 ], [ -16.9413002, 32.8306161 ], [ -16.9321177, 32.8322134 ], [ -16.9305843, 32.8317699 ], [ -16.9260427, 32.8335018 ], [ -16.9220203, 32.8330447 ], [ -16.9141507, 32.8351629 ], [ -16.9122834, 32.8363506 ], [ -16.9072429, 32.8367608 ], [ -16.9052547, 32.8359838 ], [ -16.9037978, 32.8376112 ], [ -16.9042083, 32.8362373 ], [ -16.9021648, 32.834549 ], [ -16.9004283, 32.8347649 ], [ -16.9007733, 32.8339974 ], [ -16.8975621, 32.8300436 ], [ -16.8936202, 32.8287369 ], [ -16.8869178, 32.8282369 ], [ -16.8834396, 32.8265173 ], [ -16.8802504, 32.8215017 ], [ -16.8763669, 32.8180521 ], [ -16.8757798, 32.8165774 ], [ -16.869583, 32.8121069 ], [ -16.8646421, 32.8097284 ], [ -16.8641362, 32.8084514 ], [ -16.8630359, 32.808929 ], [ -16.8638504, 32.8080094 ], [ -16.8634579, 32.8072393 ], [ -16.8615254, 32.8071851 ], [ -16.8605563, 32.8062666 ], [ -16.8544929, 32.8078041 ], [ -16.8544192, 32.807094 ], [ -16.8594791, 32.8037321 ], [ -16.8586235, 32.8024354 ], [ -16.8588692, 32.801882 ], [ -16.8592456, 32.8027204 ], [ -16.859825, 32.8000648 ], [ -16.8588755, 32.7985355 ], [ -16.8544003, 32.7940318 ], [ -16.8521634, 32.7934286 ], [ -16.8487916, 32.7947334 ], [ -16.8480842, 32.7939571 ], [ -16.8489859, 32.7930237 ], [ -16.8479711, 32.7926424 ], [ -16.8491147, 32.7918867 ], [ -16.8480941, 32.7922101 ], [ -16.8466125, 32.7911517 ], [ -16.8467718, 32.7899939 ], [ -16.8450295, 32.7882504 ], [ -16.8407841, 32.786895 ], [ -16.8376985, 32.7875374 ], [ -16.8357105, 32.7870184 ], [ -16.8352312, 32.7846307 ], [ -16.8328206, 32.783424 ], [ -16.8330572, 32.7819419 ], [ -16.8308005, 32.7800533 ], [ -16.8308305, 32.7764785 ], [ -16.8291823, 32.7760406 ], [ -16.8293536, 32.7752144 ], [ -16.8283698, 32.7746829 ], [ -16.8277667, 32.7762408 ], [ -16.8259311, 32.776407 ], [ -16.8274309, 32.7728692 ], [ -16.8220889, 32.7679926 ], [ -16.8200655, 32.7674312 ], [ -16.8161519, 32.7691441 ], [ -16.8094963, 32.767222 ], [ -16.8066788, 32.7650125 ], [ -16.8039101, 32.764466 ], [ -16.8013462, 32.7653228 ], [ -16.8013539, 32.7641816 ], [ -16.7980438, 32.7624615 ], [ -16.7953858, 32.7644401 ], [ -16.7921701, 32.7641486 ], [ -16.7899496, 32.7652886 ], [ -16.7913907, 32.7663464 ], [ -16.7892349, 32.7661938 ], [ -16.7886398, 32.7652233 ], [ -16.7865499, 32.7645418 ], [ -16.78624, 32.7620155 ], [ -16.7840092, 32.7618407 ], [ -16.7840308, 32.7606376 ], [ -16.7829275, 32.7593938 ], [ -16.780268, 32.7595122 ], [ -16.7780593, 32.7577107 ], [ -16.77543, 32.7592448 ], [ -16.7725213, 32.7593577 ], [ -16.7726902, 32.7589488 ], [ -16.7708271, 32.7584561 ], [ -16.7706967, 32.7574815 ], [ -16.7686695, 32.7571844 ], [ -16.7672474, 32.7589879 ], [ -16.7658227, 32.7592211 ], [ -16.7611602, 32.7580868 ], [ -16.7589479, 32.7564106 ], [ -16.7575629, 32.7572713 ], [ -16.7548526, 32.7567963 ], [ -16.754265, 32.7576224 ], [ -16.7477406, 32.7552323 ], [ -16.7449261, 32.7556599 ], [ -16.7408359, 32.7528463 ], [ -16.7404106, 32.751321 ], [ -16.7394083, 32.750885 ], [ -16.7373363, 32.7517579 ], [ -16.7387077, 32.7502475 ], [ -16.7361722, 32.7480694 ], [ -16.7347971, 32.7494 ], [ -16.733967, 32.7488153 ], [ -16.7334987, 32.7493548 ], [ -16.7336161, 32.748392 ], [ -16.7324725, 32.7485436 ], [ -16.7289184, 32.7507069 ], [ -16.7288246, 32.7515032 ], [ -16.7276354, 32.7515932 ], [ -16.7267796, 32.7485168 ], [ -16.7249671, 32.7474898 ], [ -16.7227047, 32.7477432 ], [ -16.722155, 32.7488956 ], [ -16.7205221, 32.7476904 ], [ -16.7168061, 32.7472955 ], [ -16.7163139, 32.7479866 ], [ -16.7156623, 32.7474075 ], [ -16.7139073, 32.7493236 ], [ -16.7101589, 32.7492693 ], [ -16.7094634, 32.7500911 ], [ -16.710284, 32.750576 ], [ -16.7095579, 32.7512694 ], [ -16.7099829, 32.7518006 ], [ -16.7084358, 32.7519957 ], [ -16.7055764, 32.7494222 ], [ -16.6990011, 32.7483032 ], [ -16.6963841, 32.7508411 ], [ -16.6963473, 32.7520472 ], [ -16.6949595, 32.7518383 ], [ -16.6950397, 32.7510319 ], [ -16.6940152, 32.7506484 ], [ -16.691286, 32.7505865 ], [ -16.6907903, 32.7524777 ], [ -16.6921489, 32.7525945 ], [ -16.6921111, 32.7531545 ], [ -16.6914015, 32.7531083 ], [ -16.6910381, 32.7532132 ], [ -16.6888204, 32.7520123 ], [ -16.6895809, 32.7519116 ], [ -16.6900848, 32.7512902 ], [ -16.6892694, 32.7507331 ], [ -16.6903973, 32.7507499 ], [ -16.6901017, 32.7471362 ], [ -16.6885436, 32.7461749 ], [ -16.6876495, 32.7466549 ], [ -16.6877805, 32.7473753 ], [ -16.686747, 32.7477364 ], [ -16.6816046, 32.7466008 ], [ -16.6812306, 32.7454415 ], [ -16.6818975, 32.7454185 ], [ -16.6801117, 32.7438513 ], [ -16.6804026, 32.743093 ], [ -16.681742, 32.7430253 ], [ -16.6802952, 32.7426468 ], [ -16.6807049, 32.7402077 ], [ -16.679733, 32.7397583 ], [ -16.6797556, 32.7387445 ], [ -16.6791422, 32.7388974 ], [ -16.6830908, 32.7370737 ], [ -16.6819241, 32.7384419 ], [ -16.6839033, 32.7406306 ], [ -16.6851996, 32.7409545 ], [ -16.6855699, 32.7420319 ], [ -16.6862591, 32.7419348 ], [ -16.6872195, 32.7451262 ], [ -16.6955772, 32.7477046 ], [ -16.6966191, 32.7472683 ], [ -16.6984283, 32.7439765 ], [ -16.6971781, 32.7410129 ], [ -16.7005541, 32.7414122 ], [ -16.7020504, 32.7402254 ], [ -16.7020408, 32.7392528 ], [ -16.7034686, 32.7388069 ], [ -16.7045598, 32.7397132 ], [ -16.7056356, 32.7393524 ], [ -16.7054704, 32.7402436 ], [ -16.7073082, 32.7419633 ], [ -16.7096376, 32.7417071 ], [ -16.710155, 32.7408721 ], [ -16.71419, 32.7404348 ], [ -16.7105471, 32.7414748 ], [ -16.7125164, 32.7420873 ], [ -16.7134329, 32.7410683 ], [ -16.7142657, 32.7412309 ], [ -16.7158661, 32.7427795 ], [ -16.7166458, 32.7418479 ], [ -16.719064, 32.7416383 ], [ -16.7203478, 32.7425051 ], [ -16.7233003, 32.7415862 ], [ -16.7252217, 32.7423995 ], [ -16.7265657, 32.7417821 ], [ -16.72618, 32.7406586 ], [ -16.7278087, 32.7406878 ], [ -16.730462, 32.7392177 ], [ -16.7309115, 32.7379407 ], [ -16.729444, 32.7383501 ], [ -16.7293475, 32.7381045 ], [ -16.7300039, 32.7370162 ], [ -16.7330648, 32.7338396 ], [ -16.7352672, 32.7329416 ], [ -16.7357669, 32.7330204 ], [ -16.733102, 32.7341289 ], [ -16.7303268, 32.7378459 ], [ -16.7343907, 32.7361021 ], [ -16.7356815, 32.7370891 ], [ -16.7344708, 32.734737 ], [ -16.7371027, 32.7367817 ], [ -16.7404999, 32.7346915 ], [ -16.7419629, 32.7356791 ], [ -16.7459096, 32.7346439 ], [ -16.7473654, 32.732989 ], [ -16.7470807, 32.7315761 ], [ -16.7492633, 32.7312102 ], [ -16.7498116, 32.7294931 ], [ -16.7486131, 32.7282764 ], [ -16.7510568, 32.7280108 ], [ -16.7535731, 32.7257111 ], [ -16.7532579, 32.7243276 ], [ -16.756177, 32.7196898 ], [ -16.7597311, 32.7171596 ], [ -16.7604965, 32.7170932 ], [ -16.7592832, 32.7180597 ], [ -16.7613897, 32.7187529 ], [ -16.7620045, 32.7179371 ], [ -16.7613045, 32.7176237 ], [ -16.7628153, 32.7180931 ], [ -16.7641459, 32.7169973 ], [ -16.7649611, 32.7154071 ], [ -16.7617268, 32.7120314 ], [ -16.7612928, 32.7074219 ], [ -16.7697263, 32.7003807 ], [ -16.7693157, 32.6998941 ], [ -16.7679946, 32.700705 ], [ -16.7699079, 32.6994965 ], [ -16.773473, 32.6909063 ], [ -16.7800418, 32.6896101 ], [ -16.7845596, 32.6874987 ], [ -16.7841715, 32.6880049 ], [ -16.7856296, 32.6882889 ], [ -16.7894804, 32.6880082 ], [ -16.7922713, 32.6860747 ], [ -16.7940611, 32.6833884 ], [ -16.7932064, 32.6842712 ], [ -16.7930333, 32.6841052 ], [ -16.7970996, 32.6802593 ], [ -16.7986293, 32.6769779 ], [ -16.8015394, 32.6738422 ], [ -16.8027175, 32.6702691 ], [ -16.8021696, 32.6673154 ], [ -16.8032267, 32.6660614 ], [ -16.8026084, 32.6644462 ], [ -16.8034416, 32.6629024 ], [ -16.8051318, 32.6635699 ], [ -16.8051718, 32.6626823 ], [ -16.807474, 32.6618082 ], [ -16.8079923, 32.6605264 ], [ -16.8066231, 32.6604394 ], [ -16.8066218, 32.6602027 ], [ -16.8075083, 32.6601412 ], [ -16.8100051, 32.6566052 ], [ -16.812363, 32.655542 ], [ -16.812824, 32.6537823 ], [ -16.8144612, 32.6526843 ], [ -16.8138773, 32.6520645 ], [ -16.8177107, 32.650713 ], [ -16.8176678, 32.6501377 ], [ -16.8199553, 32.6506335 ], [ -16.8220581, 32.6498651 ], [ -16.8223159, 32.6481676 ], [ -16.8237238, 32.6483658 ], [ -16.8232779, 32.6472783 ], [ -16.8239229, 32.6473668 ], [ -16.8232396, 32.6471118 ], [ -16.8241078, 32.6471781 ], [ -16.8242939, 32.6454957 ], [ -16.8280182, 32.6440906 ], [ -16.8297184, 32.6415236 ], [ -16.8310152, 32.6415274 ], [ -16.8312021, 32.6403666 ], [ -16.8324088, 32.6411885 ], [ -16.8368394, 32.6412794 ], [ -16.8423182, 32.6395989 ], [ -16.8470595, 32.6401104 ], [ -16.8496539, 32.6390073 ], [ -16.849233, 32.6375644 ], [ -16.8499125, 32.6363224 ], [ -16.8523265, 32.6380803 ], [ -16.8734196, 32.6444069 ], [ -16.8847655, 32.6461604 ], [ -16.8890457, 32.645662 ], [ -16.889059, 32.6462107 ], [ -16.8906319, 32.6466101 ], [ -16.8958318, 32.6470789 ], [ -16.8985926, 32.6461299 ], [ -16.8997221, 32.6465692 ], [ -16.899711, 32.6457584 ], [ -16.9012408, 32.6457919 ], [ -16.9016144, 32.6464844 ], [ -16.9023568, 32.6456883 ], [ -16.9039274, 32.6465996 ], [ -16.9046845, 32.6461038 ], [ -16.9050548, 32.6467863 ], [ -16.9058594, 32.645409 ], [ -16.9086658, 32.6447381 ], [ -16.9067002, 32.6454144 ], [ -16.9069157, 32.6460449 ], [ -16.9092112, 32.6463287 ], [ -16.9089995, 32.6453428 ], [ -16.9107487, 32.6446925 ], [ -16.9092665, 32.6453498 ], [ -16.9094387, 32.6462042 ], [ -16.9111062, 32.6459498 ], [ -16.9111124, 32.644877 ], [ -16.9126578, 32.6442481 ], [ -16.9126282, 32.6452012 ], [ -16.9129268, 32.6439929 ], [ -16.9170712, 32.6416105 ], [ -16.9068643, 32.6420592 ], [ -16.9069685, 32.6415482 ], [ -16.9152775, 32.6408444 ], [ -16.9210292, 32.6415893 ], [ -16.9227274, 32.6411399 ], [ -16.9234207, 32.6394134 ], [ -16.9250032, 32.6398857 ], [ -16.9260028, 32.6371104 ], [ -16.9284189, 32.637071 ], [ -16.9326313, 32.6351614 ], [ -16.9347998, 32.6364728 ], [ -16.9365054, 32.6356636 ], [ -16.9371774, 32.6362403 ], [ -16.9390525, 32.6356447 ], [ -16.9393415, 32.6337695 ], [ -16.9411556, 32.6343524 ], [ -16.943144, 32.6336543 ], [ -16.9432043, 32.6329471 ], [ -16.9443024, 32.6335104 ], [ -16.9463203, 32.6330853 ], [ -16.9482161, 32.6351694 ], [ -16.9478602, 32.6365932 ], [ -16.9551955, 32.6418832 ], [ -16.9560808, 32.6421444 ], [ -16.9570505, 32.6411543 ], [ -16.9571528, 32.6418551 ], [ -16.9602579, 32.6430335 ], [ -16.9647494, 32.6430225 ], [ -16.9697486, 32.6446121 ], [ -16.9716952, 32.6444485 ], [ -16.9730965, 32.6460225 ], [ -16.9737019, 32.6456008 ], [ -16.9750432, 32.6479811 ], [ -16.9758252, 32.6476724 ], [ -16.975199, 32.6462976 ], [ -16.9756049, 32.6454245 ], [ -16.9755912, 32.6467446 ], [ -16.9774098, 32.6470797 ], [ -16.9803438, 32.6494723 ], [ -16.9822439, 32.6494401 ], [ -16.9861562, 32.6512682 ], [ -16.994597, 32.6508323 ], [ -16.9986266, 32.6529913 ], [ -17.0038735, 32.6539315 ], [ -17.005632, 32.6528919 ], [ -17.0161308, 32.6522792 ], [ -17.0212109, 32.6542695 ], [ -17.0220342, 32.6538095 ], [ -17.0219964, 32.6545488 ], [ -17.0347384, 32.6615141 ], [ -17.037509, 32.6615172 ], [ -17.0443505, 32.6644125 ], [ -17.049458, 32.6648048 ], [ -17.0609613, 32.6692137 ], [ -17.063896, 32.6687966 ], [ -17.0634671, 32.6677038 ], [ -17.066377, 32.6691114 ], [ -17.0657095, 32.6689737 ], [ -17.0659246, 32.6700673 ], [ -17.0666696, 32.6705523 ], [ -17.0675187, 32.6702775 ], [ -17.0679721, 32.6705325 ], [ -17.0686353, 32.67122 ], [ -17.0675213, 32.6704209 ], [ -17.0668995, 32.6708763 ], [ -17.0722894, 32.6755019 ], [ -17.0792747, 32.6769192 ], [ -17.0856351, 32.6795098 ], [ -17.0895556, 32.6784435 ], [ -17.0912048, 32.6791791 ], [ -17.092896, 32.6788895 ], [ -17.0935424, 32.6801363 ], [ -17.0959762, 32.6807046 ], [ -17.0966023, 32.6796497 ], [ -17.09249, 32.6783228 ], [ -17.099525, 32.6795542 ], [ -17.1042841, 32.6782448 ], [ -17.105586, 32.6794344 ], [ -17.1050616, 32.6784658 ], [ -17.1144374, 32.6860906 ], [ -17.1184286, 32.6879811 ], [ -17.1215886, 32.6920176 ], [ -17.1244113, 32.6922546 ], [ -17.125836, 32.6931751 ], [ -17.131544, 32.6987659 ], [ -17.135671, 32.7004454 ], [ -17.1386541, 32.703356 ], [ -17.1438677, 32.7036169 ], [ -17.1522194, 32.7100865 ], [ -17.1589302, 32.7115908 ], [ -17.1672784, 32.7157847 ], [ -17.1686583, 32.7154397 ], [ -17.1678521, 32.7159749 ], [ -17.1686828, 32.7163905 ], [ -17.1691053, 32.7155503 ], [ -17.1690293, 32.7166779 ], [ -17.1709211, 32.7162019 ], [ -17.1721022, 32.717398 ], [ -17.1709489, 32.7169652 ], [ -17.170795, 32.7178466 ], [ -17.173444, 32.7186838 ], [ -17.1736934, 32.7181088 ], [ -17.1718328, 32.7170072 ], [ -17.1716339, 32.71645 ], [ -17.1764294, 32.7190946 ], [ -17.1750487, 32.7187106 ], [ -17.1751218, 32.7196613 ], [ -17.1776866, 32.7206492 ], [ -17.1783106, 32.7199034 ], [ -17.1773024, 32.7194544 ], [ -17.1782444, 32.7196454 ], [ -17.1787411, 32.7207204 ], [ -17.1827517, 32.7226296 ], [ -17.1870661, 32.7232453 ], [ -17.1904168, 32.7249331 ], [ -17.1915351, 32.7245152 ], [ -17.192261, 32.7261789 ], [ -17.1979472, 32.7303587 ], [ -17.2046496, 32.7324803 ], [ -17.2127771, 32.7371172 ], [ -17.2128193, 32.7405594 ], [ -17.2158848, 32.7458865 ], [ -17.2205785, 32.7477622 ], [ -17.2223799, 32.7513913 ], [ -17.2241195, 32.7524054 ], [ -17.2248147, 32.7517264 ], [ -17.2242246, 32.7510415 ], [ -17.2249408, 32.7516735 ], [ -17.2244274, 32.7522683 ], [ -17.2283435, 32.7546921 ], [ -17.2321139, 32.7592433 ], [ -17.2348069, 32.7644888 ], [ -17.2404228, 32.7679107 ], [ -17.2450237, 32.7730778 ], [ -17.2447468, 32.7749359 ], [ -17.2454493, 32.7751232 ], [ -17.2445709, 32.7755414 ], [ -17.2449323, 32.7762854 ], [ -17.2432939, 32.77925 ], [ -17.2431166, 32.7817129 ], [ -17.2463411, 32.787518 ], [ -17.2475629, 32.7940033 ], [ -17.2523358, 32.8031374 ], [ -17.2584084, 32.8072101 ], [ -17.2620535, 32.8086056 ], [ -17.2643119, 32.8109185 ], [ -17.2659245, 32.8143491 ], [ -17.263906, 32.8159557 ] ] ], [ [ [ -16.7401116, 32.7528636 ], [ -16.7395572, 32.7532521 ], [ -16.7393265, 32.7529636 ], [ -16.7401116, 32.7528636 ] ] ], [ [ [ -16.7398938, 32.7533994 ], [ -16.7397465, 32.7534684 ], [ -16.7397682, 32.7533717 ], [ -16.7398938, 32.7533994 ] ] ], [ [ [ -16.7447037, 32.7558846 ], [ -16.7447926, 32.7561724 ], [ -16.7446402, 32.7558855 ], [ -16.7447037, 32.7558846 ] ] ], [ [ [ -16.7791234, 32.7587818 ], [ -16.7792403, 32.7587338 ], [ -16.7793216, 32.758806 ], [ -16.7791234, 32.7587818 ] ] ], [ [ [ -16.7717019, 32.7589286 ], [ -16.7715216, 32.7588544 ], [ -16.7717367, 32.7588597 ], [ -16.7717019, 32.7589286 ] ] ], [ [ [ -16.7764285, 32.7591905 ], [ -16.77631, 32.7590838 ], [ -16.7765175, 32.7591514 ], [ -16.7764285, 32.7591905 ] ] ], [ [ [ -16.7682224, 32.7592288 ], [ -16.7682363, 32.759065 ], [ -16.7682983, 32.7592356 ], [ -16.7682224, 32.7592288 ] ] ], [ [ [ -16.7789654, 32.7592134 ], [ -16.7789645, 32.7591163 ], [ -16.7791099, 32.7591691 ], [ -16.7789654, 32.7592134 ] ] ], [ [ [ -16.7786241, 32.7592394 ], [ -16.7782904, 32.7592049 ], [ -16.778763, 32.7591717 ], [ -16.7786241, 32.7592394 ] ] ], [ [ [ -16.7755369, 32.7593767 ], [ -16.7753823, 32.7592755 ], [ -16.7755788, 32.7593149 ], [ -16.7755369, 32.7593767 ] ] ], [ [ [ -16.7749061, 32.7593998 ], [ -16.7749345, 32.7593195 ], [ -16.7751999, 32.7593786 ], [ -16.7749061, 32.7593998 ] ] ], [ [ [ -16.7680285, 32.7594505 ], [ -16.7678935, 32.7594468 ], [ -16.7682178, 32.7594378 ], [ -16.7680285, 32.7594505 ] ] ], [ [ [ -16.7750758, 32.7594885 ], [ -16.7750535, 32.759416 ], [ -16.7751437, 32.7594621 ], [ -16.7750758, 32.7594885 ] ] ], [ [ [ -16.7810436, 32.7599544 ], [ -16.7811774, 32.759875 ], [ -16.7812715, 32.7599597 ], [ -16.7810436, 32.7599544 ] ] ], [ [ [ -16.7731164, 32.7599665 ], [ -16.7726948, 32.7600535 ], [ -16.7725099, 32.7598511 ], [ -16.7731164, 32.7599665 ] ] ], [ [ [ -16.7938557, 32.7650907 ], [ -16.7931791, 32.764746 ], [ -16.7946606, 32.7649628 ], [ -16.7938557, 32.7650907 ] ] ], [ [ [ -16.8247772, 32.7772713 ], [ -16.8244623, 32.7772518 ], [ -16.8248452, 32.7770376 ], [ -16.8247772, 32.7772713 ] ] ], [ [ [ -16.8237721, 32.7789589 ], [ -16.8235304, 32.7781962 ], [ -16.8242933, 32.7785188 ], [ -16.8237721, 32.7789589 ] ] ], [ [ [ -16.8226288, 32.7805014 ], [ -16.8227827, 32.7802093 ], [ -16.8226511, 32.780512 ], [ -16.8226288, 32.7805014 ] ] ], [ [ [ -17.2469681, 32.7903617 ], [ -17.2471026, 32.7904129 ], [ -17.246959, 32.7904196 ], [ -17.2469681, 32.7903617 ] ] ], [ [ [ -17.2499166, 32.7972151 ], [ -17.2497098, 32.7972949 ], [ -17.2496617, 32.7972498 ], [ -17.2499166, 32.7972151 ] ] ], [ [ [ -16.8644566, 32.8097136 ], [ -16.863507, 32.8112429 ], [ -16.8630829, 32.81106 ], [ -16.8644566, 32.8097136 ] ] ], [ [ [ -17.0957851, 32.8180274 ], [ -17.0957096, 32.8184831 ], [ -17.095459, 32.8182718 ], [ -17.0957851, 32.8180274 ] ] ], [ [ [ -17.0955021, 32.818461 ], [ -17.0952774, 32.8183258 ], [ -17.09538, 32.818264 ], [ -17.0955021, 32.818461 ] ] ], [ [ [ -17.0119178, 32.8184749 ], [ -17.0118629, 32.8186005 ], [ -17.0118097, 32.8185277 ], [ -17.0119178, 32.8184749 ] ] ], [ [ [ -17.0116693, 32.8185317 ], [ -17.0116611, 32.818599 ], [ -17.011613, 32.8185824 ], [ -17.0116693, 32.8185317 ] ] ], [ [ [ -17.0954351, 32.8186341 ], [ -17.0953067, 32.8186511 ], [ -17.0953424, 32.8185696 ], [ -17.0954351, 32.8186341 ] ] ], [ [ [ -17.0112404, 32.8186323 ], [ -17.0111911, 32.818746 ], [ -17.0111458, 32.8186255 ], [ -17.0112404, 32.8186323 ] ] ], [ [ [ -17.1036546, 32.8243609 ], [ -17.1037716, 32.8244345 ], [ -17.103686, 32.8244875 ], [ -17.1036546, 32.8243609 ] ] ], [ [ [ -17.1020676, 32.8241807 ], [ -17.1017776, 32.8244678 ], [ -17.1020317, 32.8241648 ], [ -17.1020676, 32.8241807 ] ] ], [ [ [ -17.108219, 32.8269353 ], [ -17.1080037, 32.8269192 ], [ -17.107927, 32.8265639 ], [ -17.108219, 32.8269353 ] ] ], [ [ [ -17.1073145, 32.8278886 ], [ -17.1064217, 32.827119 ], [ -17.1070759, 32.8266656 ], [ -17.1073145, 32.8278886 ] ] ], [ [ [ -17.1099997, 32.8272795 ], [ -17.109829, 32.8272979 ], [ -17.1098483, 32.8272075 ], [ -17.1099997, 32.8272795 ] ] ], [ [ [ -17.1095018, 32.8272533 ], [ -17.1092899, 32.8273467 ], [ -17.1093283, 32.8272245 ], [ -17.1095018, 32.8272533 ] ] ], [ [ [ -17.1140331, 32.8275521 ], [ -17.1140981, 32.8274879 ], [ -17.1141048, 32.8275617 ], [ -17.1140331, 32.8275521 ] ] ], [ [ [ -17.1132057, 32.8276815 ], [ -17.1131436, 32.8275043 ], [ -17.1132837, 32.8276211 ], [ -17.1132057, 32.8276815 ] ] ], [ [ [ -17.1087878, 32.8276849 ], [ -17.1088648, 32.8276184 ], [ -17.1088442, 32.8277426 ], [ -17.1087878, 32.8276849 ] ] ], [ [ [ -17.1083392, 32.8278121 ], [ -17.1080285, 32.8278038 ], [ -17.1082861, 32.8275208 ], [ -17.1083392, 32.8278121 ] ] ], [ [ [ -16.9679465, 32.828782 ], [ -16.967196, 32.8287351 ], [ -16.967467, 32.8277303 ], [ -16.9679465, 32.828782 ] ] ], [ [ [ -17.1110684, 32.8284307 ], [ -17.1109962, 32.8284283 ], [ -17.11094, 32.8282409 ], [ -17.1110684, 32.8284307 ] ] ], [ [ [ -16.9675292, 32.8290754 ], [ -16.9672133, 32.8288719 ], [ -16.9675537, 32.8288353 ], [ -16.9675292, 32.8290754 ] ] ], [ [ [ -16.9606281, 32.8292106 ], [ -16.9606516, 32.8290446 ], [ -16.9607885, 32.8292676 ], [ -16.9606281, 32.8292106 ] ] ], [ [ [ -16.9605966, 32.8293039 ], [ -16.9605926, 32.8291914 ], [ -16.9607116, 32.8293122 ], [ -16.9605966, 32.8293039 ] ] ], [ [ [ -16.9606, 32.8294474 ], [ -16.9605472, 32.829326 ], [ -16.9606699, 32.8294158 ], [ -16.9606, 32.8294474 ] ] ], [ [ [ -16.9713648, 32.8298386 ], [ -16.9714352, 32.829515 ], [ -16.9716744, 32.8300406 ], [ -16.9713648, 32.8298386 ] ] ], [ [ [ -16.8902364, 32.8302577 ], [ -16.8895911, 32.8304187 ], [ -16.8895893, 32.8298263 ], [ -16.8902364, 32.8302577 ] ] ], [ [ [ -17.1531336, 32.8563471 ], [ -17.1531388, 32.8561926 ], [ -17.1531878, 32.8562031 ], [ -17.1531336, 32.8563471 ] ] ], [ [ [ -17.1527485, 32.8563899 ], [ -17.1525928, 32.8563217 ], [ -17.1527534, 32.8563208 ], [ -17.1527485, 32.8563899 ] ] ], [ [ [ -17.1508425, 32.8564746 ], [ -17.1502737, 32.8573328 ], [ -17.1498994, 32.8568794 ], [ -17.1508425, 32.8564746 ] ] ], [ [ [ -17.1524784, 32.8565153 ], [ -17.1521575, 32.8573546 ], [ -17.1520497, 32.8573609 ], [ -17.1524784, 32.8565153 ] ] ], [ [ [ -17.1649049, 32.8689461 ], [ -17.1641805, 32.8690502 ], [ -17.1639959, 32.8685916 ], [ -17.1649049, 32.8689461 ] ] ], [ [ [ -17.1649427, 32.8704912 ], [ -17.1636602, 32.8699347 ], [ -17.1623433, 32.8698169 ], [ -17.1637155, 32.8691252 ], [ -17.1647822, 32.8694763 ], [ -17.1649427, 32.8704912 ] ] ], [ [ [ -16.6661212, 32.7293618 ], [ -16.6662585, 32.7293775 ], [ -16.6661163, 32.7294232 ], [ -16.6661212, 32.7293618 ] ] ], [ [ [ -16.6659376, 32.7296009 ], [ -16.6661281, 32.7295288 ], [ -16.666175, 32.7295373 ], [ -16.6659376, 32.7296009 ] ] ], [ [ [ -16.6666894, 32.7298724 ], [ -16.6666453, 32.7299156 ], [ -16.6666587, 32.7298572 ], [ -16.6666894, 32.7298724 ] ] ], [ [ [ -16.6701862, 32.7308488 ], [ -16.6701807, 32.7309241 ], [ -16.670143, 32.73092 ], [ -16.6701862, 32.7308488 ] ] ], [ [ [ -16.668953, 32.7309874 ], [ -16.6690525, 32.731033 ], [ -16.668949, 32.7310309 ], [ -16.668953, 32.7309874 ] ] ], [ [ [ -16.6736399, 32.7317136 ], [ -16.6736804, 32.7316016 ], [ -16.6737445, 32.7316517 ], [ -16.6736399, 32.7317136 ] ] ], [ [ [ -16.6722838, 32.7322497 ], [ -16.6723082, 32.7321549 ], [ -16.6723947, 32.7321876 ], [ -16.6722838, 32.7322497 ] ] ], [ [ [ -16.6741095, 32.7325649 ], [ -16.6742344, 32.7325574 ], [ -16.6741347, 32.7326047 ], [ -16.6741095, 32.7325649 ] ] ], [ [ [ -16.6733359, 32.7325899 ], [ -16.6732934, 32.7325407 ], [ -16.6733533, 32.7325521 ], [ -16.6733359, 32.7325899 ] ] ], [ [ [ -16.6695253, 32.734059 ], [ -16.6695537, 32.7341474 ], [ -16.669475, 32.7341329 ], [ -16.6695253, 32.734059 ] ] ], [ [ [ -16.6792125, 32.7383421 ], [ -16.6770124, 32.7402216 ], [ -16.6776682, 32.7383131 ], [ -16.6765688, 32.7389612 ], [ -16.6769956, 32.7375005 ], [ -16.6753408, 32.7353977 ], [ -16.6720285, 32.7353668 ], [ -16.671942, 32.7359602 ], [ -16.6708012, 32.7348974 ], [ -16.6703387, 32.7349632 ], [ -16.6695465, 32.7354789 ], [ -16.6701675, 32.7337518 ], [ -16.666086, 32.7343694 ], [ -16.6652531, 32.7334805 ], [ -16.6656615, 32.7329974 ], [ -16.6621819, 32.7303879 ], [ -16.6651745, 32.7304802 ], [ -16.6655482, 32.7296725 ], [ -16.6666815, 32.7296199 ], [ -16.6664482, 32.7300375 ], [ -16.666858, 32.7310279 ], [ -16.6680679, 32.7304357 ], [ -16.6692309, 32.7314723 ], [ -16.670748, 32.7309392 ], [ -16.6710548, 32.7323124 ], [ -16.6728763, 32.7329592 ], [ -16.6743199, 32.7326178 ], [ -16.6741111, 32.7332993 ], [ -16.6757913, 32.7334336 ], [ -16.6777056, 32.7353271 ], [ -16.6772026, 32.7364513 ], [ -16.6782526, 32.7369111 ], [ -16.678134, 32.7380179 ], [ -16.6792125, 32.7383421 ] ] ], [ [ [ -16.6705823, 32.7349294 ], [ -16.6706607, 32.735026 ], [ -16.6705373, 32.7349585 ], [ -16.6705823, 32.7349294 ] ] ], [ [ [ -16.6694391, 32.735575 ], [ -16.6695617, 32.7356411 ], [ -16.6693931, 32.7356661 ], [ -16.6694391, 32.735575 ] ] ], [ [ [ -16.6757177, 32.7360515 ], [ -16.6756832, 32.7359313 ], [ -16.6757671, 32.7360183 ], [ -16.6757177, 32.7360515 ] ] ], [ [ [ -16.6757517, 32.7362301 ], [ -16.6758571, 32.7361533 ], [ -16.6757984, 32.7362542 ], [ -16.6757517, 32.7362301 ] ] ], [ [ [ -16.6731377, 32.7363446 ], [ -16.6725108, 32.7363728 ], [ -16.6731822, 32.7362113 ], [ -16.6731377, 32.7363446 ] ] ], [ [ [ -16.6749983, 32.7363352 ], [ -16.6750942, 32.7362762 ], [ -16.675082, 32.7363307 ], [ -16.6749983, 32.7363352 ] ] ], [ [ [ -16.6758418, 32.7367424 ], [ -16.675837, 32.7365683 ], [ -16.6759581, 32.7366637 ], [ -16.6758418, 32.7367424 ] ] ], [ [ [ -16.6763865, 32.7370316 ], [ -16.6762396, 32.7369466 ], [ -16.6762285, 32.7368805 ], [ -16.6763804, 32.7369413 ], [ -16.6763865, 32.7370316 ] ] ], [ [ [ -16.6741118, 32.7372861 ], [ -16.6737747, 32.7373054 ], [ -16.6739826, 32.7370128 ], [ -16.6741118, 32.7372861 ] ] ], [ [ [ -16.6757156, 32.7368012 ], [ -16.6752227, 32.7378058 ], [ -16.6753194, 32.736738 ], [ -16.6757156, 32.7368012 ] ] ], [ [ [ -16.6745819, 32.7376692 ], [ -16.6745585, 32.737504 ], [ -16.6746458, 32.737556 ], [ -16.6745819, 32.7376692 ] ] ], [ [ [ -16.6766916, 32.7376771 ], [ -16.6762498, 32.7375229 ], [ -16.6767613, 32.7374393 ], [ -16.6766916, 32.7376771 ] ] ], [ [ [ -16.6764429, 32.7385307 ], [ -16.6761075, 32.7383608 ], [ -16.6763731, 32.7381004 ], [ -16.6764429, 32.7385307 ] ] ], [ [ [ -16.6792527, 32.738446 ], [ -16.6793138, 32.7383944 ], [ -16.6792828, 32.7384777 ], [ -16.6792527, 32.738446 ] ] ], [ [ [ -16.6785981, 32.7399421 ], [ -16.6787005, 32.7398939 ], [ -16.6787356, 32.7399233 ], [ -16.6785981, 32.7399421 ] ] ], [ [ [ -16.6789338, 32.7402447 ], [ -16.6785634, 32.7399768 ], [ -16.6789971, 32.7400789 ], [ -16.6789338, 32.7402447 ] ] ], [ [ [ -16.6798024, 32.7402181 ], [ -16.679815, 32.7400805 ], [ -16.6798636, 32.7400999 ], [ -16.6798024, 32.7402181 ] ] ], [ [ [ -16.6794534, 32.7402288 ], [ -16.6794674, 32.7402769 ], [ -16.6793884, 32.7403098 ], [ -16.6794534, 32.7402288 ] ] ], [ [ [ -16.6801797, 32.7415537 ], [ -16.6799769, 32.7418643 ], [ -16.6795998, 32.7417155 ], [ -16.6801797, 32.7415537 ] ] ], [ [ [ -16.715462, 32.7421495 ], [ -16.7154009, 32.7421049 ], [ -16.7154927, 32.7420057 ], [ -16.715462, 32.7421495 ] ] ], [ [ [ -16.6972472, 32.7451133 ], [ -16.6973213, 32.7451313 ], [ -16.6973634, 32.7451864 ], [ -16.6972472, 32.7451133 ] ] ], [ [ [ -16.6879996, 32.7467185 ], [ -16.6880373, 32.7466678 ], [ -16.6880545, 32.7466887 ], [ -16.6879996, 32.7467185 ] ] ], [ [ [ -16.6950158, 32.7470491 ], [ -16.6949682, 32.7468879 ], [ -16.6951208, 32.7471029 ], [ -16.6950158, 32.7470491 ] ] ], [ [ [ -16.6951392, 32.7473425 ], [ -16.6951274, 32.7474103 ], [ -16.6950886, 32.7473681 ], [ -16.6951392, 32.7473425 ] ] ], [ [ [ -16.6947739, 32.7474323 ], [ -16.6948378, 32.7473765 ], [ -16.6948159, 32.7474584 ], [ -16.6947739, 32.7474323 ] ] ], [ [ [ -16.6895032, 32.74747 ], [ -16.6891527, 32.747506 ], [ -16.6895481, 32.7473813 ], [ -16.6895032, 32.74747 ] ] ], [ [ [ -16.6998245, 32.7491835 ], [ -16.6996319, 32.7489327 ], [ -16.6999426, 32.7490869 ], [ -16.6998245, 32.7491835 ] ] ], [ [ [ -16.6899448, 32.7492177 ], [ -16.6896237, 32.7492661 ], [ -16.689593, 32.749083 ], [ -16.6899448, 32.7492177 ] ] ], [ [ [ -16.7017247, 32.7491115 ], [ -16.7012922, 32.7495713 ], [ -16.7008446, 32.7493871 ], [ -16.7017247, 32.7491115 ] ] ], [ [ [ -16.6984928, 32.7495447 ], [ -16.6984587, 32.7494117 ], [ -16.6985614, 32.7495019 ], [ -16.6984928, 32.7495447 ] ] ], [ [ [ -16.7124118, 32.7495935 ], [ -16.7122153, 32.7496012 ], [ -16.7122509, 32.7494197 ], [ -16.7124118, 32.7495935 ] ] ], [ [ [ -16.7130883, 32.7498019 ], [ -16.7129938, 32.7496515 ], [ -16.7132358, 32.749562 ], [ -16.7130883, 32.7498019 ] ] ], [ [ [ -16.6977379, 32.7498328 ], [ -16.6977985, 32.7496908 ], [ -16.6978307, 32.7498503 ], [ -16.6977379, 32.7498328 ] ] ], [ [ [ -16.7109112, 32.749886 ], [ -16.7106901, 32.749824 ], [ -16.7107271, 32.7497604 ], [ -16.7109112, 32.749886 ] ] ], [ [ [ -16.7201648, 32.7500398 ], [ -16.7201157, 32.7499217 ], [ -16.7202433, 32.7499071 ], [ -16.7201648, 32.7500398 ] ] ], [ [ [ -16.7203276, 32.7500367 ], [ -16.7202649, 32.7499354 ], [ -16.7203964, 32.7499243 ], [ -16.7203276, 32.7500367 ] ] ], [ [ [ -16.6985214, 32.750165 ], [ -16.697977, 32.7501427 ], [ -16.6978195, 32.749988 ], [ -16.6985214, 32.750165 ] ] ], [ [ [ -16.6986316, 32.7505944 ], [ -16.6981047, 32.7506455 ], [ -16.6978903, 32.7504811 ], [ -16.6986316, 32.7505944 ] ] ], [ [ [ -16.7062619, 32.750715 ], [ -16.7058435, 32.7507098 ], [ -16.7057585, 32.7502959 ], [ -16.7062619, 32.750715 ] ] ], [ [ [ -16.6973105, 32.7508241 ], [ -16.6971032, 32.7506679 ], [ -16.6974333, 32.7507753 ], [ -16.6973105, 32.7508241 ] ] ], [ [ [ -16.6888144, 32.7508421 ], [ -16.6884099, 32.7508685 ], [ -16.6888332, 32.7508217 ], [ -16.6888144, 32.7508421 ] ] ], [ [ [ -16.7321011, 32.7507204 ], [ -16.7316865, 32.7509162 ], [ -16.7319408, 32.7505767 ], [ -16.7321011, 32.7507204 ] ] ], [ [ [ -16.7315887, 32.7511557 ], [ -16.7315391, 32.751042 ], [ -16.731632, 32.7510743 ], [ -16.7315887, 32.7511557 ] ] ], [ [ [ -16.7293058, 32.7511696 ], [ -16.729704, 32.7511392 ], [ -16.7296713, 32.7519147 ], [ -16.7293058, 32.7511696 ] ] ], [ [ [ -16.7312933, 32.7519002 ], [ -16.7311151, 32.7516693 ], [ -16.7312856, 32.7516456 ], [ -16.7312933, 32.7519002 ] ] ], [ [ [ -16.689391, 32.7519233 ], [ -16.6892762, 32.7518876 ], [ -16.6894185, 32.7518479 ], [ -16.689391, 32.7519233 ] ] ], [ [ [ -16.6954244, 32.752009 ], [ -16.6956508, 32.7519826 ], [ -16.6956983, 32.7520203 ], [ -16.6954244, 32.752009 ] ] ], [ [ [ -16.7312408, 32.7520972 ], [ -16.7312097, 32.751941 ], [ -16.7313062, 32.7520442 ], [ -16.7312408, 32.7520972 ] ] ], [ [ [ -16.6885378, 32.7521695 ], [ -16.6884078, 32.7520833 ], [ -16.6886078, 32.7521361 ], [ -16.6885378, 32.7521695 ] ] ], [ [ [ -16.7314004, 32.7523168 ], [ -16.7312969, 32.7522392 ], [ -16.7313784, 32.7522145 ], [ -16.7314004, 32.7523168 ] ] ], [ [ [ -16.6971245, 32.752457 ], [ -16.6968136, 32.7522447 ], [ -16.6972661, 32.7523894 ], [ -16.6971245, 32.752457 ] ] ], [ [ [ -16.7089874, 32.7525349 ], [ -16.709049, 32.7522157 ], [ -16.7092722, 32.7525617 ], [ -16.7089874, 32.7525349 ] ] ], [ [ [ -16.7313151, 32.7525774 ], [ -16.7312625, 32.7524477 ], [ -16.7313544, 32.7523869 ], [ -16.7313151, 32.7525774 ] ] ], [ [ [ -16.7276007, 32.7527361 ], [ -16.7278995, 32.7534344 ], [ -16.7277777, 32.7536458 ], [ -16.7276007, 32.7527361 ] ] ], [ [ [ -16.6916764, 32.7532245 ], [ -16.6914415, 32.7531848 ], [ -16.6917962, 32.7531598 ], [ -16.6916764, 32.7532245 ] ] ], [ [ [ -16.6964592, 32.7532199 ], [ -16.6965861, 32.7531696 ], [ -16.6966716, 32.7532131 ], [ -16.6964592, 32.7532199 ] ] ], [ [ [ -16.7297876, 32.7532535 ], [ -16.7295956, 32.7531565 ], [ -16.730021, 32.753099 ], [ -16.7297876, 32.7532535 ] ] ], [ [ [ -16.6943133, 32.75405 ], [ -16.6930895, 32.7544227 ], [ -16.6930995, 32.7537078 ], [ -16.6943133, 32.75405 ] ] ], [ [ [ -16.6946937, 32.7542696 ], [ -16.6944904, 32.7542802 ], [ -16.6946715, 32.7541844 ], [ -16.6946937, 32.7542696 ] ] ], [ [ [ -16.4645877, 32.4039322 ], [ -16.4647691, 32.4041899 ], [ -16.4645312, 32.404198 ], [ -16.4645877, 32.4039322 ] ] ], [ [ [ -16.4629087, 32.4049799 ], [ -16.4630313, 32.4043943 ], [ -16.4635099, 32.4048679 ], [ -16.4629087, 32.4049799 ] ] ], [ [ [ -16.4736987, 32.406728 ], [ -16.4738668, 32.4064079 ], [ -16.4739636, 32.4065922 ], [ -16.4736987, 32.406728 ] ] ], [ [ [ -16.4647651, 32.4066894 ], [ -16.4650209, 32.4065027 ], [ -16.4650359, 32.4065836 ], [ -16.4647651, 32.4066894 ] ] ], [ [ [ -16.4733214, 32.4067031 ], [ -16.4735028, 32.4069608 ], [ -16.4732649, 32.4069689 ], [ -16.4733214, 32.4067031 ] ] ], [ [ [ -16.4738511, 32.4072621 ], [ -16.4739842, 32.4070675 ], [ -16.4741024, 32.4072092 ], [ -16.4738511, 32.4072621 ] ] ], [ [ [ -16.4809561, 32.4122156 ], [ -16.4813341, 32.4119665 ], [ -16.4813913, 32.412303 ], [ -16.4809561, 32.4122156 ] ] ], [ [ [ -16.4847804, 32.4171588 ], [ -16.4850515, 32.417367 ], [ -16.4847516, 32.4173245 ], [ -16.4847804, 32.4171588 ] ] ], [ [ [ -16.4936271, 32.4515244 ], [ -16.493776, 32.452836 ], [ -16.4924027, 32.454145 ], [ -16.4924096, 32.4588255 ], [ -16.4930969, 32.459696 ], [ -16.4918151, 32.4614407 ], [ -16.4926605, 32.4626912 ], [ -16.4913521, 32.4643086 ], [ -16.4910649, 32.4625022 ], [ -16.489272, 32.4612995 ], [ -16.4897891, 32.4599518 ], [ -16.4888067, 32.4573563 ], [ -16.4893812, 32.4527103 ], [ -16.490032, 32.4525387 ], [ -16.489044, 32.4505899 ], [ -16.4901261, 32.4496511 ], [ -16.4878397, 32.4450898 ], [ -16.4870987, 32.4397666 ], [ -16.4858994, 32.438864 ], [ -16.4864473, 32.4372221 ], [ -16.4853517, 32.4365197 ], [ -16.4860835, 32.435816 ], [ -16.4855087, 32.4333081 ], [ -16.4861406, 32.4328226 ], [ -16.4853645, 32.4313238 ], [ -16.4857617, 32.4283084 ], [ -16.4829174, 32.4257113 ], [ -16.4823727, 32.4225379 ], [ -16.4808394, 32.4201775 ], [ -16.4776527, 32.4177533 ], [ -16.4737754, 32.4162146 ], [ -16.4732446, 32.4138746 ], [ -16.471159, 32.4133483 ], [ -16.4693313, 32.4093173 ], [ -16.464739, 32.4061375 ], [ -16.4634186, 32.4037282 ], [ -16.4648462, 32.4044344 ], [ -16.4666213, 32.4040362 ], [ -16.4677011, 32.4052405 ], [ -16.4694821, 32.4052082 ], [ -16.470255, 32.4063723 ], [ -16.4716263, 32.4059984 ], [ -16.4718146, 32.4068644 ], [ -16.4755366, 32.4080933 ], [ -16.4782346, 32.4105365 ], [ -16.4799655, 32.410343 ], [ -16.4797834, 32.4116937 ], [ -16.4810857, 32.4125906 ], [ -16.4849897, 32.4190866 ], [ -16.4855476, 32.4243889 ], [ -16.4863107, 32.4255991 ], [ -16.4880944, 32.4262824 ], [ -16.4874454, 32.427216 ], [ -16.4893906, 32.4299387 ], [ -16.4899919, 32.4332222 ], [ -16.4914756, 32.4345278 ], [ -16.4916753, 32.4365691 ], [ -16.4928441, 32.4364705 ], [ -16.492367, 32.4380968 ], [ -16.4938125, 32.4416236 ], [ -16.4932493, 32.4430828 ], [ -16.4942194, 32.4435962 ], [ -16.4932254, 32.4460118 ], [ -16.4935449, 32.4495085 ], [ -16.4947762, 32.4513115 ], [ -16.4936271, 32.4515244 ] ] ], [ [ [ -16.492906, 32.4373927 ], [ -16.4933917, 32.4377841 ], [ -16.4927075, 32.4375706 ], [ -16.492906, 32.4373927 ] ] ], [ [ [ -16.4935326, 32.4464974 ], [ -16.4936287, 32.4460937 ], [ -16.4937654, 32.4462228 ], [ -16.4935326, 32.4464974 ] ] ], [ [ [ -16.4942743, 32.4504099 ], [ -16.4943188, 32.4500693 ], [ -16.4944872, 32.4503243 ], [ -16.4942743, 32.4504099 ] ] ], [ [ [ -16.4885325, 32.4576456 ], [ -16.4885771, 32.457305 ], [ -16.4887455, 32.4575601 ], [ -16.4885325, 32.4576456 ] ] ], [ [ [ -16.4930231, 32.4764382 ], [ -16.4929384, 32.476068 ], [ -16.4937466, 32.4761447 ], [ -16.4930231, 32.4764382 ] ] ], [ [ [ -16.4943819, 32.4814692 ], [ -16.4946357, 32.4817547 ], [ -16.4943443, 32.4817433 ], [ -16.4943819, 32.4814692 ] ] ], [ [ [ -16.5412155, 32.5644798 ], [ -16.539972, 32.5672637 ], [ -16.5405166, 32.5694285 ], [ -16.5393912, 32.5705838 ], [ -16.5408971, 32.5728319 ], [ -16.5381376, 32.5728255 ], [ -16.5377336, 32.571462 ], [ -16.5358505, 32.570838 ], [ -16.5363193, 32.5697594 ], [ -16.5345716, 32.569146 ], [ -16.5339171, 32.5648395 ], [ -16.5320295, 32.5641812 ], [ -16.5327887, 32.5635056 ], [ -16.5316923, 32.5615791 ], [ -16.5220294, 32.5540292 ], [ -16.5218236, 32.5502187 ], [ -16.5183757, 32.5456591 ], [ -16.5181001, 32.543037 ], [ -16.5165456, 32.5412625 ], [ -16.5168655, 32.5404594 ], [ -16.5147477, 32.5398365 ], [ -16.5140216, 32.5369799 ], [ -16.5121244, 32.5356417 ], [ -16.512388, 32.5344385 ], [ -16.5100228, 32.533717 ], [ -16.5083861, 32.5285585 ], [ -16.500114, 32.5200339 ], [ -16.498761, 32.510803 ], [ -16.4968505, 32.5073405 ], [ -16.4974212, 32.5053531 ], [ -16.4952479, 32.5046593 ], [ -16.4936376, 32.5027811 ], [ -16.4938963, 32.4997447 ], [ -16.493127, 32.4990639 ], [ -16.4934333, 32.4976388 ], [ -16.4926815, 32.4958872 ], [ -16.4932623, 32.4945124 ], [ -16.4910888, 32.49251 ], [ -16.4916293, 32.4912427 ], [ -16.4900401, 32.4913641 ], [ -16.4904434, 32.489906 ], [ -16.4896267, 32.4884249 ], [ -16.4908932, 32.482034 ], [ -16.4903533, 32.4792896 ], [ -16.4920721, 32.4760842 ], [ -16.4927295, 32.4780749 ], [ -16.4939013, 32.4778677 ], [ -16.4945492, 32.4794926 ], [ -16.493813, 32.4848243 ], [ -16.4955617, 32.4864662 ], [ -16.4956633, 32.4877047 ], [ -16.4967346, 32.4879881 ], [ -16.4967408, 32.4894921 ], [ -16.4993688, 32.4905446 ], [ -16.4992169, 32.4924761 ], [ -16.5006087, 32.4923353 ], [ -16.5009672, 32.4936342 ], [ -16.5031417, 32.4953555 ], [ -16.5026723, 32.4963894 ], [ -16.5039043, 32.4971307 ], [ -16.5031592, 32.4973431 ], [ -16.5029144, 32.4991277 ], [ -16.5038966, 32.4995168 ], [ -16.5030638, 32.5011746 ], [ -16.5051948, 32.5062588 ], [ -16.5043771, 32.5069796 ], [ -16.5058815, 32.5079635 ], [ -16.5059971, 32.5094688 ], [ -16.508802, 32.5126654 ], [ -16.5107687, 32.5112514 ], [ -16.5117633, 32.5114007 ], [ -16.5102264, 32.5122148 ], [ -16.5099102, 32.5132707 ], [ -16.5124735, 32.5181355 ], [ -16.5124615, 32.5209587 ], [ -16.5149055, 32.5222259 ], [ -16.5148124, 32.5239307 ], [ -16.5162473, 32.5267867 ], [ -16.5214916, 32.5323855 ], [ -16.5246985, 32.5346464 ], [ -16.5275151, 32.5361414 ], [ -16.5317151, 32.5366758 ], [ -16.5341108, 32.5380702 ], [ -16.534508, 32.5398443 ], [ -16.5377201, 32.5409736 ], [ -16.5375397, 32.541806 ], [ -16.5358282, 32.5421711 ], [ -16.5352815, 32.5441563 ], [ -16.5363268, 32.5443749 ], [ -16.5357262, 32.544605 ], [ -16.5358191, 32.5472534 ], [ -16.5377116, 32.5498856 ], [ -16.5355405, 32.5511184 ], [ -16.5364725, 32.5528329 ], [ -16.53594, 32.5541875 ], [ -16.5374459, 32.5547889 ], [ -16.5364021, 32.5549758 ], [ -16.5359654, 32.5563022 ], [ -16.5368393, 32.5568049 ], [ -16.53684, 32.5587261 ], [ -16.538616, 32.562313 ], [ -16.5412155, 32.5644798 ] ] ], [ [ [ -16.5086948, 32.5308237 ], [ -16.5088367, 32.5306111 ], [ -16.5089789, 32.5306873 ], [ -16.5086948, 32.5308237 ] ] ], [ [ [ -16.5249567, 32.534266 ], [ -16.5251747, 32.534433 ], [ -16.5249047, 32.5343967 ], [ -16.5249567, 32.534266 ] ] ], [ [ [ -16.5263407, 32.5352257 ], [ -16.5265571, 32.5350084 ], [ -16.5266465, 32.5351422 ], [ -16.5263407, 32.5352257 ] ] ], [ [ [ -16.5349295, 32.5383249 ], [ -16.5351044, 32.5385521 ], [ -16.5349112, 32.5385145 ], [ -16.5349295, 32.5383249 ] ] ], [ [ [ -16.5369462, 32.540135 ], [ -16.5371651, 32.5399824 ], [ -16.5372332, 32.5401042 ], [ -16.5369462, 32.540135 ] ] ], [ [ [ -16.5379902, 32.5411946 ], [ -16.5382903, 32.5408884 ], [ -16.5385843, 32.5413444 ], [ -16.5379902, 32.5411946 ] ] ], [ [ [ -16.5177744, 32.5438502 ], [ -16.5179169, 32.5436502 ], [ -16.5179736, 32.5438225 ], [ -16.5177744, 32.5438502 ] ] ], [ [ [ -16.5208338, 32.5498048 ], [ -16.5210813, 32.549775 ], [ -16.520989, 32.5498924 ], [ -16.5208338, 32.5498048 ] ] ], [ [ [ -16.5215144, 32.5509626 ], [ -16.5215797, 32.5506684 ], [ -16.5217314, 32.5509162 ], [ -16.5215144, 32.5509626 ] ] ], [ [ [ -16.5370116, 32.5536426 ], [ -16.5371731, 32.5538941 ], [ -16.5369284, 32.5536546 ], [ -16.5370116, 32.5536426 ] ] ], [ [ [ -16.5370965, 32.5552982 ], [ -16.5370641, 32.5555419 ], [ -16.5369073, 32.5554467 ], [ -16.5370965, 32.5552982 ] ] ], [ [ [ -16.5372018, 32.5572407 ], [ -16.5371128, 32.5574854 ], [ -16.5369623, 32.5574104 ], [ -16.5372018, 32.5572407 ] ] ], [ [ [ -16.5334132, 32.5671255 ], [ -16.5334162, 32.5668328 ], [ -16.5335328, 32.566915 ], [ -16.5334132, 32.5671255 ] ] ], [ [ [ -16.5338509, 32.5679364 ], [ -16.5338539, 32.5676436 ], [ -16.5339705, 32.5677259 ], [ -16.5338509, 32.5679364 ] ] ], [ [ [ -16.5406029, 32.568609 ], [ -16.5409255, 32.568773 ], [ -16.5407097, 32.5688506 ], [ -16.5406029, 32.568609 ] ] ], [ [ [ -16.5402189, 32.5755149 ], [ -16.5404933, 32.5756751 ], [ -16.5403213, 32.5757757 ], [ -16.5402189, 32.5755149 ] ] ], [ [ [ -16.5407758, 32.576231 ], [ -16.5409058, 32.5764713 ], [ -16.5407344, 32.5764139 ], [ -16.5407758, 32.576231 ] ] ], [ [ [ -16.5408995, 32.5767223 ], [ -16.5408227, 32.5769982 ], [ -16.5406972, 32.576839 ], [ -16.5408995, 32.5767223 ] ] ], [ [ [ -16.5481068, 32.5898795 ], [ -16.5447655, 32.5906423 ], [ -16.5434612, 32.5894196 ], [ -16.5430519, 32.5867891 ], [ -16.5438105, 32.5857624 ], [ -16.5430585, 32.5855113 ], [ -16.5432389, 32.5830489 ], [ -16.5418272, 32.5789315 ], [ -16.5407907, 32.5779902 ], [ -16.5411878, 32.5768747 ], [ -16.5426058, 32.5775603 ], [ -16.5445568, 32.5814012 ], [ -16.5461688, 32.5820736 ], [ -16.5456334, 32.5823771 ], [ -16.5462006, 32.5826884 ], [ -16.5459395, 32.5842943 ], [ -16.546822, 32.5846853 ], [ -16.5483179, 32.5877329 ], [ -16.5481068, 32.5898795 ] ] ], [ [ [ -16.5473556, 32.5855187 ], [ -16.5475757, 32.5854733 ], [ -16.5475351, 32.585587 ], [ -16.5473556, 32.5855187 ] ] ], [ [ [ -16.5491263, 32.5884299 ], [ -16.5492879, 32.5885871 ], [ -16.5491111, 32.5885564 ], [ -16.5491263, 32.5884299 ] ] ], [ [ [ -16.5490453, 32.5899697 ], [ -16.548702, 32.5907408 ], [ -16.5483344, 32.590099 ], [ -16.5490453, 32.5899697 ] ] ], [ [ [ -16.5480525, 32.590889 ], [ -16.5479598, 32.5903423 ], [ -16.5481181, 32.5903092 ], [ -16.5480525, 32.590889 ] ] ], [ [ [ -16.5458093, 32.5921812 ], [ -16.5460345, 32.5920286 ], [ -16.5459399, 32.5922174 ], [ -16.5458093, 32.5921812 ] ] ], [ [ [ -16.6599157, 32.7270525 ], [ -16.6595608, 32.7269261 ], [ -16.66, 32.726893 ], [ -16.6599157, 32.7270525 ] ] ], [ [ [ -16.6586155, 32.7274445 ], [ -16.6586492, 32.7275002 ], [ -16.6586024, 32.7274632 ], [ -16.6586155, 32.7274445 ] ] ], [ [ [ -16.6567984, 32.7278925 ], [ -16.6567968, 32.7277531 ], [ -16.656851, 32.7278543 ], [ -16.6567984, 32.7278925 ] ] ], [ [ [ -16.6563139, 32.7278346 ], [ -16.6564002, 32.7278128 ], [ -16.6563563, 32.7279004 ], [ -16.6563139, 32.7278346 ] ] ], [ [ [ -16.6567577, 32.7282118 ], [ -16.6567614, 32.72794 ], [ -16.6568117, 32.728216 ], [ -16.6567577, 32.7282118 ] ] ], [ [ [ -16.6618929, 32.7287641 ], [ -16.6597311, 32.7297354 ], [ -16.66076, 32.7287876 ], [ -16.6593392, 32.7282349 ], [ -16.6576235, 32.7306813 ], [ -16.6552624, 32.7316703 ], [ -16.6573361, 32.7276525 ], [ -16.6615604, 32.7277308 ], [ -16.6618929, 32.7287641 ] ] ], [ [ [ -16.6643613, 32.7299586 ], [ -16.6638729, 32.7295998 ], [ -16.6642718, 32.7295603 ], [ -16.6643613, 32.7299586 ] ] ], [ [ [ -16.6645091, 32.7299826 ], [ -16.6646486, 32.7300364 ], [ -16.6644735, 32.7300074 ], [ -16.6645091, 32.7299826 ] ] ], [ [ [ -16.6641867, 32.7300486 ], [ -16.6643708, 32.7300217 ], [ -16.6643989, 32.7300523 ], [ -16.6641867, 32.7300486 ] ] ], [ [ [ -16.3943948, 33.0060513 ], [ -16.392559, 33.006775 ], [ -16.3930914, 33.0078579 ], [ -16.3921454, 33.0086544 ], [ -16.3923836, 33.0102672 ], [ -16.3911338, 33.0102704 ], [ -16.3905486, 33.0112981 ], [ -16.3884089, 33.0108654 ], [ -16.3876043, 33.0133307 ], [ -16.3830427, 33.0185399 ], [ -16.384162, 33.0199525 ], [ -16.3836936, 33.0209411 ], [ -16.3829577, 33.0208686 ], [ -16.3828937, 33.0198572 ], [ -16.3821155, 33.0189206 ], [ -16.3812091, 33.0107451 ], [ -16.3830444, 33.0091387 ], [ -16.3825009, 33.0081278 ], [ -16.3836227, 33.0053872 ], [ -16.3807409, 33.0030093 ], [ -16.3813543, 33.0005832 ], [ -16.3799259, 32.9977114 ], [ -16.3819299, 32.9961184 ], [ -16.3814235, 32.9975582 ], [ -16.3823689, 32.9985111 ], [ -16.3840616, 32.9987564 ], [ -16.3865143, 32.9975396 ], [ -16.3849925, 33.0023927 ], [ -16.3860556, 33.0028627 ], [ -16.3859464, 33.0037716 ], [ -16.3870384, 33.0036977 ], [ -16.3878942, 33.0047872 ], [ -16.388827, 33.0041407 ], [ -16.3897693, 33.0045048 ], [ -16.392369, 33.0023838 ], [ -16.3919171, 33.0039985 ], [ -16.3939113, 33.0050747 ], [ -16.3943948, 33.0060513 ] ] ], [ [ [ -16.381361, 33.0100247 ], [ -16.3814507, 33.0099587 ], [ -16.3814877, 33.0100603 ], [ -16.381361, 33.0100247 ] ] ], [ [ [ -16.3825103, 33.0200127 ], [ -16.3825404, 33.0199082 ], [ -16.3826363, 33.0199377 ], [ -16.3825103, 33.0200127 ] ] ], [ [ [ -16.3828148, 33.0199761 ], [ -16.3827605, 33.0200089 ], [ -16.3827616, 33.0199725 ], [ -16.3828148, 33.0199761 ] ] ], [ [ [ -16.3844866, 33.0201016 ], [ -16.3844156, 33.0200002 ], [ -16.384465, 33.019973 ], [ -16.3844866, 33.0201016 ] ] ], [ [ [ -16.4100663, 33.0389971 ], [ -16.4102054, 33.0419389 ], [ -16.4067993, 33.0397911 ], [ -16.4057997, 33.0406331 ], [ -16.404993, 33.0392241 ], [ -16.4030823, 33.0397714 ], [ -16.4021786, 33.0392223 ], [ -16.4027346, 33.0386939 ], [ -16.4027751, 33.0382555 ], [ -16.405378, 33.0378065 ], [ -16.4090124, 33.0345315 ], [ -16.4103319, 33.0371808 ], [ -16.4086516, 33.0388283 ], [ -16.4100663, 33.0389971 ] ] ], [ [ [ -16.4024138, 33.0385826 ], [ -16.4013966, 33.0393267 ], [ -16.4010591, 33.0392194 ], [ -16.4024138, 33.0385826 ] ] ], [ [ [ -16.4078936, 33.041013 ], [ -16.4075667, 33.0407761 ], [ -16.4077299, 33.0406989 ], [ -16.4078936, 33.041013 ] ] ], [ [ [ -16.3892535, 33.0429316 ], [ -16.3891772, 33.0428412 ], [ -16.3892717, 33.0428783 ], [ -16.3892535, 33.0429316 ] ] ], [ [ [ -16.3891321, 33.0433198 ], [ -16.3888507, 33.0432484 ], [ -16.3889213, 33.0431097 ], [ -16.3891321, 33.0433198 ] ] ], [ [ [ -16.3893663, 33.0433199 ], [ -16.3892644, 33.0432735 ], [ -16.3893599, 33.0432666 ], [ -16.3893663, 33.0433199 ] ] ], [ [ [ -16.3870974, 33.0477357 ], [ -16.3869376, 33.0484337 ], [ -16.3865469, 33.0489486 ], [ -16.3870974, 33.0477357 ] ] ], [ [ [ -16.3836182, 33.0504736 ], [ -16.3835828, 33.0509752 ], [ -16.3832717, 33.050947 ], [ -16.3836182, 33.0504736 ] ] ], [ [ [ -16.3804583, 33.0563315 ], [ -16.3803281, 33.0563837 ], [ -16.3803552, 33.056247 ], [ -16.3804583, 33.0563315 ] ] ], [ [ [ -16.3769241, 33.0591468 ], [ -16.3767671, 33.0586345 ], [ -16.3768524, 33.0585188 ], [ -16.3769361, 33.0586385 ], [ -16.3769241, 33.0591468 ] ] ], [ [ [ -16.3767575, 33.0595578 ], [ -16.376667, 33.0597568 ], [ -16.3767444, 33.0595471 ], [ -16.3767575, 33.0595578 ] ] ], [ [ [ -16.3796888, 33.0634606 ], [ -16.3795711, 33.0637849 ], [ -16.3790478, 33.0640177 ], [ -16.3796888, 33.0634606 ] ] ], [ [ [ -16.3786631, 33.0644705 ], [ -16.3783188, 33.0649297 ], [ -16.3783909, 33.0644174 ], [ -16.3786631, 33.0644705 ] ] ], [ [ [ -16.3770385, 33.0647991 ], [ -16.376972, 33.0653764 ], [ -16.3767865, 33.0654819 ], [ -16.3766361, 33.065358 ], [ -16.3770385, 33.0647991 ] ] ], [ [ [ -16.3770911, 33.0668129 ], [ -16.3769286, 33.0671887 ], [ -16.3767541, 33.0670994 ], [ -16.3770911, 33.0668129 ] ] ], [ [ [ -16.3766094, 33.0671732 ], [ -16.3765075, 33.0674678 ], [ -16.3763586, 33.0674025 ], [ -16.3766094, 33.0671732 ] ] ], [ [ [ -16.0515813, 30.0288757 ], [ -16.0516073, 30.0287837 ], [ -16.0516517, 30.0288457 ], [ -16.0515813, 30.0288757 ] ] ], [ [ [ -16.0515187, 30.0290445 ], [ -16.0515881, 30.0289623 ], [ -16.0516098, 30.0290223 ], [ -16.0515187, 30.0290445 ] ] ], [ [ [ -16.0514835, 30.0292661 ], [ -16.0515045, 30.0291456 ], [ -16.0515578, 30.0292002 ], [ -16.0514835, 30.0292661 ] ] ], [ [ [ -16.0515698, 30.0324061 ], [ -16.0516694, 30.0324279 ], [ -16.0515886, 30.0324462 ], [ -16.0515698, 30.0324061 ] ] ], [ [ [ -16.0535584, 30.0326134 ], [ -16.0536594, 30.032556 ], [ -16.0536321, 30.0326529 ], [ -16.0535584, 30.0326134 ] ] ], [ [ [ -16.0510963, 30.0328144 ], [ -16.0513156, 30.0327702 ], [ -16.051116, 30.0328722 ], [ -16.0510963, 30.0328144 ] ] ], [ [ [ -16.0538476, 30.0329156 ], [ -16.0538718, 30.0327508 ], [ -16.0539635, 30.0329229 ], [ -16.0538476, 30.0329156 ] ] ], [ [ [ -16.0537443, 30.0336557 ], [ -16.0538125, 30.0335212 ], [ -16.053853, 30.0335594 ], [ -16.0537443, 30.0336557 ] ] ], [ [ [ -16.0534705, 30.0338818 ], [ -16.0535429, 30.0337491 ], [ -16.053638, 30.0337703 ], [ -16.0534705, 30.0338818 ] ] ], [ [ [ -16.0532582, 30.0339478 ], [ -16.0534207, 30.0339575 ], [ -16.0532778, 30.0340064 ], [ -16.0532582, 30.0339478 ] ] ], [ [ [ -16.0519515, 30.0339834 ], [ -16.0520653, 30.0340032 ], [ -16.051973, 30.0340517 ], [ -16.0519515, 30.0339834 ] ] ], [ [ [ -16.0529831, 30.0342119 ], [ -16.0529766, 30.0340363 ], [ -16.0531554, 30.0339964 ], [ -16.0529831, 30.0342119 ] ] ], [ [ [ -16.0515393, 30.0341139 ], [ -16.0517353, 30.0341032 ], [ -16.0515824, 30.034209 ], [ -16.0515393, 30.0341139 ] ] ], [ [ [ -16.0526867, 30.0341433 ], [ -16.0528007, 30.0341591 ], [ -16.0527401, 30.0342052 ], [ -16.0526867, 30.0341433 ] ] ], [ [ [ -16.0523488, 30.0343826 ], [ -16.0522252, 30.0343248 ], [ -16.052656, 30.0342279 ], [ -16.0523488, 30.0343826 ] ] ], [ [ [ -16.0514917, 30.0341437 ], [ -16.050398, 30.0347362 ], [ -16.0497933, 30.0345636 ], [ -16.0514917, 30.0341437 ] ] ], [ [ [ -16.0519968, 30.0347067 ], [ -16.0519824, 30.0345472 ], [ -16.0520478, 30.0345448 ], [ -16.0519968, 30.0347067 ] ] ], [ [ [ -16.051631, 30.0349355 ], [ -16.0517566, 30.0347233 ], [ -16.0518621, 30.0347298 ], [ -16.051631, 30.0349355 ] ] ], [ [ [ -16.0511692, 30.035 ], [ -16.0512922, 30.0348578 ], [ -16.0513888, 30.0349077 ], [ -16.0511692, 30.035 ] ] ], [ [ [ -16.0508457, 30.0351082 ], [ -16.0509971, 30.0349712 ], [ -16.0510506, 30.0350158 ], [ -16.0508457, 30.0351082 ] ] ], [ [ [ -16.0505935, 30.0351034 ], [ -16.0503887, 30.0349624 ], [ -16.0506982, 30.034974 ], [ -16.0505935, 30.0351034 ] ] ], [ [ [ -16.0509114, 30.0354599 ], [ -16.051028, 30.0354294 ], [ -16.0509973, 30.0354761 ], [ -16.0509114, 30.0354599 ] ] ], [ [ [ -16.0506557, 30.0356202 ], [ -16.0506578, 30.035511 ], [ -16.0507277, 30.0355891 ], [ -16.0506557, 30.0356202 ] ] ], [ [ [ -16.0504878, 30.0361794 ], [ -16.0505246, 30.0360683 ], [ -16.0505713, 30.0361233 ], [ -16.0504878, 30.0361794 ] ] ], [ [ [ -16.0502673, 30.0360892 ], [ -16.0502818, 30.036174 ], [ -16.0502407, 30.036133 ], [ -16.0502673, 30.0360892 ] ] ], [ [ [ -16.0505994, 30.0366429 ], [ -16.0506836, 30.0367318 ], [ -16.0505806, 30.0367155 ], [ -16.0505994, 30.0366429 ] ] ], [ [ [ -16.0503971, 30.0401228 ], [ -16.0505689, 30.0399105 ], [ -16.0505273, 30.0401693 ], [ -16.0503971, 30.0401228 ] ] ], [ [ [ -16.0506637, 30.0469195 ], [ -16.0507181, 30.046773 ], [ -16.0508069, 30.0468592 ], [ -16.0506637, 30.0469195 ] ] ], [ [ [ -16.0504974, 30.0470669 ], [ -16.0506729, 30.0470342 ], [ -16.0506901, 30.0471523 ], [ -16.0504974, 30.0470669 ] ] ], [ [ [ -16.0504197, 30.0476622 ], [ -16.0506069, 30.047664 ], [ -16.0506088, 30.0477789 ], [ -16.0504197, 30.0476622 ] ] ], [ [ [ -16.0509511, 30.0480266 ], [ -16.0511063, 30.0479628 ], [ -16.0510672, 30.0480465 ], [ -16.0509511, 30.0480266 ] ] ], [ [ [ -16.2888633, 33.0573207 ], [ -16.2870045, 33.058183 ], [ -16.2872305, 33.0573309 ], [ -16.2836314, 33.0554409 ], [ -16.2818606, 33.0568877 ], [ -16.2788005, 33.055999 ], [ -16.27744, 33.0542264 ], [ -16.2775197, 33.0528706 ], [ -16.2813986, 33.0521483 ], [ -16.2873611, 33.0556534 ], [ -16.2888633, 33.0573207 ] ] ], [ [ [ -16.2929957, 33.0607991 ], [ -16.2922675, 33.0603932 ], [ -16.2919921, 33.060096 ], [ -16.2928376, 33.060225 ], [ -16.2929957, 33.0607991 ] ] ], [ [ [ -16.29332, 33.0612789 ], [ -16.2930672, 33.0611697 ], [ -16.2933691, 33.061239 ], [ -16.29332, 33.0612789 ] ] ], [ [ [ -16.3974566, 33.0395754 ], [ -16.3976485, 33.0409221 ], [ -16.3965688, 33.040617 ], [ -16.3955459, 33.0427478 ], [ -16.394424, 33.0421505 ], [ -16.3929795, 33.043262 ], [ -16.3929331, 33.0423082 ], [ -16.3920775, 33.0429335 ], [ -16.3923524, 33.0420155 ], [ -16.3896721, 33.0425222 ], [ -16.3896685, 33.0417769 ], [ -16.3881832, 33.041535 ], [ -16.3893179, 33.0453559 ], [ -16.3869163, 33.0470517 ], [ -16.386128, 33.0497497 ], [ -16.3850375, 33.0493498 ], [ -16.3830359, 33.0507103 ], [ -16.3827387, 33.0512835 ], [ -16.3835331, 33.0518206 ], [ -16.3823128, 33.0540944 ], [ -16.3814381, 33.0546176 ], [ -16.381216, 33.0537013 ], [ -16.3801798, 33.0534102 ], [ -16.3794206, 33.0548453 ], [ -16.3784336, 33.0547849 ], [ -16.3790581, 33.0552882 ], [ -16.3785664, 33.0558902 ], [ -16.3803449, 33.0561516 ], [ -16.3795683, 33.0579323 ], [ -16.3778319, 33.0587993 ], [ -16.3778571, 33.0580809 ], [ -16.3768651, 33.0582009 ], [ -16.3756636, 33.0601402 ], [ -16.3760628, 33.0626447 ], [ -16.3773015, 33.0634622 ], [ -16.3765011, 33.0652867 ], [ -16.3757154, 33.0652892 ], [ -16.3756878, 33.066393 ], [ -16.3764647, 33.0665917 ], [ -16.3759439, 33.0676231 ], [ -16.3764822, 33.0675549 ], [ -16.3745482, 33.068329 ], [ -16.375389, 33.0685317 ], [ -16.373569, 33.0702576 ], [ -16.375861, 33.0723051 ], [ -16.3754242, 33.0730847 ], [ -16.3773579, 33.0731736 ], [ -16.3771513, 33.0748098 ], [ -16.3753222, 33.0743989 ], [ -16.3765483, 33.07597 ], [ -16.3729241, 33.0768633 ], [ -16.3718185, 33.0764633 ], [ -16.3718261, 33.0774794 ], [ -16.3699345, 33.0772833 ], [ -16.3709602, 33.0784949 ], [ -16.3710813, 33.0804354 ], [ -16.3721567, 33.0801945 ], [ -16.3702201, 33.0825602 ], [ -16.3684033, 33.0816914 ], [ -16.3671772, 33.082545 ], [ -16.3674789, 33.0819529 ], [ -16.3666906, 33.0820023 ], [ -16.3658845, 33.0830209 ], [ -16.3655883, 33.0822966 ], [ -16.3653851, 33.083376 ], [ -16.3652858, 33.082657 ], [ -16.3637634, 33.0829242 ], [ -16.3640105, 33.083376 ], [ -16.3638012, 33.0836335 ], [ -16.3632422, 33.0837431 ], [ -16.3617753, 33.0831914 ], [ -16.361464, 33.0839665 ], [ -16.3601471, 33.0830705 ], [ -16.3596215, 33.0851998 ], [ -16.3580727, 33.0848886 ], [ -16.3582357, 33.0863559 ], [ -16.3571611, 33.0866644 ], [ -16.3570159, 33.0873569 ], [ -16.3582119, 33.0876933 ], [ -16.3577722, 33.0882357 ], [ -16.3562898, 33.0877114 ], [ -16.3558629, 33.0885654 ], [ -16.3564903, 33.0892938 ], [ -16.355608, 33.0892166 ], [ -16.3553324, 33.0905619 ], [ -16.3529335, 33.0908769 ], [ -16.3539221, 33.0928365 ], [ -16.351645, 33.0932261 ], [ -16.3495172, 33.092174 ], [ -16.3471658, 33.0948312 ], [ -16.3441449, 33.0948166 ], [ -16.3444695, 33.0957411 ], [ -16.3429119, 33.0960042 ], [ -16.3435542, 33.0964045 ], [ -16.3424259, 33.096685 ], [ -16.3429369, 33.097386 ], [ -16.3424165, 33.0976894 ], [ -16.3396394, 33.0976256 ], [ -16.3386872, 33.0967226 ], [ -16.339083, 33.0971913 ], [ -16.3384248, 33.097152 ], [ -16.3381679, 33.0986393 ], [ -16.3394024, 33.0991409 ], [ -16.33655, 33.0991504 ], [ -16.3348395, 33.0977723 ], [ -16.3359871, 33.0992124 ], [ -16.3354898, 33.0999546 ], [ -16.334418, 33.0989222 ], [ -16.332827, 33.0997977 ], [ -16.3346441, 33.1008663 ], [ -16.3321389, 33.1017592 ], [ -16.3301718, 33.1013929 ], [ -16.3301803, 33.1005924 ], [ -16.3294279, 33.1008963 ], [ -16.3292205, 33.1023425 ], [ -16.3274619, 33.1023204 ], [ -16.3283498, 33.1024992 ], [ -16.3277368, 33.1031937 ], [ -16.3261071, 33.1029125 ], [ -16.3238745, 33.1038509 ], [ -16.3243434, 33.1041947 ], [ -16.32354, 33.1066518 ], [ -16.3213681, 33.10745 ], [ -16.3219554, 33.1054066 ], [ -16.3208624, 33.1044195 ], [ -16.3198785, 33.1051627 ], [ -16.3191915, 33.1048036 ], [ -16.3182653, 33.1035417 ], [ -16.318664, 33.1028654 ], [ -16.31684, 33.1026622 ], [ -16.3168469, 33.102062 ], [ -16.3146351, 33.1032149 ], [ -16.3120817, 33.1026569 ], [ -16.3117464, 33.1012508 ], [ -16.3107983, 33.1013891 ], [ -16.3109404, 33.1004548 ], [ -16.3090898, 33.0995707 ], [ -16.3099324, 33.0991343 ], [ -16.308996, 33.0988791 ], [ -16.3099725, 33.0978545 ], [ -16.3088776, 33.0971098 ], [ -16.3079306, 33.0980546 ], [ -16.3070999, 33.0969657 ], [ -16.3048003, 33.0966695 ], [ -16.304377, 33.0976662 ], [ -16.3006907, 33.0964646 ], [ -16.2978357, 33.0972595 ], [ -16.2969166, 33.0999255 ], [ -16.295816, 33.1003677 ], [ -16.2944934, 33.0996123 ], [ -16.2936994, 33.0979643 ], [ -16.2940699, 33.0952677 ], [ -16.293238, 33.0941961 ], [ -16.2952067, 33.0925664 ], [ -16.2939517, 33.0910435 ], [ -16.2959644, 33.0913009 ], [ -16.2970849, 33.0903444 ], [ -16.2975484, 33.089496 ], [ -16.2967535, 33.0883381 ], [ -16.2988581, 33.0873511 ], [ -16.298332, 33.0853492 ], [ -16.2993992, 33.0843149 ], [ -16.2984941, 33.082913 ], [ -16.2967593, 33.0834846 ], [ -16.2942876, 33.0827874 ], [ -16.2940902, 33.0810269 ], [ -16.2920135, 33.0790722 ], [ -16.2930898, 33.0785144 ], [ -16.2925948, 33.0773109 ], [ -16.2892753, 33.07597 ], [ -16.2899333, 33.075376 ], [ -16.2919818, 33.0760967 ], [ -16.2939988, 33.075658 ], [ -16.2938739, 33.0745899 ], [ -16.2946064, 33.074823 ], [ -16.2945034, 33.0737045 ], [ -16.2955435, 33.0734471 ], [ -16.2967934, 33.0715384 ], [ -16.2958696, 33.0705145 ], [ -16.2980838, 33.0697412 ], [ -16.2977403, 33.068007 ], [ -16.2965116, 33.0677789 ], [ -16.2964489, 33.0654871 ], [ -16.2958593, 33.0647108 ], [ -16.2953226, 33.0652662 ], [ -16.2951049, 33.0650679 ], [ -16.2956061, 33.0645169 ], [ -16.2946329, 33.0630672 ], [ -16.2952078, 33.0619275 ], [ -16.2929481, 33.0603697 ], [ -16.2930768, 33.0598229 ], [ -16.2959022, 33.0609664 ], [ -16.297645, 33.0597237 ], [ -16.3002579, 33.0599033 ], [ -16.3026575, 33.0619858 ], [ -16.3073394, 33.0628952 ], [ -16.3101585, 33.0621926 ], [ -16.3100523, 33.0598775 ], [ -16.3108041, 33.0586095 ], [ -16.3143742, 33.0579196 ], [ -16.3106961, 33.0591927 ], [ -16.3105832, 33.0621798 ], [ -16.3129493, 33.0630205 ], [ -16.3171675, 33.062986 ], [ -16.3161829, 33.0614597 ], [ -16.315273, 33.0617266 ], [ -16.3160534, 33.0613287 ], [ -16.315216, 33.0595015 ], [ -16.3177696, 33.0628846 ], [ -16.3231497, 33.0623696 ], [ -16.3273327, 33.0609395 ], [ -16.3395236, 33.0543904 ], [ -16.3573587, 33.0381087 ], [ -16.3619472, 33.0353868 ], [ -16.365262, 33.0323179 ], [ -16.377296, 33.0249136 ], [ -16.3798076, 33.0241194 ], [ -16.3812876, 33.0243395 ], [ -16.3812039, 33.0251921 ], [ -16.3817781, 33.0246316 ], [ -16.3819994, 33.0246496 ], [ -16.3812243, 33.0254718 ], [ -16.3828698, 33.0265638 ], [ -16.3823235, 33.0275478 ], [ -16.3830002, 33.0285289 ], [ -16.384068, 33.0283495 ], [ -16.3837367, 33.0291853 ], [ -16.3845531, 33.0296135 ], [ -16.3835868, 33.0304748 ], [ -16.3841037, 33.0309666 ], [ -16.385945, 33.0299028 ], [ -16.3878211, 33.0315786 ], [ -16.3873213, 33.0327415 ], [ -16.3885269, 33.0315069 ], [ -16.3888923, 33.0328108 ], [ -16.3893683, 33.0315277 ], [ -16.3913803, 33.0310644 ], [ -16.3912068, 33.0321947 ], [ -16.3916629, 33.0316238 ], [ -16.3931296, 33.0322998 ], [ -16.3921479, 33.0334831 ], [ -16.3928212, 33.0337178 ], [ -16.3926736, 33.0350363 ], [ -16.3936098, 33.034821 ], [ -16.3938427, 33.0368626 ], [ -16.3948141, 33.0370104 ], [ -16.3952429, 33.0399998 ], [ -16.3974566, 33.0395754 ] ] ], [ [ [ -16.3756437, 33.0688628 ], [ -16.3753881, 33.0687865 ], [ -16.3755259, 33.0686452 ], [ -16.3756437, 33.0688628 ] ] ], [ [ [ -16.3758087, 33.0717368 ], [ -16.3754739, 33.0716588 ], [ -16.3758, 33.0716159 ], [ -16.3758087, 33.0717368 ] ] ], [ [ [ -16.2959554, 33.0721289 ], [ -16.2958699, 33.0718917 ], [ -16.2960415, 33.0720121 ], [ -16.2959554, 33.0721289 ] ] ], [ [ [ -16.2955074, 33.0722868 ], [ -16.2952224, 33.0725338 ], [ -16.2952361, 33.0723508 ], [ -16.2955074, 33.0722868 ] ] ], [ [ [ -16.376085, 33.0723003 ], [ -16.3759413, 33.0727068 ], [ -16.3758481, 33.0726943 ], [ -16.376085, 33.0723003 ] ] ], [ [ [ -16.2941697, 33.0743347 ], [ -16.2940203, 33.0744107 ], [ -16.2941017, 33.0742137 ], [ -16.2941697, 33.0743347 ] ] ], [ [ [ -16.292508, 33.0756127 ], [ -16.2920995, 33.0753758 ], [ -16.2919886, 33.0752683 ], [ -16.292508, 33.0756127 ] ] ], [ [ [ -16.2926598, 33.0758026 ], [ -16.2927523, 33.0757982 ], [ -16.2927638, 33.0758702 ], [ -16.2926598, 33.0758026 ] ] ], [ [ [ -16.3711246, 33.0780137 ], [ -16.3709323, 33.0781395 ], [ -16.3711031, 33.0779516 ], [ -16.3711246, 33.0780137 ] ] ], [ [ [ -16.3707526, 33.0821594 ], [ -16.3706259, 33.0822981 ], [ -16.3706253, 33.0822174 ], [ -16.3707526, 33.0821594 ] ] ], [ [ [ -16.3651588, 33.0829856 ], [ -16.3650861, 33.083131 ], [ -16.3650649, 33.0829253 ], [ -16.3651588, 33.0829856 ] ] ], [ [ [ -16.3604635, 33.0834439 ], [ -16.3603572, 33.0834178 ], [ -16.3603628, 33.083398 ], [ -16.3604635, 33.0834439 ] ] ], [ [ [ -16.364168, 33.0834517 ], [ -16.364074, 33.0836152 ], [ -16.3640652, 33.0835309 ], [ -16.364168, 33.0834517 ] ] ], [ [ [ -16.3598475, 33.0846105 ], [ -16.3599016, 33.0851492 ], [ -16.3598306, 33.0851352 ], [ -16.3598475, 33.0846105 ] ] ], [ [ [ -16.3446549, 33.0953322 ], [ -16.3444113, 33.095101 ], [ -16.3445623, 33.0950582 ], [ -16.3446549, 33.0953322 ] ] ], [ [ [ -16.3454185, 33.0952186 ], [ -16.3449452, 33.095827 ], [ -16.3447641, 33.0951482 ], [ -16.3454185, 33.0952186 ] ] ], [ [ [ -16.3009466, 33.0968122 ], [ -16.3010326, 33.0968596 ], [ -16.3009717, 33.0969107 ], [ -16.3009466, 33.0968122 ] ] ], [ [ [ -16.3045548, 33.098048 ], [ -16.3044968, 33.0979246 ], [ -16.3046153, 33.0980307 ], [ -16.3045548, 33.098048 ] ] ], [ [ [ -16.3168392, 33.1027255 ], [ -16.3167551, 33.1026886 ], [ -16.3168318, 33.1026849 ], [ -16.3168392, 33.1027255 ] ] ], [ [ [ -16.2912381, 33.1019591 ], [ -16.2886632, 33.1044406 ], [ -16.2872584, 33.1035092 ], [ -16.2874283, 33.1022287 ], [ -16.2884618, 33.1018696 ], [ -16.2912381, 33.1019591 ] ] ], [ [ [ -16.3706174, 33.1041688 ], [ -16.3692406, 33.1033679 ], [ -16.3687343, 33.102319 ], [ -16.3704607, 33.1025825 ], [ -16.3706174, 33.1041688 ] ] ], [ [ [ -16.3153772, 33.1031602 ], [ -16.3152166, 33.1033304 ], [ -16.3151215, 33.1032445 ], [ -16.3153772, 33.1031602 ] ] ], [ [ [ -16.3133528, 33.1031494 ], [ -16.3127124, 33.1033961 ], [ -16.3126004, 33.1030878 ], [ -16.3133528, 33.1031494 ] ] ], [ [ [ -16.31711, 33.1032918 ], [ -16.3171984, 33.1032457 ], [ -16.3172187, 33.103289 ], [ -16.31711, 33.1032918 ] ] ], [ [ [ -16.313931, 33.1033776 ], [ -16.3136224, 33.103378 ], [ -16.3138186, 33.1032706 ], [ -16.313931, 33.1033776 ] ] ], [ [ [ -16.3181539, 33.103326 ], [ -16.3177432, 33.1034962 ], [ -16.3174328, 33.1034652 ], [ -16.3181539, 33.103326 ] ] ], [ [ [ -16.3143622, 33.1034899 ], [ -16.3141631, 33.1034014 ], [ -16.3143585, 33.1033758 ], [ -16.3143622, 33.1034899 ] ] ], [ [ [ -16.3152419, 33.1034543 ], [ -16.31472, 33.1035096 ], [ -16.3146908, 33.1033488 ], [ -16.3152419, 33.1034543 ] ] ], [ [ [ -16.3260443, 33.104227 ], [ -16.3252907, 33.1040097 ], [ -16.3251896, 33.1038717 ], [ -16.3260443, 33.104227 ] ] ], [ [ [ -16.3262329, 33.104373 ], [ -16.3260397, 33.1043027 ], [ -16.3262337, 33.1043541 ], [ -16.3262329, 33.104373 ] ] ], [ [ [ -16.3210315, 33.1064455 ], [ -16.3208297, 33.1063421 ], [ -16.3210522, 33.1064212 ], [ -16.3210315, 33.1064455 ] ] ], [ [ [ -16.3228867, 33.1090309 ], [ -16.3221527, 33.1089844 ], [ -16.3222313, 33.1081663 ], [ -16.3227739, 33.1083744 ], [ -16.3228867, 33.1090309 ] ] ], [ [ [ -16.2856339, 33.113784 ], [ -16.2852012, 33.1135293 ], [ -16.2855381, 33.1134034 ], [ -16.2856339, 33.113784 ] ] ], [ [ [ -16.2864368, 33.1144738 ], [ -16.2857111, 33.1136742 ], [ -16.2861974, 33.113359 ], [ -16.2867484, 33.1140402 ], [ -16.2864368, 33.1144738 ] ] ], [ [ [ -16.2866672, 33.1259891 ], [ -16.2854832, 33.1281601 ], [ -16.2839827, 33.1261046 ], [ -16.2861282, 33.1242905 ], [ -16.2866672, 33.1259891 ] ] ], [ [ [ -16.0364006, 30.0295664 ], [ -16.0359557, 30.0292715 ], [ -16.0362812, 30.0292168 ], [ -16.0364006, 30.0295664 ] ] ], [ [ [ -16.0378915, 30.0304244 ], [ -16.0378575, 30.030541 ], [ -16.0377655, 30.0304928 ], [ -16.0378915, 30.0304244 ] ] ], [ [ [ -16.0494635, 30.0307377 ], [ -16.0494741, 30.0305944 ], [ -16.0495472, 30.0306847 ], [ -16.0494635, 30.0307377 ] ] ], [ [ [ -16.0488024, 30.0308151 ], [ -16.0489242, 30.0308223 ], [ -16.048839, 30.0308672 ], [ -16.0488024, 30.0308151 ] ] ], [ [ [ -16.0468526, 30.0313374 ], [ -16.0469115, 30.0312483 ], [ -16.0469607, 30.0313114 ], [ -16.0468526, 30.0313374 ] ] ], [ [ [ -16.0472706, 30.0314542 ], [ -16.0473398, 30.0313674 ], [ -16.0473753, 30.0314476 ], [ -16.0472706, 30.0314542 ] ] ], [ [ [ -16.0469247, 30.0315318 ], [ -16.0469582, 30.031429 ], [ -16.0470243, 30.0314911 ], [ -16.0469247, 30.0315318 ] ] ], [ [ [ -16.0512939, 30.0294939 ], [ -16.049798, 30.0317627 ], [ -16.050987, 30.0329464 ], [ -16.0492945, 30.0336585 ], [ -16.0480991, 30.0329137 ], [ -16.0478692, 30.031407 ], [ -16.0486083, 30.0314896 ], [ -16.0512939, 30.0294939 ] ] ], [ [ [ -16.0473772, 30.0318112 ], [ -16.0472727, 30.0317405 ], [ -16.0474455, 30.0317302 ], [ -16.0473772, 30.0318112 ] ] ], [ [ [ -16.0485655, 30.0336486 ], [ -16.0485221, 30.0337456 ], [ -16.0484813, 30.0336724 ], [ -16.0485655, 30.0336486 ] ] ], [ [ [ -16.0321229, 30.033935 ], [ -16.032257, 30.0339238 ], [ -16.032205, 30.033975 ], [ -16.0321229, 30.033935 ] ] ], [ [ [ -16.0498767, 30.0339341 ], [ -16.0499969, 30.0339447 ], [ -16.0499219, 30.0340014 ], [ -16.0498767, 30.0339341 ] ] ], [ [ [ -16.0495301, 30.0343741 ], [ -16.0496372, 30.03441 ], [ -16.0495708, 30.0344376 ], [ -16.0495301, 30.0343741 ] ] ], [ [ [ -16.0320776, 30.0343495 ], [ -16.0321749, 30.0344503 ], [ -16.0320233, 30.0344617 ], [ -16.0320776, 30.0343495 ] ] ], [ [ [ -16.0493987, 30.034557 ], [ -16.0495205, 30.0345115 ], [ -16.0494945, 30.0345794 ], [ -16.0493987, 30.034557 ] ] ], [ [ [ -16.0496573, 30.0347176 ], [ -16.0496939, 30.03482 ], [ -16.0496296, 30.0347878 ], [ -16.0496573, 30.0347176 ] ] ], [ [ [ -16.050214, 30.0347571 ], [ -16.050251, 30.0348309 ], [ -16.0501658, 30.0348206 ], [ -16.050214, 30.0347571 ] ] ], [ [ [ -16.0501002, 30.0350227 ], [ -16.0500689, 30.0348995 ], [ -16.0501179, 30.0349117 ], [ -16.0501002, 30.0350227 ] ] ], [ [ [ -16.0499895, 30.0354826 ], [ -16.049858, 30.0354021 ], [ -16.0500462, 30.0353856 ], [ -16.0499895, 30.0354826 ] ] ], [ [ [ -16.0320148, 30.035481 ], [ -16.0320917, 30.0355428 ], [ -16.0320039, 30.0355455 ], [ -16.0320148, 30.035481 ] ] ], [ [ [ -16.0324856, 30.0360749 ], [ -16.0320819, 30.0352594 ], [ -16.0320712, 30.0351285 ], [ -16.0324856, 30.0360749 ] ] ], [ [ [ -16.0494478, 30.0357114 ], [ -16.0495582, 30.0356619 ], [ -16.0495279, 30.0357235 ], [ -16.0494478, 30.0357114 ] ] ], [ [ [ -16.0497995, 30.0357213 ], [ -16.0499172, 30.0357084 ], [ -16.0498688, 30.0357656 ], [ -16.0497995, 30.0357213 ] ] ], [ [ [ -16.0346615, 30.03596 ], [ -16.0345905, 30.03584 ], [ -16.0347066, 30.0358946 ], [ -16.0346615, 30.03596 ] ] ], [ [ [ -16.0322166, 30.0359925 ], [ -16.0323456, 30.0359553 ], [ -16.0323471, 30.0360084 ], [ -16.0322166, 30.0359925 ] ] ], [ [ [ -16.0501182, 30.03595 ], [ -16.0502026, 30.0359883 ], [ -16.0501297, 30.0360124 ], [ -16.0501182, 30.03595 ] ] ], [ [ [ -16.0334688, 30.036162 ], [ -16.0331158, 30.0360284 ], [ -16.033621, 30.0360027 ], [ -16.0334688, 30.036162 ] ] ], [ [ [ -16.0324231, 30.0362927 ], [ -16.0325728, 30.0362412 ], [ -16.0325184, 30.0363382 ], [ -16.0324231, 30.0362927 ] ] ], [ [ [ -16.0322823, 30.0363079 ], [ -16.0323639, 30.0363776 ], [ -16.0322737, 30.0363743 ], [ -16.0322823, 30.0363079 ] ] ], [ [ [ -16.0331739, 30.0364515 ], [ -16.0331245, 30.0363045 ], [ -16.0332607, 30.0363427 ], [ -16.0331739, 30.0364515 ] ] ], [ [ [ -16.0502564, 30.0365247 ], [ -16.0503056, 30.0366183 ], [ -16.050197, 30.0365864 ], [ -16.0502564, 30.0365247 ] ] ], [ [ [ -16.0346727, 30.0365177 ], [ -16.0347636, 30.0366424 ], [ -16.0346779, 30.0366397 ], [ -16.0346727, 30.0365177 ] ] ], [ [ [ -16.0499448, 30.036606 ], [ -16.0500675, 30.0365461 ], [ -16.0500963, 30.036573 ], [ -16.0499448, 30.036606 ] ] ], [ [ [ -16.0498423, 30.0366505 ], [ -16.0497328, 30.036544 ], [ -16.0498947, 30.0366041 ], [ -16.0498423, 30.0366505 ] ] ], [ [ [ -16.0346635, 30.0367567 ], [ -16.0347207, 30.0368291 ], [ -16.0346542, 30.0368008 ], [ -16.0346635, 30.0367567 ] ] ], [ [ [ -16.033246, 30.0371305 ], [ -16.0333802, 30.0371142 ], [ -16.0333654, 30.0371872 ], [ -16.033246, 30.0371305 ] ] ], [ [ [ -16.033181, 30.0375851 ], [ -16.0332928, 30.0375258 ], [ -16.0332643, 30.0376089 ], [ -16.033181, 30.0375851 ] ] ], [ [ [ -16.0328157, 30.0378048 ], [ -16.0328611, 30.0377024 ], [ -16.0329105, 30.0377616 ], [ -16.0328157, 30.0378048 ] ] ], [ [ [ -16.0329961, 30.03797 ], [ -16.0330267, 30.0378605 ], [ -16.0330794, 30.0379292 ], [ -16.0329961, 30.03797 ] ] ], [ [ [ -16.0326926, 30.0379482 ], [ -16.0327872, 30.0378837 ], [ -16.0328075, 30.0379569 ], [ -16.0326926, 30.0379482 ] ] ], [ [ [ -16.0332129, 30.0381416 ], [ -16.0333248, 30.038078 ], [ -16.0333312, 30.0381382 ], [ -16.0332129, 30.0381416 ] ] ], [ [ [ -16.0333197, 30.0382814 ], [ -16.0334334, 30.0382592 ], [ -16.0333692, 30.0383288 ], [ -16.0333197, 30.0382814 ] ] ], [ [ [ -16.0329815, 30.0383682 ], [ -16.033121, 30.0383282 ], [ -16.0330672, 30.0384215 ], [ -16.0329815, 30.0383682 ] ] ], [ [ [ -16.0496967, 30.0393226 ], [ -16.0491994, 30.0389115 ], [ -16.0498164, 30.0390326 ], [ -16.0496967, 30.0393226 ] ] ], [ [ [ -16.0492574, 30.0396431 ], [ -16.0494007, 30.0396892 ], [ -16.0492477, 30.0396817 ], [ -16.0492574, 30.0396431 ] ] ], [ [ [ -16.0496904, 30.0396869 ], [ -16.0498086, 30.0396387 ], [ -16.0497732, 30.0397107 ], [ -16.0496904, 30.0396869 ] ] ], [ [ [ -16.0500342, 30.039854 ], [ -16.0500733, 30.0397434 ], [ -16.0501546, 30.0398145 ], [ -16.0500342, 30.039854 ] ] ], [ [ [ -16.0497716, 30.0403289 ], [ -16.0498085, 30.0403934 ], [ -16.0497459, 30.0403694 ], [ -16.0497716, 30.0403289 ] ] ], [ [ [ -16.0484559, 30.0471214 ], [ -16.0484813, 30.0468812 ], [ -16.0486191, 30.0470645 ], [ -16.0484559, 30.0471214 ] ] ], [ [ [ -16.0491798, 30.0471748 ], [ -16.0492342, 30.0466492 ], [ -16.049755, 30.0473341 ], [ -16.0491798, 30.0471748 ] ] ], [ [ [ -16.0490255, 30.0509864 ], [ -16.0489685, 30.0507032 ], [ -16.0490643, 30.0506885 ], [ -16.0490255, 30.0509864 ] ] ], [ [ [ -16.043629, 30.0560638 ], [ -16.0434572, 30.055492 ], [ -16.0438028, 30.0560055 ], [ -16.043629, 30.0560638 ] ] ], [ [ [ -16.044214, 30.0561038 ], [ -16.0443756, 30.0560319 ], [ -16.0444688, 30.0562474 ], [ -16.044214, 30.0561038 ] ] ], [ [ [ -16.0439516, 30.0562263 ], [ -16.0440907, 30.0561309 ], [ -16.0441142, 30.0562166 ], [ -16.0439516, 30.0562263 ] ] ], [ [ [ -16.0424651, 30.0565222 ], [ -16.0424727, 30.0563547 ], [ -16.0425898, 30.0564773 ], [ -16.0424651, 30.0565222 ] ] ], [ [ [ -16.0454726, 30.0567312 ], [ -16.0456223, 30.0566657 ], [ -16.0455933, 30.0567733 ], [ -16.0454726, 30.0567312 ] ] ], [ [ [ -16.0430917, 30.0569577 ], [ -16.0426777, 30.056488 ], [ -16.0432574, 30.056906 ], [ -16.0430917, 30.0569577 ] ] ], [ [ [ -16.0458838, 30.0568233 ], [ -16.0459819, 30.0567302 ], [ -16.0460251, 30.0568037 ], [ -16.0458838, 30.0568233 ] ] ], [ [ [ -16.042414, 30.0569891 ], [ -16.0420396, 30.0569141 ], [ -16.0422369, 30.0564883 ], [ -16.042414, 30.0569891 ] ] ], [ [ [ -16.0468106, 30.0571729 ], [ -16.046973, 30.0571439 ], [ -16.0469667, 30.0572179 ], [ -16.0468106, 30.0571729 ] ] ], [ [ [ -16.0429636, 30.057428 ], [ -16.0430905, 30.0575332 ], [ -16.0429534, 30.0575053 ], [ -16.0429636, 30.057428 ] ] ], [ [ [ -16.0442056, 30.0576553 ], [ -16.0442925, 30.0575161 ], [ -16.0443358, 30.0575989 ], [ -16.0442056, 30.0576553 ] ] ], [ [ [ -16.0421212, 30.0578272 ], [ -16.0422979, 30.0577518 ], [ -16.042192, 30.0578845 ], [ -16.0421212, 30.0578272 ] ] ], [ [ [ -16.0408996, 30.0580267 ], [ -16.0411146, 30.0580829 ], [ -16.0410783, 30.0581507 ], [ -16.0408996, 30.0580267 ] ] ], [ [ [ -16.042935, 30.0588179 ], [ -16.0414457, 30.0586336 ], [ -16.0418507, 30.0577714 ], [ -16.042935, 30.0588179 ] ] ], [ [ [ -16.0452303, 30.058972 ], [ -16.0452039, 30.0587615 ], [ -16.0453291, 30.0589054 ], [ -16.0452303, 30.058972 ] ] ], [ [ [ -16.0427306, 30.05918 ], [ -16.0429205, 30.059304 ], [ -16.042698, 30.0592478 ], [ -16.0427306, 30.05918 ] ] ], [ [ [ -16.0399458, 30.0594498 ], [ -16.0400932, 30.0594036 ], [ -16.0401128, 30.0595128 ], [ -16.0399458, 30.0594498 ] ] ], [ [ [ -16.0403319, 30.0596076 ], [ -16.0404379, 30.0594909 ], [ -16.0403989, 30.0596457 ], [ -16.0403319, 30.0596076 ] ] ], [ [ [ -16.0430689, 30.0597049 ], [ -16.0431778, 30.0595207 ], [ -16.0432496, 30.0596318 ], [ -16.0430689, 30.0597049 ] ] ], [ [ [ -16.0206951, 30.030435 ], [ -16.0208032, 30.0304731 ], [ -16.0207053, 30.0304914 ], [ -16.0206951, 30.030435 ] ] ], [ [ [ -16.0202957, 30.0305739 ], [ -16.0204083, 30.0305542 ], [ -16.0204043, 30.0306295 ], [ -16.0202957, 30.0305739 ] ] ], [ [ [ -16.0209994, 30.0305437 ], [ -16.0210404, 30.030635 ], [ -16.0209585, 30.0306043 ], [ -16.0209994, 30.0305437 ] ] ], [ [ [ -16.0286268, 30.0306678 ], [ -16.0287187, 30.030757 ], [ -16.0285986, 30.0307399 ], [ -16.0286268, 30.0306678 ] ] ], [ [ [ -16.0317127, 30.0309501 ], [ -16.0312941, 30.0306629 ], [ -16.0321257, 30.0305574 ], [ -16.0317127, 30.0309501 ] ] ], [ [ [ -16.0209923, 30.030861 ], [ -16.0210854, 30.0308101 ], [ -16.0210812, 30.0308666 ], [ -16.0209923, 30.030861 ] ] ], [ [ [ -16.0211175, 30.0308976 ], [ -16.021171, 30.0309662 ], [ -16.0210846, 30.0309689 ], [ -16.0211175, 30.0308976 ] ] ], [ [ [ -16.028985, 30.0309205 ], [ -16.0291565, 30.030954 ], [ -16.0291392, 30.031038 ], [ -16.028985, 30.0309205 ] ] ], [ [ [ -16.0288366, 30.0309612 ], [ -16.0288788, 30.0310473 ], [ -16.0288084, 30.031037 ], [ -16.0288366, 30.0309612 ] ] ], [ [ [ -16.0310824, 30.0310171 ], [ -16.0312252, 30.0310371 ], [ -16.0311103, 30.0310776 ], [ -16.0310824, 30.0310171 ] ] ], [ [ [ -16.0290576, 30.0311394 ], [ -16.0291439, 30.0312265 ], [ -16.0290276, 30.0312314 ], [ -16.0290576, 30.0311394 ] ] ], [ [ [ -16.0210035, 30.0312537 ], [ -16.0211878, 30.0312 ], [ -16.0210017, 30.031308 ], [ -16.0210035, 30.0312537 ] ] ], [ [ [ -16.0207419, 30.0318623 ], [ -16.0199284, 30.0308753 ], [ -16.0199793, 30.0307815 ], [ -16.0207419, 30.0318623 ] ] ], [ [ [ -16.0292634, 30.0319139 ], [ -16.0293644, 30.0317379 ], [ -16.0294984, 30.031791 ], [ -16.0292634, 30.0319139 ] ] ], [ [ [ -16.0231242, 30.0318999 ], [ -16.0232273, 30.0318066 ], [ -16.0232505, 30.0318354 ], [ -16.0231242, 30.0318999 ] ] ], [ [ [ -16.0267255, 30.0319732 ], [ -16.0268082, 30.0318832 ], [ -16.0268336, 30.0319459 ], [ -16.0267255, 30.0319732 ] ] ], [ [ [ -16.0208395, 30.0320467 ], [ -16.0208825, 30.0319763 ], [ -16.0209151, 30.0320336 ], [ -16.0208395, 30.0320467 ] ] ], [ [ [ -16.0291007, 30.032118 ], [ -16.0288006, 30.0318828 ], [ -16.0291613, 30.0319807 ], [ -16.0291007, 30.032118 ] ] ], [ [ [ -16.0282361, 30.0320671 ], [ -16.0282577, 30.0321569 ], [ -16.0281547, 30.0321187 ], [ -16.0282361, 30.0320671 ] ] ], [ [ [ -16.0210314, 30.0322512 ], [ -16.021053, 30.0321339 ], [ -16.0211114, 30.0322625 ], [ -16.0210314, 30.0322512 ] ] ], [ [ [ -16.0230575, 30.0322972 ], [ -16.0231002, 30.0324038 ], [ -16.0229959, 30.0323793 ], [ -16.0230575, 30.0322972 ] ] ], [ [ [ -16.0212921, 30.0325273 ], [ -16.0213597, 30.0324433 ], [ -16.0213715, 30.032485 ], [ -16.0212921, 30.0325273 ] ] ], [ [ [ -16.0302143, 30.0326048 ], [ -16.0298106, 30.0324932 ], [ -16.0302016, 30.0323606 ], [ -16.0302143, 30.0326048 ] ] ], [ [ [ -16.0289291, 30.0327095 ], [ -16.0287736, 30.032466 ], [ -16.0290104, 30.0325793 ], [ -16.0289291, 30.0327095 ] ] ], [ [ [ -16.0229695, 30.0326549 ], [ -16.0231363, 30.0326699 ], [ -16.0231057, 30.0327372 ], [ -16.0229695, 30.0326549 ] ] ], [ [ [ -16.0214105, 30.032721 ], [ -16.0215177, 30.0327202 ], [ -16.0214565, 30.0327584 ], [ -16.0214105, 30.032721 ] ] ], [ [ [ -16.0214294, 30.0330938 ], [ -16.0214604, 30.0328934 ], [ -16.0214999, 30.033125 ], [ -16.0214294, 30.0330938 ] ] ], [ [ [ -16.0300455, 30.0332862 ], [ -16.0299056, 30.0328457 ], [ -16.0301765, 30.032873 ], [ -16.0300455, 30.0332862 ] ] ], [ [ [ -16.0214809, 30.0333369 ], [ -16.0216262, 30.0332947 ], [ -16.0216016, 30.0334236 ], [ -16.0214809, 30.0333369 ] ] ], [ [ [ -16.0218705, 30.033602 ], [ -16.0211987, 30.0342437 ], [ -16.0214683, 30.0334888 ], [ -16.0218705, 30.033602 ] ] ], [ [ [ -16.0209501, 30.0338834 ], [ -16.0210271, 30.0339515 ], [ -16.0209264, 30.0339618 ], [ -16.0209501, 30.0338834 ] ] ], [ [ [ -16.0306874, 30.033992 ], [ -16.0307991, 30.0340648 ], [ -16.0306795, 30.0340708 ], [ -16.0306874, 30.033992 ] ] ], [ [ [ -16.0307567, 30.0341972 ], [ -16.0308674, 30.034176 ], [ -16.0308097, 30.0342451 ], [ -16.0307567, 30.0341972 ] ] ], [ [ [ -16.0223731, 30.0342832 ], [ -16.022534, 30.0342534 ], [ -16.0226015, 30.0343019 ], [ -16.0223731, 30.0342832 ] ] ], [ [ [ -16.0318635, 30.0342572 ], [ -16.031442, 30.0344205 ], [ -16.0318919, 30.0338987 ], [ -16.0318635, 30.0342572 ] ] ], [ [ [ -16.0226202, 30.0343172 ], [ -16.0227338, 30.0342679 ], [ -16.0227628, 30.0343099 ], [ -16.0226202, 30.0343172 ] ] ], [ [ [ -16.021745, 30.0343963 ], [ -16.0217512, 30.0344673 ], [ -16.021702, 30.0344511 ], [ -16.021745, 30.0343963 ] ] ], [ [ [ -16.0215795, 30.034452 ], [ -16.0216799, 30.0344205 ], [ -16.0216151, 30.0344778 ], [ -16.0215795, 30.034452 ] ] ], [ [ [ -16.020964, 30.034445 ], [ -16.0210594, 30.034449 ], [ -16.0209918, 30.0344993 ], [ -16.020964, 30.034445 ] ] ], [ [ [ -16.0206351, 30.0344949 ], [ -16.020666, 30.0345847 ], [ -16.0206167, 30.0345638 ], [ -16.0206351, 30.0344949 ] ] ], [ [ [ -16.0311574, 30.0352223 ], [ -16.0293702, 30.0354904 ], [ -16.0273774, 30.0369896 ], [ -16.0264126, 30.0349462 ], [ -16.0257655, 30.0348307 ], [ -16.0258574, 30.0354511 ], [ -16.0245544, 30.034355 ], [ -16.0239389, 30.0347294 ], [ -16.0223778, 30.0340536 ], [ -16.0224329, 30.0333832 ], [ -16.0232179, 30.0328714 ], [ -16.0231659, 30.032112 ], [ -16.0249016, 30.0331356 ], [ -16.0266604, 30.0321156 ], [ -16.027873, 30.0333126 ], [ -16.0286673, 30.0328366 ], [ -16.0281305, 30.0325456 ], [ -16.028031, 30.0323334 ], [ -16.0296969, 30.0331546 ], [ -16.0294715, 30.034178 ], [ -16.0311574, 30.0352223 ] ] ], [ [ [ -16.0217151, 30.0346619 ], [ -16.0217049, 30.0347331 ], [ -16.0216772, 30.0346835 ], [ -16.0217151, 30.0346619 ] ] ], [ [ [ -16.0318809, 30.0348058 ], [ -16.0318066, 30.0346742 ], [ -16.0318795, 30.0346711 ], [ -16.0318809, 30.0348058 ] ] ], [ [ [ -16.0215911, 30.0347837 ], [ -16.0217028, 30.0347971 ], [ -16.0216271, 30.0348451 ], [ -16.0215911, 30.0347837 ] ] ], [ [ [ -16.0318175, 30.0348876 ], [ -16.0319286, 30.034907 ], [ -16.0318355, 30.0349332 ], [ -16.0318175, 30.0348876 ] ] ], [ [ [ -16.0207677, 30.0349766 ], [ -16.0209883, 30.0349186 ], [ -16.0208006, 30.035028 ], [ -16.0207677, 30.0349766 ] ] ], [ [ [ -16.0319669, 30.0349321 ], [ -16.0320612, 30.0350254 ], [ -16.0319414, 30.0350136 ], [ -16.0319669, 30.0349321 ] ] ], [ [ [ -16.0252485, 30.0352614 ], [ -16.0253598, 30.0351366 ], [ -16.0253965, 30.0353582 ], [ -16.0252485, 30.0352614 ] ] ], [ [ [ -16.0214744, 30.0349899 ], [ -16.0205304, 30.0354996 ], [ -16.0202595, 30.035389 ], [ -16.0214744, 30.0349899 ] ] ], [ [ [ -16.0315634, 30.0354358 ], [ -16.0315553, 30.0352123 ], [ -16.0316624, 30.0354071 ], [ -16.0315634, 30.0354358 ] ] ], [ [ [ -16.0318244, 30.0356214 ], [ -16.0319257, 30.0355864 ], [ -16.0318942, 30.0356671 ], [ -16.0318244, 30.0356214 ] ] ], [ [ [ -16.0318576, 30.0357016 ], [ -16.0319666, 30.035739 ], [ -16.0318843, 30.0357703 ], [ -16.0318576, 30.0357016 ] ] ], [ [ [ -16.026328, 30.0359227 ], [ -16.0263601, 30.0356946 ], [ -16.0264592, 30.0359497 ], [ -16.026328, 30.0359227 ] ] ], [ [ [ -16.0318143, 30.0357663 ], [ -16.0318521, 30.0358465 ], [ -16.0317895, 30.0358289 ], [ -16.0318143, 30.0357663 ] ] ], [ [ [ -16.0243031, 30.0357906 ], [ -16.0243454, 30.0358842 ], [ -16.0242555, 30.0358549 ], [ -16.0243031, 30.0357906 ] ] ], [ [ [ -16.0216652, 30.0358804 ], [ -16.0218082, 30.0358427 ], [ -16.0217619, 30.0359098 ], [ -16.0216652, 30.0358804 ] ] ], [ [ [ -16.0319631, 30.0358476 ], [ -16.0319894, 30.0359299 ], [ -16.0319268, 30.0359123 ], [ -16.0319631, 30.0358476 ] ] ], [ [ [ -16.026508, 30.0362272 ], [ -16.0266012, 30.0361325 ], [ -16.0266119, 30.0362824 ], [ -16.026508, 30.0362272 ] ] ], [ [ [ -16.030468, 30.0363404 ], [ -16.0304383, 30.0364067 ], [ -16.0304145, 30.036366 ], [ -16.030468, 30.0363404 ] ] ], [ [ [ -16.0302732, 30.0364596 ], [ -16.0303539, 30.0363809 ], [ -16.0303656, 30.0364469 ], [ -16.0302732, 30.0364596 ] ] ], [ [ [ -16.0295558, 30.0365679 ], [ -16.0296647, 30.0364753 ], [ -16.0296224, 30.036608 ], [ -16.0295558, 30.0365679 ] ] ], [ [ [ -16.0315916, 30.0366007 ], [ -16.0315566, 30.0366827 ], [ -16.0315268, 30.0366072 ], [ -16.0315916, 30.0366007 ] ] ], [ [ [ -16.0265502, 30.0367566 ], [ -16.0266853, 30.0364957 ], [ -16.0266657, 30.0368257 ], [ -16.0265502, 30.0367566 ] ] ], [ [ [ -16.0261609, 30.0366457 ], [ -16.0261941, 30.0367474 ], [ -16.0261112, 30.0367261 ], [ -16.0261609, 30.0366457 ] ] ], [ [ [ -16.0298087, 30.0367113 ], [ -16.0299134, 30.0367904 ], [ -16.0297959, 30.0367796 ], [ -16.0298087, 30.0367113 ] ] ], [ [ [ -16.0305101, 30.0368014 ], [ -16.0306384, 30.036798 ], [ -16.0305409, 30.036848 ], [ -16.0305101, 30.0368014 ] ] ], [ [ [ -16.0294087, 30.0369005 ], [ -16.0295293, 30.0369179 ], [ -16.0294364, 30.0369593 ], [ -16.0294087, 30.0369005 ] ] ], [ [ [ -16.0217663, 30.0370611 ], [ -16.0218845, 30.037015 ], [ -16.0218654, 30.0370754 ], [ -16.0217663, 30.0370611 ] ] ], [ [ [ -16.027419, 30.0371307 ], [ -16.0276374, 30.037093 ], [ -16.0276117, 30.0372731 ], [ -16.027419, 30.0371307 ] ] ], [ [ [ -16.0282038, 30.0378951 ], [ -16.0283359, 30.0378446 ], [ -16.0283072, 30.0379093 ], [ -16.0282038, 30.0378951 ] ] ], [ [ [ -16.0197949, 30.0306551 ], [ -16.0199055, 30.0306689 ], [ -16.019841, 30.0307028 ], [ -16.0197949, 30.0306551 ] ] ], [ [ [ -16.0196043, 30.0313738 ], [ -16.0196712, 30.0312815 ], [ -16.0197119, 30.0313539 ], [ -16.0196043, 30.0313738 ] ] ], [ [ [ -16.0197686, 30.0314442 ], [ -16.0198548, 30.0313476 ], [ -16.0198355, 30.0314679 ], [ -16.0197686, 30.0314442 ] ] ], [ [ [ -16.0195317, 30.0315061 ], [ -16.0195856, 30.0314414 ], [ -16.0196211, 30.0314812 ], [ -16.0195317, 30.0315061 ] ] ], [ [ [ -16.0200658, 30.0317129 ], [ -16.0200495, 30.0317848 ], [ -16.0200088, 30.0317113 ], [ -16.0200658, 30.0317129 ] ] ], [ [ [ -16.0147789, 30.0326451 ], [ -16.0147867, 30.032532 ], [ -16.0148723, 30.0325898 ], [ -16.0147789, 30.0326451 ] ] ], [ [ [ -16.0155818, 30.0327714 ], [ -16.0156319, 30.0328529 ], [ -16.0155601, 30.0328418 ], [ -16.0155818, 30.0327714 ] ] ], [ [ [ -16.0152155, 30.0328678 ], [ -16.0153293, 30.0330501 ], [ -16.0151717, 30.0329578 ], [ -16.0152155, 30.0328678 ] ] ], [ [ [ -16.0173849, 30.0330032 ], [ -16.0175001, 30.0329359 ], [ -16.0174789, 30.0330452 ], [ -16.0173849, 30.0330032 ] ] ], [ [ [ -16.0160657, 30.0336759 ], [ -16.0158337, 30.033323 ], [ -16.0160525, 30.0333647 ], [ -16.0160657, 30.0336759 ] ] ], [ [ [ -16.0167582, 30.033959 ], [ -16.0161821, 30.0336711 ], [ -16.016269, 30.0333163 ], [ -16.0167582, 30.033959 ] ] ], [ [ [ -16.0178158, 30.033116 ], [ -16.0174149, 30.0342385 ], [ -16.0166713, 30.0333399 ], [ -16.0178158, 30.033116 ] ] ], [ [ [ -16.0199151, 30.0338464 ], [ -16.0200372, 30.0338123 ], [ -16.0199834, 30.0338719 ], [ -16.0199151, 30.0338464 ] ] ], [ [ [ -16.0191688, 30.0342849 ], [ -16.0190267, 30.0334406 ], [ -16.0195706, 30.0346964 ], [ -16.0191688, 30.0342849 ] ] ], [ [ [ -16.019034, 30.0341506 ], [ -16.0190558, 30.0342537 ], [ -16.0189933, 30.0342309 ], [ -16.019034, 30.0341506 ] ] ], [ [ [ -16.015117, 30.0341861 ], [ -16.0152252, 30.0342515 ], [ -16.0151176, 30.0342407 ], [ -16.015117, 30.0341861 ] ] ], [ [ [ -16.0182509, 30.0345283 ], [ -16.0181725, 30.0343145 ], [ -16.0183672, 30.0345196 ], [ -16.0182509, 30.0345283 ] ] ], [ [ [ -16.0171315, 30.0345525 ], [ -16.0171702, 30.0346939 ], [ -16.0170736, 30.0345803 ], [ -16.0171315, 30.0345525 ] ] ], [ [ [ -16.0161511, 30.0345835 ], [ -16.0162505, 30.0346685 ], [ -16.0161204, 30.03465 ], [ -16.0161511, 30.0345835 ] ] ], [ [ [ -16.017657, 30.035141 ], [ -16.0177702, 30.035257 ], [ -16.0176625, 30.0352384 ], [ -16.017657, 30.035141 ] ] ], [ [ [ -16.0200789, 30.0354679 ], [ -16.0201509, 30.0353828 ], [ -16.0201584, 30.0354626 ], [ -16.0200789, 30.0354679 ] ] ], [ [ [ -16.0197167, 30.0356515 ], [ -16.0195787, 30.0356091 ], [ -16.0197231, 30.0356162 ], [ -16.0197167, 30.0356515 ] ] ], [ [ [ -16.0199587, 30.0357118 ], [ -16.020005, 30.0356246 ], [ -16.0200364, 30.0356631 ], [ -16.0199587, 30.0357118 ] ] ], [ [ [ -16.0189661, 30.0359648 ], [ -16.0190287, 30.035888 ], [ -16.0190521, 30.0359336 ], [ -16.0189661, 30.0359648 ] ] ], [ [ [ -15.8678724, 30.1365137 ], [ -15.8680567, 30.1364949 ], [ -15.8680993, 30.1365811 ], [ -15.8678724, 30.1365137 ] ] ], [ [ [ -15.8601853, 30.1372374 ], [ -15.8602899, 30.1373154 ], [ -15.8601831, 30.1373251 ], [ -15.8601853, 30.1372374 ] ] ], [ [ [ -15.8609071, 30.1374172 ], [ -15.8610631, 30.1374278 ], [ -15.8609927, 30.1375264 ], [ -15.8609071, 30.1374172 ] ] ], [ [ [ -15.8681404, 30.1375775 ], [ -15.8682217, 30.1374818 ], [ -15.8682326, 30.137565 ], [ -15.8681404, 30.1375775 ] ] ], [ [ [ -15.8597443, 30.1377604 ], [ -15.8598847, 30.1375117 ], [ -15.8600235, 30.1377612 ], [ -15.8597443, 30.1377604 ] ] ], [ [ [ -15.868075, 30.1376024 ], [ -15.8681595, 30.1377033 ], [ -15.8680482, 30.1376702 ], [ -15.868075, 30.1376024 ] ] ], [ [ [ -15.8579521, 30.1377747 ], [ -15.858199, 30.1376479 ], [ -15.8581967, 30.1377215 ], [ -15.8579521, 30.1377747 ] ] ], [ [ [ -15.8601514, 30.1377758 ], [ -15.8603024, 30.1377271 ], [ -15.8603163, 30.1377838 ], [ -15.8601514, 30.1377758 ] ] ], [ [ [ -15.8642281, 30.1378818 ], [ -15.8640839, 30.1376424 ], [ -15.8643569, 30.137684 ], [ -15.8642281, 30.1378818 ] ] ], [ [ [ -15.8571512, 30.1378922 ], [ -15.8571929, 30.1377332 ], [ -15.8572857, 30.1378113 ], [ -15.8571512, 30.1378922 ] ] ], [ [ [ -15.8583583, 30.137865 ], [ -15.8586004, 30.137866 ], [ -15.8584227, 30.1379265 ], [ -15.8583583, 30.137865 ] ] ], [ [ [ -15.8604428, 30.1378242 ], [ -15.8606332, 30.1378578 ], [ -15.86061, 30.1379174 ], [ -15.8604428, 30.1378242 ] ] ], [ [ [ -15.8586802, 30.1379984 ], [ -15.8589132, 30.1378084 ], [ -15.8589557, 30.1379114 ], [ -15.8586802, 30.1379984 ] ] ], [ [ [ -15.8593645, 30.1383114 ], [ -15.859171, 30.1380907 ], [ -15.8594214, 30.1381936 ], [ -15.8593645, 30.1383114 ] ] ], [ [ [ -15.8548589, 30.1382841 ], [ -15.8549865, 30.1382807 ], [ -15.8549083, 30.1383302 ], [ -15.8548589, 30.1382841 ] ] ], [ [ [ -15.8668003, 30.1384647 ], [ -15.866922, 30.1383649 ], [ -15.86698, 30.1384021 ], [ -15.8668003, 30.1384647 ] ] ], [ [ [ -15.8670338, 30.138616 ], [ -15.8670369, 30.1384869 ], [ -15.8671692, 30.1386139 ], [ -15.8670338, 30.138616 ] ] ], [ [ [ -15.8705695, 30.13882 ], [ -15.8701561, 30.1388628 ], [ -15.8704827, 30.1386264 ], [ -15.8705695, 30.13882 ] ] ], [ [ [ -15.8543061, 30.1391111 ], [ -15.854505, 30.1390995 ], [ -15.8544581, 30.1391695 ], [ -15.8543061, 30.1391111 ] ] ], [ [ [ -15.8663142, 30.1391664 ], [ -15.8663577, 30.1390333 ], [ -15.8664678, 30.1390952 ], [ -15.8663142, 30.1391664 ] ] ], [ [ [ -15.8536868, 30.139967 ], [ -15.8538542, 30.1400847 ], [ -15.8537033, 30.1401515 ], [ -15.8536868, 30.139967 ] ] ], [ [ [ -15.8743504, 30.140103 ], [ -15.8745265, 30.1401268 ], [ -15.874439, 30.1401788 ], [ -15.8743504, 30.140103 ] ] ], [ [ [ -15.8699302, 30.1404644 ], [ -15.869705, 30.1402704 ], [ -15.8699815, 30.1402347 ], [ -15.8699302, 30.1404644 ] ] ], [ [ [ -15.8718925, 30.1412924 ], [ -15.8718059, 30.1410859 ], [ -15.8720466, 30.1411877 ], [ -15.8718925, 30.1412924 ] ] ], [ [ [ -15.857658, 30.1423999 ], [ -15.8577152, 30.1424951 ], [ -15.8576347, 30.1424517 ], [ -15.857658, 30.1423999 ] ] ], [ [ [ -15.8741803, 30.1428138 ], [ -15.8742779, 30.142881 ], [ -15.8741634, 30.1428765 ], [ -15.8741803, 30.1428138 ] ] ], [ [ [ -15.8742094, 30.143319 ], [ -15.8739049, 30.1432871 ], [ -15.8742256, 30.1431948 ], [ -15.8742094, 30.143319 ] ] ], [ [ [ -15.8746777, 30.1421487 ], [ -15.8727638, 30.1443416 ], [ -15.8742917, 30.1454591 ], [ -15.8733652, 30.1468222 ], [ -15.8717702, 30.1472525 ], [ -15.8727131, 30.1477537 ], [ -15.871881, 30.1487127 ], [ -15.8729203, 30.1495872 ], [ -15.8725174, 30.1506674 ], [ -15.8712532, 30.1511707 ], [ -15.8708914, 30.1536452 ], [ -15.8679274, 30.1543276 ], [ -15.8636986, 30.1539947 ], [ -15.861408, 30.1549808 ], [ -15.8597211, 30.1533204 ], [ -15.8597642, 30.1516443 ], [ -15.8577201, 30.1517939 ], [ -15.8562199, 30.1497063 ], [ -15.8563747, 30.1487668 ], [ -15.8588601, 30.1479249 ], [ -15.8603317, 30.1452268 ], [ -15.8589696, 30.1425118 ], [ -15.8551518, 30.1405483 ], [ -15.8550284, 30.1391405 ], [ -15.8558918, 30.1379491 ], [ -15.8593105, 30.1384839 ], [ -15.8608292, 30.1384289 ], [ -15.8613068, 30.137494 ], [ -15.8617937, 30.1381939 ], [ -15.8643718, 30.1379612 ], [ -15.8659402, 30.1397405 ], [ -15.8678074, 30.1388783 ], [ -15.8673594, 30.1385449 ], [ -15.8688336, 30.1386109 ], [ -15.8687057, 30.1377034 ], [ -15.870713, 30.1393082 ], [ -15.8696439, 30.1396584 ], [ -15.8695499, 30.1405796 ], [ -15.8703559, 30.1410968 ], [ -15.871796, 30.1414192 ], [ -15.8732304, 30.1412581 ], [ -15.8744938, 30.1405073 ], [ -15.8746777, 30.1421487 ] ] ], [ [ [ -15.8585248, 30.1473235 ], [ -15.8585257, 30.1474293 ], [ -15.8584569, 30.1473755 ], [ -15.8585248, 30.1473235 ] ] ], [ [ [ -15.8747646, 30.148649 ], [ -15.8742, 30.1488733 ], [ -15.8741616, 30.1487721 ], [ -15.8747646, 30.148649 ] ] ], [ [ [ -15.8727633, 30.148876 ], [ -15.8728465, 30.1489042 ], [ -15.8727601, 30.1489142 ], [ -15.8727633, 30.148876 ] ] ], [ [ [ -15.8738834, 30.1488741 ], [ -15.8739105, 30.1489811 ], [ -15.8738125, 30.1489055 ], [ -15.8738834, 30.1488741 ] ] ], [ [ [ -15.873809, 30.149005 ], [ -15.8733196, 30.1492626 ], [ -15.8737434, 30.1489302 ], [ -15.873809, 30.149005 ] ] ], [ [ [ -15.8727499, 30.1491564 ], [ -15.8728855, 30.1491602 ], [ -15.8728323, 30.1492216 ], [ -15.8727499, 30.1491564 ] ] ], [ [ [ -15.8732189, 30.1499351 ], [ -15.8733259, 30.1499745 ], [ -15.8732294, 30.1499839 ], [ -15.8732189, 30.1499351 ] ] ], [ [ [ -15.8729765, 30.1499179 ], [ -15.8730262, 30.1499965 ], [ -15.8729207, 30.1499597 ], [ -15.8729765, 30.1499179 ] ] ], [ [ [ -15.8729569, 30.1501499 ], [ -15.8731268, 30.1501212 ], [ -15.8730812, 30.1501841 ], [ -15.8729569, 30.1501499 ] ] ], [ [ [ -15.8678064, 30.156158 ], [ -15.8679703, 30.1561081 ], [ -15.8678517, 30.1562267 ], [ -15.8678064, 30.156158 ] ] ], [ [ [ -15.8861666, 30.1564368 ], [ -15.8862486, 30.1563181 ], [ -15.8862937, 30.1563823 ], [ -15.8861666, 30.1564368 ] ] ], [ [ [ -15.8860638, 30.1570298 ], [ -15.8855262, 30.1571148 ], [ -15.8860966, 30.1567108 ], [ -15.8860638, 30.1570298 ] ] ], [ [ [ -15.876053, 30.1604515 ], [ -15.8753274, 30.1605312 ], [ -15.8753541, 30.1598496 ], [ -15.876053, 30.1604515 ] ] ], [ [ [ -15.8764221, 30.1607834 ], [ -15.8763093, 30.1605479 ], [ -15.8766328, 30.1605935 ], [ -15.8764221, 30.1607834 ] ] ] ] } }
]
}
