{
"type": "FeatureCollection",
"name": "mallorca",
"crs": { "type": "name", "properties": { "name": "urn:ogc:def:crs:OGC:1.3:CRS84" } },
"features": [
{ "type": "Feature", "properties": { }, "geometry": { "type": "MultiPolygon", "coordinates": [ [ [ [ 2.4712034, 39.4620817 ], [ 2.4724554, 39.4628792 ], [ 2.4709272, 39.4617436 ], [ 2.4712034, 39.4620817 ] ] ], [ [ [ 2.4725005, 39.4631641 ], [ 2.4727237, 39.4631065 ], [ 2.4725674, 39.4630707 ], [ 2.4725005, 39.4631641 ] ] ], [ [ [ 2.4740295, 39.4652698 ], [ 2.4753359, 39.465691 ], [ 2.4747788, 39.4648164 ], [ 2.4740295, 39.4652698 ] ] ], [ [ [ 2.54044, 39.4780047 ], [ 2.5411895, 39.4789709 ], [ 2.5404986, 39.477859 ], [ 2.54044, 39.4780047 ] ] ], [ [ [ 2.5335361, 39.4862973 ], [ 2.5334332, 39.4860178 ], [ 2.5333657, 39.4864179 ], [ 2.5335361, 39.4862973 ] ] ], [ [ [ 2.4476284, 39.4954019 ], [ 2.4485993, 39.4976124 ], [ 2.4510294, 39.499885 ], [ 2.4551654, 39.5009984 ], [ 2.4518609, 39.4994545 ], [ 2.4505305, 39.4968508 ], [ 2.4476284, 39.4954019 ] ] ], [ [ [ 2.4549428, 39.5028155 ], [ 2.4559915, 39.5027741 ], [ 2.4564475, 39.5019732 ], [ 2.4552083, 39.5019049 ], [ 2.4549428, 39.5028155 ] ] ], [ [ [ 2.5435164, 39.5051319 ], [ 2.5463273, 39.5040451 ], [ 2.5471263, 39.5027798 ], [ 2.5452856, 39.502512 ], [ 2.5435164, 39.5051319 ] ] ], [ [ [ 2.4560519, 39.5042343 ], [ 2.4561509, 39.5046255 ], [ 2.4563561, 39.5045931 ], [ 2.4560519, 39.5042343 ] ] ], [ [ [ 2.5859814, 39.528151 ], [ 2.5877215, 39.5307955 ], [ 2.5895245, 39.5302014 ], [ 2.5890251, 39.5288577 ], [ 2.5877947, 39.5290196 ], [ 2.5870714, 39.5276355 ], [ 2.5859814, 39.528151 ] ] ], [ [ [ 2.5725585, 39.5299614 ], [ 2.5738116, 39.5298972 ], [ 2.5742598, 39.5295057 ], [ 2.573505, 39.529093 ], [ 2.5725585, 39.5299614 ] ] ], [ [ [ 2.5887285, 39.5308203 ], [ 2.5885866, 39.5315123 ], [ 2.589136, 39.5313534 ], [ 2.5887285, 39.5308203 ] ] ], [ [ [ 2.4585894, 39.5314594 ], [ 2.4583182, 39.5315833 ], [ 2.4586948, 39.5316685 ], [ 2.4585894, 39.5314594 ] ] ], [ [ [ 2.5861762, 39.53297 ], [ 2.5865655, 39.5329866 ], [ 2.5861526, 39.5329172 ], [ 2.5861762, 39.53297 ] ] ], [ [ [ 2.5915394, 39.5341347 ], [ 2.5914299, 39.5340974 ], [ 2.5914723, 39.5341803 ], [ 2.5915394, 39.5341347 ] ] ], [ [ [ 2.4221851, 39.5365436 ], [ 2.4220884, 39.537074 ], [ 2.4225456, 39.5370551 ], [ 2.4221851, 39.5365436 ] ] ], [ [ [ 2.3484198, 39.577705 ], [ 2.3492621, 39.5766395 ], [ 2.3474631, 39.5762584 ], [ 2.34728, 39.5774298 ], [ 2.3484198, 39.577705 ] ] ], [ [ [ 2.3039498, 39.5734645 ], [ 2.3042254, 39.576223 ], [ 2.3061481, 39.5777254 ], [ 2.306382, 39.5797419 ], [ 2.307853, 39.5821493 ], [ 2.309304, 39.5823176 ], [ 2.3104332, 39.5837808 ], [ 2.3192286, 39.5884903 ], [ 2.3236995, 39.5926988 ], [ 2.3347122, 39.596408 ], [ 2.3371522, 39.5983322 ], [ 2.3389431, 39.5982061 ], [ 2.3379908, 39.5965975 ], [ 2.3361665, 39.5957969 ], [ 2.3352499, 39.5937856 ], [ 2.3364607, 39.5936524 ], [ 2.3338756, 39.5890726 ], [ 2.3291197, 39.5867312 ], [ 2.3294865, 39.587601 ], [ 2.3285508, 39.5879293 ], [ 2.3264384, 39.5859869 ], [ 2.3244635, 39.5825139 ], [ 2.3235835, 39.5823745 ], [ 2.3236339, 39.5816215 ], [ 2.3215792, 39.5813642 ], [ 2.3226619, 39.5805428 ], [ 2.3192275, 39.5785666 ], [ 2.3200011, 39.5782539 ], [ 2.3187308, 39.5766662 ], [ 2.3131861, 39.5741787 ], [ 2.3094353, 39.5740464 ], [ 2.307796, 39.5752261 ], [ 2.3078046, 39.5728026 ], [ 2.3064313, 39.5722071 ], [ 2.3030461, 39.5729028 ], [ 2.3039498, 39.5734645 ] ] ], [ [ [ 2.3414331, 39.5854547 ], [ 2.3420531, 39.5860629 ], [ 2.3418065, 39.5851898 ], [ 2.3414331, 39.5854547 ] ] ], [ [ [ 2.3615153, 39.6089827 ], [ 2.3617002, 39.6088362 ], [ 2.3616043, 39.6087058 ], [ 2.3615153, 39.6089827 ] ] ], [ [ [ 2.3628087, 39.6107377 ], [ 2.3628757, 39.6107535 ], [ 2.3629222, 39.6106379 ], [ 2.3628087, 39.6107377 ] ] ], [ [ [ 2.371255, 39.6142257 ], [ 2.3710813, 39.6141198 ], [ 2.371141, 39.6142257 ], [ 2.371255, 39.6142257 ] ] ], [ [ [ 2.9398258, 39.1210989 ], [ 2.9404538, 39.1207682 ], [ 2.9396973, 39.1210042 ], [ 2.9398258, 39.1210989 ] ] ], [ [ [ 2.9353986, 39.1221945 ], [ 2.936921, 39.1218174 ], [ 2.9353975, 39.1220946 ], [ 2.9353986, 39.1221945 ] ] ], [ [ [ 2.9386136, 39.1250695 ], [ 2.9403369, 39.1253607 ], [ 2.9386631, 39.1247726 ], [ 2.9386136, 39.1250695 ] ] ], [ [ [ 2.9589497, 39.1262783 ], [ 2.9604199, 39.1252966 ], [ 2.9584943, 39.1244357 ], [ 2.9579576, 39.1258983 ], [ 2.9589497, 39.1262783 ] ] ], [ [ [ 2.9433878, 39.1252606 ], [ 2.9425249, 39.1262628 ], [ 2.9440664, 39.1253928 ], [ 2.9433878, 39.1252606 ] ] ], [ [ [ 2.9377677, 39.1259261 ], [ 2.939288, 39.126226 ], [ 2.9393509, 39.1258732 ], [ 2.9377677, 39.1259261 ] ] ], [ [ [ 2.9226696, 39.1325271 ], [ 2.9234929, 39.1329609 ], [ 2.9235602, 39.1325405 ], [ 2.9226696, 39.1325271 ] ] ], [ [ [ 2.9608881, 39.1384563 ], [ 2.9616778, 39.1386825 ], [ 2.9627424, 39.1382311 ], [ 2.9622263, 39.1381266 ], [ 2.9608881, 39.1384563 ] ] ], [ [ [ 2.9150369, 39.1451619 ], [ 2.9168514, 39.1471547 ], [ 2.918564, 39.1475426 ], [ 2.9180611, 39.148863 ], [ 2.9199313, 39.1488702 ], [ 2.9170306, 39.1525442 ], [ 2.9183427, 39.1517755 ], [ 2.9191731, 39.1524117 ], [ 2.9212055, 39.1512659 ], [ 2.9213172, 39.1532253 ], [ 2.9196494, 39.1539029 ], [ 2.920471, 39.1538077 ], [ 2.9187649, 39.1549504 ], [ 2.9189234, 39.1566457 ], [ 2.9166234, 39.1583397 ], [ 2.9172074, 39.1616369 ], [ 2.9199065, 39.1591019 ], [ 2.9221102, 39.1585528 ], [ 2.923583, 39.1567257 ], [ 2.9244147, 39.1523585 ], [ 2.9237135, 39.1512327 ], [ 2.9253992, 39.150696 ], [ 2.9268295, 39.1479691 ], [ 2.9259441, 39.1462936 ], [ 2.929811, 39.1466637 ], [ 2.9303922, 39.1457017 ], [ 2.9296854, 39.1447951 ], [ 2.9306644, 39.1431863 ], [ 2.9317466, 39.143338 ], [ 2.9323049, 39.1444706 ], [ 2.936582, 39.1439336 ], [ 2.9373209, 39.1446781 ], [ 2.9371976, 39.1460252 ], [ 2.9353885, 39.1473793 ], [ 2.9364625, 39.1485754 ], [ 2.935314, 39.1498359 ], [ 2.9340061, 39.1511005 ], [ 2.9298594, 39.1513617 ], [ 2.9308951, 39.1529902 ], [ 2.9296035, 39.1541773 ], [ 2.9281949, 39.1541855 ], [ 2.9310967, 39.1565133 ], [ 2.9333171, 39.1552766 ], [ 2.9351859, 39.1572738 ], [ 2.937839, 39.1557724 ], [ 2.9374846, 39.155247 ], [ 2.9421803, 39.1514572 ], [ 2.9413322, 39.1506003 ], [ 2.9420497, 39.1502031 ], [ 2.941558, 39.1496886 ], [ 2.9422226, 39.1482383 ], [ 2.9432019, 39.1497405 ], [ 2.9467429, 39.1505317 ], [ 2.9469709, 39.1496196 ], [ 2.9490264, 39.1495081 ], [ 2.9496643, 39.1484098 ], [ 2.9496978, 39.1494364 ], [ 2.9516384, 39.1515112 ], [ 2.948812, 39.1527089 ], [ 2.9489544, 39.1542585 ], [ 2.9502888, 39.1545211 ], [ 2.9515789, 39.1560851 ], [ 2.9478929, 39.1568401 ], [ 2.9492233, 39.158009 ], [ 2.9485622, 39.1599505 ], [ 2.9458679, 39.1606583 ], [ 2.9475153, 39.1619051 ], [ 2.9465065, 39.1635611 ], [ 2.9502583, 39.164611 ], [ 2.9507502, 39.165656 ], [ 2.9564015, 39.1633632 ], [ 2.9572066, 39.1640728 ], [ 2.959521, 39.1636835 ], [ 2.9588089, 39.1645672 ], [ 2.9595639, 39.1652703 ], [ 2.961839, 39.1625301 ], [ 2.9654057, 39.1616392 ], [ 2.9671073, 39.162814 ], [ 2.9683562, 39.1606035 ], [ 2.9709901, 39.1603976 ], [ 2.9692418, 39.1592579 ], [ 2.9702149, 39.1578832 ], [ 2.9764936, 39.1580451 ], [ 2.9764055, 39.1569951 ], [ 2.9714271, 39.1537717 ], [ 2.9720186, 39.1522867 ], [ 2.9706135, 39.1513202 ], [ 2.9710267, 39.1500713 ], [ 2.9694026, 39.1477284 ], [ 2.9664249, 39.1478781 ], [ 2.9654629, 39.1512195 ], [ 2.9647969, 39.1501084 ], [ 2.9631005, 39.1505361 ], [ 2.9635213, 39.1491073 ], [ 2.9620583, 39.1495281 ], [ 2.9614927, 39.1484936 ], [ 2.9602291, 39.1482613 ], [ 2.9580816, 39.1489573 ], [ 2.9582986, 39.1476823 ], [ 2.9567384, 39.1477598 ], [ 2.9556398, 39.1447126 ], [ 2.9564104, 39.1440421 ], [ 2.9558948, 39.1433841 ], [ 2.9564015, 39.142287 ], [ 2.9609014, 39.1422356 ], [ 2.9618478, 39.1403689 ], [ 2.9612618, 39.1406375 ], [ 2.9591058, 39.1384282 ], [ 2.9600631, 39.1375901 ], [ 2.9588214, 39.136564 ], [ 2.9592734, 39.1358288 ], [ 2.9543379, 39.1359417 ], [ 2.9536379, 39.1310574 ], [ 2.9579108, 39.1269294 ], [ 2.9539662, 39.125034 ], [ 2.954109, 39.1269512 ], [ 2.9531725, 39.1274329 ], [ 2.952223, 39.1274516 ], [ 2.952564, 39.1267623 ], [ 2.9508593, 39.1260244 ], [ 2.9482775, 39.126896 ], [ 2.9470445, 39.1251703 ], [ 2.9448791, 39.1260024 ], [ 2.9435756, 39.1275785 ], [ 2.9424106, 39.126969 ], [ 2.9419917, 39.1276898 ], [ 2.9407968, 39.1269272 ], [ 2.939622, 39.1273288 ], [ 2.9391499, 39.1278948 ], [ 2.9398109, 39.1281305 ], [ 2.9388444, 39.128751 ], [ 2.9363577, 39.1287146 ], [ 2.9352845, 39.1277721 ], [ 2.9336675, 39.1281091 ], [ 2.9326771, 39.1294363 ], [ 2.9332088, 39.1306662 ], [ 2.9322996, 39.1304602 ], [ 2.9309584, 39.1315546 ], [ 2.9292048, 39.1300122 ], [ 2.9276247, 39.1314883 ], [ 2.9230962, 39.1286267 ], [ 2.9232145, 39.1277195 ], [ 2.9208344, 39.128154 ], [ 2.9195132, 39.1290069 ], [ 2.9200089, 39.1303745 ], [ 2.9269197, 39.1317762 ], [ 2.9240015, 39.1328997 ], [ 2.9256858, 39.1331386 ], [ 2.925309, 39.134949 ], [ 2.9247994, 39.1348003 ], [ 2.9255598, 39.1361193 ], [ 2.9227066, 39.1360095 ], [ 2.9250348, 39.1362894 ], [ 2.92616, 39.1372183 ], [ 2.9262284, 39.1383823 ], [ 2.9234246, 39.1392799 ], [ 2.9153788, 39.1385445 ], [ 2.9141785, 39.1424056 ], [ 2.9150369, 39.1451619 ] ] ], [ [ [ 2.9636649, 39.1487431 ], [ 2.9635658, 39.1477847 ], [ 2.963438, 39.1487125 ], [ 2.9636649, 39.1487431 ] ] ], [ [ [ 2.9749385, 39.1695063 ], [ 2.9781357, 39.1692734 ], [ 2.9774115, 39.1685747 ], [ 2.978463, 39.1670816 ], [ 2.9770253, 39.166333 ], [ 2.9754535, 39.1666408 ], [ 2.9744396, 39.1684042 ], [ 2.9749385, 39.1695063 ] ] ], [ [ [ 2.9554574, 39.1821219 ], [ 2.9562662, 39.184073 ], [ 2.9592301, 39.1832297 ], [ 2.9611204, 39.1845699 ], [ 2.9598292, 39.1856902 ], [ 2.9606215, 39.1860784 ], [ 2.9602407, 39.1879282 ], [ 2.9616217, 39.1896599 ], [ 2.9652336, 39.1904586 ], [ 2.9700858, 39.1901576 ], [ 2.9703507, 39.1893374 ], [ 2.968828, 39.1892625 ], [ 2.9717414, 39.1886415 ], [ 2.9730458, 39.1865846 ], [ 2.9691413, 39.1850347 ], [ 2.9698094, 39.1845514 ], [ 2.9686134, 39.1839917 ], [ 2.9693479, 39.1826012 ], [ 2.9668628, 39.1803535 ], [ 2.9672925, 39.1780313 ], [ 2.9660388, 39.1755574 ], [ 2.9636414, 39.1761918 ], [ 2.9620656, 39.1751847 ], [ 2.9609579, 39.1758627 ], [ 2.9596117, 39.1770243 ], [ 2.9590146, 39.1789186 ], [ 2.9554574, 39.1821219 ] ] ], [ [ [ 2.9648961, 39.1955122 ], [ 2.9657061, 39.1950982 ], [ 2.9659703, 39.1947106 ], [ 2.9648961, 39.1955122 ] ] ], [ [ [ 2.9713314, 39.1961285 ], [ 2.9722181, 39.1970792 ], [ 2.9711328, 39.1976727 ], [ 2.9725373, 39.1975547 ], [ 2.973096, 39.198357 ], [ 2.9737841, 39.1978805 ], [ 2.9740867, 39.1957694 ], [ 2.9720749, 39.1953149 ], [ 2.9713314, 39.1961285 ] ] ], [ [ [ 2.9716297, 39.2006463 ], [ 2.9721464, 39.2009637 ], [ 2.9752035, 39.200747 ], [ 2.9739326, 39.1995413 ], [ 2.9716297, 39.2006463 ] ] ], [ [ [ 2.9762619, 39.2026292 ], [ 2.9772385, 39.2024633 ], [ 2.9760446, 39.2015606 ], [ 2.9762625, 39.2019011 ], [ 2.9762619, 39.2026292 ] ] ], [ [ [ 2.9787739, 39.2050191 ], [ 2.9795062, 39.2048279 ], [ 2.9792981, 39.2045871 ], [ 2.9787739, 39.2050191 ] ] ], [ [ [ 2.9783981, 39.207418 ], [ 2.9798312, 39.2068305 ], [ 2.979386, 39.2061138 ], [ 2.978083, 39.2067249 ], [ 2.9783981, 39.207418 ] ] ], [ [ [ 2.5917862, 39.5344485 ], [ 2.5924384, 39.534408 ], [ 2.5932897, 39.5335696 ], [ 2.5927604, 39.5334413 ], [ 2.5917862, 39.5344485 ] ] ], [ [ [ 2.7070882, 39.5351338 ], [ 2.7071098, 39.5345053 ], [ 2.7066336, 39.5345218 ], [ 2.7070882, 39.5351338 ] ] ], [ [ [ 2.3447252, 39.5871688 ], [ 2.3461237, 39.591142 ], [ 2.3481068, 39.5929456 ], [ 2.3470872, 39.5948232 ], [ 2.3484646, 39.5950497 ], [ 2.3497987, 39.5964497 ], [ 2.3550864, 39.5962955 ], [ 2.3548096, 39.5977788 ], [ 2.3561776, 39.5999671 ], [ 2.3552828, 39.6013797 ], [ 2.355883, 39.6054499 ], [ 2.3589767, 39.605553 ], [ 2.3621267, 39.6092504 ], [ 2.3659494, 39.6107314 ], [ 2.3686732, 39.6139462 ], [ 2.3703928, 39.6142945 ], [ 2.3733022, 39.6133831 ], [ 2.3768538, 39.6143654 ], [ 2.3852027, 39.6135616 ], [ 2.3861848, 39.6149602 ], [ 2.3906296, 39.617473 ], [ 2.3953074, 39.6174399 ], [ 2.395994, 39.6178036 ], [ 2.3946637, 39.6189936 ], [ 2.3972375, 39.6196772 ], [ 2.3982619, 39.6210436 ], [ 2.3995317, 39.6200841 ], [ 2.4007577, 39.6214919 ], [ 2.4038319, 39.6222926 ], [ 2.4059935, 39.6242841 ], [ 2.4104479, 39.6264494 ], [ 2.4115883, 39.6279991 ], [ 2.4143618, 39.6282823 ], [ 2.4157351, 39.6296374 ], [ 2.4183529, 39.6292408 ], [ 2.4220007, 39.629968 ], [ 2.422902, 39.6332731 ], [ 2.4214017, 39.6361439 ], [ 2.4237682, 39.636941 ], [ 2.4232998, 39.6385831 ], [ 2.4258947, 39.6379854 ], [ 2.4308401, 39.6418011 ], [ 2.4329985, 39.6421206 ], [ 2.4350709, 39.6436678 ], [ 2.4368956, 39.6433114 ], [ 2.4382147, 39.6442729 ], [ 2.4415243, 39.6445439 ], [ 2.441486, 39.6458341 ], [ 2.4445957, 39.6458972 ], [ 2.4485082, 39.6492842 ], [ 2.4508372, 39.6486615 ], [ 2.4554002, 39.6512028 ], [ 2.4564011, 39.6508077 ], [ 2.4622255, 39.6520271 ], [ 2.4674629, 39.6573785 ], [ 2.4694795, 39.6577194 ], [ 2.4702842, 39.6587907 ], [ 2.4718411, 39.6586845 ], [ 2.4727446, 39.6603823 ], [ 2.4753041, 39.6620083 ], [ 2.476292, 39.6647362 ], [ 2.4794775, 39.6663041 ], [ 2.4803398, 39.6690763 ], [ 2.4821128, 39.6707177 ], [ 2.4818688, 39.6724446 ], [ 2.4886413, 39.6716545 ], [ 2.4945386, 39.6771783 ], [ 2.4948001, 39.6785752 ], [ 2.4938454, 39.6790317 ], [ 2.4944072, 39.6808592 ], [ 2.496861, 39.6821532 ], [ 2.4981185, 39.6845129 ], [ 2.5045474, 39.6866637 ], [ 2.5076805, 39.6903695 ], [ 2.5085529, 39.689288 ], [ 2.5102689, 39.6891725 ], [ 2.5105189, 39.6904874 ], [ 2.5123839, 39.6900076 ], [ 2.5130294, 39.6917218 ], [ 2.5141691, 39.6918221 ], [ 2.5162805, 39.6905606 ], [ 2.5172605, 39.692924 ], [ 2.519422, 39.6935934 ], [ 2.5193471, 39.6946192 ], [ 2.52031, 39.6940533 ], [ 2.5254965, 39.6999971 ], [ 2.5277723, 39.7015356 ], [ 2.5304232, 39.7017984 ], [ 2.534379, 39.6997716 ], [ 2.5375225, 39.7001906 ], [ 2.541908, 39.6986151 ], [ 2.5429831, 39.7006929 ], [ 2.5442897, 39.6990943 ], [ 2.5456959, 39.698842 ], [ 2.5467654, 39.6991037 ], [ 2.5467818, 39.699855 ], [ 2.5494986, 39.6992537 ], [ 2.553295, 39.7007605 ], [ 2.5554665, 39.6999869 ], [ 2.5594836, 39.7031462 ], [ 2.5623226, 39.7033351 ], [ 2.5643502, 39.7059023 ], [ 2.566809, 39.7061988 ], [ 2.5724269, 39.7108554 ], [ 2.5758224, 39.7122372 ], [ 2.5776047, 39.7139388 ], [ 2.5873286, 39.7171876 ], [ 2.5868807, 39.7180253 ], [ 2.5890924, 39.7187354 ], [ 2.5908485, 39.7220839 ], [ 2.5938376, 39.7248495 ], [ 2.5966557, 39.7262499 ], [ 2.5997356, 39.7328796 ], [ 2.6039059, 39.734865 ], [ 2.6048395, 39.7366922 ], [ 2.6064343, 39.7367471 ], [ 2.6115767, 39.7416626 ], [ 2.6153462, 39.7431595 ], [ 2.6160928, 39.7445045 ], [ 2.6186899, 39.745282 ], [ 2.6227929, 39.7479942 ], [ 2.6240035, 39.7517736 ], [ 2.6228737, 39.7542824 ], [ 2.6217739, 39.7547907 ], [ 2.6219684, 39.7556791 ], [ 2.6194139, 39.7555001 ], [ 2.6199244, 39.756099 ], [ 2.622426, 39.7571478 ], [ 2.6230709, 39.7569257 ], [ 2.6225809, 39.756186 ], [ 2.6238973, 39.7564915 ], [ 2.6237068, 39.7553521 ], [ 2.6255018, 39.7524207 ], [ 2.6276884, 39.7532903 ], [ 2.6322891, 39.7600071 ], [ 2.6327488, 39.7627827 ], [ 2.6356863, 39.7652177 ], [ 2.6394146, 39.7631345 ], [ 2.6392011, 39.7619238 ], [ 2.6412074, 39.7600702 ], [ 2.6417708, 39.760456 ], [ 2.6413144, 39.7616184 ], [ 2.6421732, 39.7618667 ], [ 2.6417558, 39.7626014 ], [ 2.6431255, 39.7613477 ], [ 2.6452942, 39.7618984 ], [ 2.6464714, 39.7637971 ], [ 2.6481235, 39.7635172 ], [ 2.647916, 39.7645668 ], [ 2.6492199, 39.764486 ], [ 2.6524577, 39.76745 ], [ 2.6541525, 39.7678107 ], [ 2.6555789, 39.7696437 ], [ 2.6565346, 39.7691074 ], [ 2.6570981, 39.7701961 ], [ 2.6591846, 39.7698907 ], [ 2.6610415, 39.7722678 ], [ 2.6633225, 39.7725219 ], [ 2.665827, 39.7758375 ], [ 2.6649902, 39.7770993 ], [ 2.6651663, 39.7793921 ], [ 2.6634064, 39.7802942 ], [ 2.664835, 39.7804857 ], [ 2.666089, 39.7834235 ], [ 2.6675183, 39.784147 ], [ 2.6666132, 39.7857434 ], [ 2.6670197, 39.787574 ], [ 2.6694633, 39.792289 ], [ 2.674793, 39.7956056 ], [ 2.6763453, 39.7958104 ], [ 2.6776379, 39.7976584 ], [ 2.6799324, 39.7985976 ], [ 2.6839001, 39.7971186 ], [ 2.6843086, 39.795376 ], [ 2.6835558, 39.7937572 ], [ 2.6898222, 39.7935608 ], [ 2.6911595, 39.790646 ], [ 2.6942932, 39.7912247 ], [ 2.6965727, 39.7939996 ], [ 2.6956345, 39.797257 ], [ 2.6931927, 39.7978569 ], [ 2.692202, 39.7968332 ], [ 2.6936476, 39.7954612 ], [ 2.6916812, 39.7965079 ], [ 2.689184, 39.7965008 ], [ 2.6891863, 39.797967 ], [ 2.6915264, 39.7979683 ], [ 2.6935046, 39.8000323 ], [ 2.6931929, 39.801895 ], [ 2.6945744, 39.8023385 ], [ 2.6942535, 39.8046867 ], [ 2.6962512, 39.8070406 ], [ 2.6984125, 39.8076989 ], [ 2.6983734, 39.8092523 ], [ 2.6994761, 39.8108895 ], [ 2.7000949, 39.8101066 ], [ 2.701417, 39.8119171 ], [ 2.7015176, 39.8095075 ], [ 2.7024401, 39.8101462 ], [ 2.7024659, 39.8084813 ], [ 2.7042866, 39.8085173 ], [ 2.7054759, 39.8103168 ], [ 2.7098682, 39.813175 ], [ 2.7092428, 39.8132115 ], [ 2.709431, 39.8138343 ], [ 2.7112866, 39.8157934 ], [ 2.7141742, 39.8166326 ], [ 2.7150562, 39.8182735 ], [ 2.7170106, 39.8177088 ], [ 2.7197939, 39.8202286 ], [ 2.726351, 39.8231002 ], [ 2.7284863, 39.8231728 ], [ 2.7269938, 39.8239747 ], [ 2.7280039, 39.825565 ], [ 2.7339976, 39.8270082 ], [ 2.7339726, 39.8276297 ], [ 2.7384186, 39.8294564 ], [ 2.7386096, 39.8304657 ], [ 2.7418433, 39.8326482 ], [ 2.7452729, 39.8320593 ], [ 2.7461992, 39.8326605 ], [ 2.745983, 39.829982 ], [ 2.7477632, 39.8277746 ], [ 2.7556044, 39.8291539 ], [ 2.7568591, 39.8309463 ], [ 2.7624721, 39.8325168 ], [ 2.762993, 39.8337493 ], [ 2.7660775, 39.8350218 ], [ 2.7667497, 39.8368 ], [ 2.7654966, 39.8379864 ], [ 2.7665292, 39.8386335 ], [ 2.7658485, 39.8393654 ], [ 2.7662331, 39.8407622 ], [ 2.7651378, 39.8417158 ], [ 2.767317, 39.8430156 ], [ 2.770041, 39.8407946 ], [ 2.7757885, 39.8398759 ], [ 2.7763271, 39.8406709 ], [ 2.7740525, 39.8443937 ], [ 2.7756681, 39.8492512 ], [ 2.7745464, 39.8496215 ], [ 2.7742465, 39.851095 ], [ 2.7780118, 39.8553396 ], [ 2.7826363, 39.8558992 ], [ 2.7867547, 39.8526381 ], [ 2.7887846, 39.8536084 ], [ 2.7905535, 39.8566549 ], [ 2.7923946, 39.856528 ], [ 2.7941384, 39.8550419 ], [ 2.7970453, 39.854859 ], [ 2.7992527, 39.8535281 ], [ 2.7991616, 39.8516202 ], [ 2.8003311, 39.8510214 ], [ 2.802358, 39.8529572 ], [ 2.8057135, 39.8525139 ], [ 2.8053344, 39.8546195 ], [ 2.8035096, 39.8554672 ], [ 2.8048248, 39.8569104 ], [ 2.8034538, 39.8567356 ], [ 2.80188, 39.8582812 ], [ 2.8026768, 39.8610306 ], [ 2.8046206, 39.8622849 ], [ 2.8095324, 39.8619282 ], [ 2.8100346, 39.8605798 ], [ 2.808924, 39.859821 ], [ 2.8090436, 39.8588044 ], [ 2.8150775, 39.858106 ], [ 2.8154729, 39.8568641 ], [ 2.8199844, 39.8585541 ], [ 2.8226813, 39.8575112 ], [ 2.8229595, 39.8594798 ], [ 2.8242619, 39.8609708 ], [ 2.824836, 39.8604393 ], [ 2.8245173, 39.8580965 ], [ 2.8237818, 39.8577608 ], [ 2.8248337, 39.8566109 ], [ 2.8253016, 39.8574736 ], [ 2.8271352, 39.857411 ], [ 2.8275332, 39.8597681 ], [ 2.8310619, 39.8613056 ], [ 2.8328788, 39.8611211 ], [ 2.8383801, 39.8653005 ], [ 2.8399261, 39.8648904 ], [ 2.8421738, 39.86122 ], [ 2.8450244, 39.8617701 ], [ 2.8455941, 39.8635588 ], [ 2.8476015, 39.8656571 ], [ 2.8474996, 39.8677916 ], [ 2.8520649, 39.8697869 ], [ 2.8522109, 39.8730476 ], [ 2.8531893, 39.8742885 ], [ 2.8581619, 39.8756297 ], [ 2.8609298, 39.8751693 ], [ 2.8631304, 39.8761081 ], [ 2.8663506, 39.8758419 ], [ 2.8671548, 39.876682 ], [ 2.8700559, 39.8764102 ], [ 2.8722338, 39.8778165 ], [ 2.8749013, 39.8779821 ], [ 2.8790198, 39.8829199 ], [ 2.8850795, 39.8853478 ], [ 2.8884537, 39.8881183 ], [ 2.8887694, 39.8891696 ], [ 2.8880527, 39.8896858 ], [ 2.8890387, 39.8911395 ], [ 2.8929665, 39.8919611 ], [ 2.8954006, 39.8948796 ], [ 2.8974938, 39.89561 ], [ 2.8986335, 39.8950389 ], [ 2.9010955, 39.8968979 ], [ 2.9054696, 39.8977929 ], [ 2.9083988, 39.895045 ], [ 2.912056, 39.896697 ], [ 2.9131398, 39.8960732 ], [ 2.915102, 39.8973303 ], [ 2.9155589, 39.8966078 ], [ 2.9176295, 39.8966419 ], [ 2.9187227, 39.8971118 ], [ 2.9180385, 39.8987922 ], [ 2.9192947, 39.9001809 ], [ 2.9188387, 39.9011331 ], [ 2.920037, 39.902019 ], [ 2.9226885, 39.90033 ], [ 2.9241554, 39.9007014 ], [ 2.9251212, 39.9000136 ], [ 2.925987, 39.9010749 ], [ 2.9301005, 39.9022814 ], [ 2.9313883, 39.9018533 ], [ 2.9362324, 39.9041863 ], [ 2.9379383, 39.9086542 ], [ 2.9405384, 39.9123165 ], [ 2.9456893, 39.9149165 ], [ 2.9461121, 39.9170649 ], [ 2.9486558, 39.9179139 ], [ 2.9503386, 39.9201244 ], [ 2.9523836, 39.919137 ], [ 2.9524823, 39.9177666 ], [ 2.9539796, 39.9163893 ], [ 2.9562367, 39.9167382 ], [ 2.9564589, 39.9155682 ], [ 2.9578885, 39.9148905 ], [ 2.9584496, 39.9156888 ], [ 2.9597614, 39.9154915 ], [ 2.9614827, 39.9140516 ], [ 2.9637245, 39.9145301 ], [ 2.9624637, 39.9124244 ], [ 2.9646681, 39.9116828 ], [ 2.9645042, 39.9108545 ], [ 2.9654266, 39.9103896 ], [ 2.9704321, 39.9092066 ], [ 2.973771, 39.9105587 ], [ 2.9756619, 39.9090498 ], [ 2.9763319, 39.909651 ], [ 2.977142, 39.9088045 ], [ 2.9805205, 39.9096193 ], [ 2.9823665, 39.9082821 ], [ 2.9841807, 39.909544 ], [ 2.9851631, 39.9088427 ], [ 2.9871835, 39.9092832 ], [ 2.987754, 39.9105044 ], [ 2.9915643, 39.9130939 ], [ 2.9913544, 39.9143219 ], [ 2.9926113, 39.9152638 ], [ 2.9943457, 39.9150354 ], [ 2.9943001, 39.9174214 ], [ 2.995852, 39.9170893 ], [ 2.9976705, 39.9181031 ], [ 2.9987747, 39.9191194 ], [ 2.9988875, 39.9208706 ], [ 3.0014798, 39.9238172 ], [ 3.0031293, 39.9235498 ], [ 3.0039866, 39.9243891 ], [ 3.0060644, 39.9239155 ], [ 3.0076794, 39.9264188 ], [ 3.0106509, 39.9258603 ], [ 3.0208439, 39.9318132 ], [ 3.0247737, 39.9329369 ], [ 3.0279955, 39.9348531 ], [ 3.0344798, 39.9344848 ], [ 3.0311507, 39.9318232 ], [ 3.0314671, 39.9307447 ], [ 3.0334467, 39.9302167 ], [ 3.0368224, 39.9319554 ], [ 3.0369821, 39.9332485 ], [ 3.0419414, 39.9376896 ], [ 3.0426212, 39.9364183 ], [ 3.0384894, 39.932981 ], [ 3.0374543, 39.9302718 ], [ 3.0438244, 39.9296602 ], [ 3.0461687, 39.9315366 ], [ 3.0496267, 39.9315753 ], [ 3.0519963, 39.9332815 ], [ 3.0549587, 39.9327326 ], [ 3.0583738, 39.9334539 ], [ 3.0589451, 39.9318101 ], [ 3.0610598, 39.9324964 ], [ 3.0578043, 39.9270551 ], [ 3.0571511, 39.9242807 ], [ 3.054782, 39.9219024 ], [ 3.0561922, 39.9208003 ], [ 3.0589317, 39.9221016 ], [ 3.057617, 39.9201399 ], [ 3.0597566, 39.9201686 ], [ 3.0605787, 39.9194166 ], [ 3.060752, 39.9202299 ], [ 3.0636245, 39.9211931 ], [ 3.0660517, 39.9230854 ], [ 3.0658152, 39.9225164 ], [ 3.0679453, 39.9230422 ], [ 3.0681172, 39.9222647 ], [ 3.0692757, 39.9230916 ], [ 3.0725158, 39.9231409 ], [ 3.0727415, 39.9221101 ], [ 3.0794681, 39.925165 ], [ 3.0807147, 39.9247557 ], [ 3.0921714, 39.9331762 ], [ 3.0926861, 39.9346057 ], [ 3.0959998, 39.9358228 ], [ 3.1016553, 39.9350541 ], [ 3.0946253, 39.9291145 ], [ 3.0976216, 39.9277857 ], [ 3.1034676, 39.9299283 ], [ 3.1063305, 39.9322334 ], [ 3.1086398, 39.9319362 ], [ 3.10864, 39.9311649 ], [ 3.1095437, 39.9309283 ], [ 3.1119469, 39.9323001 ], [ 3.1137658, 39.9311348 ], [ 3.1181429, 39.9350458 ], [ 3.1178479, 39.9332709 ], [ 3.1191916, 39.9326971 ], [ 3.1189663, 39.9316913 ], [ 3.1218794, 39.9319053 ], [ 3.131707, 39.9385482 ], [ 3.1311167, 39.939303 ], [ 3.1325276, 39.9405348 ], [ 3.1325626, 39.944697 ], [ 3.134332, 39.9457906 ], [ 3.1354165, 39.9453365 ], [ 3.1375837, 39.9468109 ], [ 3.1394819, 39.9468968 ], [ 3.141295, 39.9485933 ], [ 3.1454149, 39.9502218 ], [ 3.1465396, 39.9524357 ], [ 3.1460211, 39.9531394 ], [ 3.1474534, 39.9540873 ], [ 3.1560606, 39.9569637 ], [ 3.1578175, 39.9564353 ], [ 3.1593114, 39.957268 ], [ 3.1588054, 39.9559844 ], [ 3.1598742, 39.9557439 ], [ 3.1627742, 39.9571631 ], [ 3.1639838, 39.9593939 ], [ 3.1656226, 39.9598522 ], [ 3.166937, 39.9599273 ], [ 3.1661734, 39.9592349 ], [ 3.1665999, 39.958724 ], [ 3.1711239, 39.9596426 ], [ 3.1706956, 39.9588926 ], [ 3.1715405, 39.958136 ], [ 3.1733072, 39.9600024 ], [ 3.1776255, 39.9615258 ], [ 3.1798384, 39.9610756 ], [ 3.1794959, 39.9588721 ], [ 3.1801549, 39.9585138 ], [ 3.1769693, 39.9561335 ], [ 3.1753174, 39.9535122 ], [ 3.1759287, 39.9534207 ], [ 3.1732832, 39.952415 ], [ 3.1736263, 39.9516715 ], [ 3.175917, 39.9520065 ], [ 3.179562, 39.9510849 ], [ 3.1818831, 39.9516965 ], [ 3.1854656, 39.9546743 ], [ 3.1925118, 39.9581182 ], [ 3.191801, 39.9555059 ], [ 3.192746, 39.9544784 ], [ 3.1977904, 39.9550824 ], [ 3.1995366, 39.9562173 ], [ 3.2001597, 39.9556092 ], [ 3.2011271, 39.9569637 ], [ 3.2059658, 39.9576092 ], [ 3.2107965, 39.9615875 ], [ 3.2133928, 39.9625085 ], [ 3.2144731, 39.9614982 ], [ 3.2128647, 39.9593791 ], [ 3.2140403, 39.9583978 ], [ 3.2129329, 39.9568912 ], [ 3.212967, 39.9554308 ], [ 3.2082758, 39.9524121 ], [ 3.2051462, 39.9485441 ], [ 3.2052755, 39.9467286 ], [ 3.2028733, 39.9453643 ], [ 3.2021801, 39.9438557 ], [ 3.1960979, 39.9423749 ], [ 3.1928149, 39.9398167 ], [ 3.1893542, 39.9440016 ], [ 3.1879859, 39.9430054 ], [ 3.1891669, 39.9421693 ], [ 3.1891454, 39.9411246 ], [ 3.1877722, 39.940047 ], [ 3.1842489, 39.9395232 ], [ 3.181798, 39.9407803 ], [ 3.1803497, 39.9404993 ], [ 3.1837859, 39.9377185 ], [ 3.1808502, 39.938065 ], [ 3.1782988, 39.93739 ], [ 3.1762559, 39.9354386 ], [ 3.1749161, 39.935627 ], [ 3.1737244, 39.9338525 ], [ 3.1705251, 39.9331724 ], [ 3.1689828, 39.9313727 ], [ 3.1650998, 39.9297651 ], [ 3.1636112, 39.9299165 ], [ 3.1646782, 39.9287563 ], [ 3.1634543, 39.928692 ], [ 3.1543897, 39.9231413 ], [ 3.149014, 39.9248114 ], [ 3.147413, 39.9238195 ], [ 3.1454493, 39.9239525 ], [ 3.1429458, 39.9266192 ], [ 3.1386277, 39.9280304 ], [ 3.1314989, 39.9269012 ], [ 3.1293413, 39.9244328 ], [ 3.1293346, 39.9192171 ], [ 3.1274473, 39.916792 ], [ 3.1198474, 39.9149053 ], [ 3.1186218, 39.9123637 ], [ 3.1157975, 39.9106581 ], [ 3.1112056, 39.9118267 ], [ 3.1099825, 39.9112506 ], [ 3.1087433, 39.908041 ], [ 3.1101756, 39.906856 ], [ 3.111227, 39.9039919 ], [ 3.1107429, 39.8992456 ], [ 3.1075768, 39.9058374 ], [ 3.1044679, 39.9056379 ], [ 3.1008749, 39.9089273 ], [ 3.0989731, 39.9095634 ], [ 3.0964424, 39.9090502 ], [ 3.0914737, 39.9111352 ], [ 3.0873216, 39.9104275 ], [ 3.0831681, 39.9065021 ], [ 3.0884339, 39.9045918 ], [ 3.0871385, 39.9025925 ], [ 3.0859184, 39.9019894 ], [ 3.0857537, 39.9023162 ], [ 3.0868771, 39.9027031 ], [ 3.087917, 39.9045598 ], [ 3.0852955, 39.9054288 ], [ 3.0847138, 39.9046766 ], [ 3.0831792, 39.9061039 ], [ 3.08076, 39.9022372 ], [ 3.0800611, 39.9022779 ], [ 3.080711, 39.9021123 ], [ 3.0790061, 39.8957267 ], [ 3.0785135, 39.8882956 ], [ 3.0838287, 39.8753222 ], [ 3.0916146, 39.8651052 ], [ 3.1007038, 39.8590257 ], [ 3.106488, 39.8576365 ], [ 3.1102255, 39.8584162 ], [ 3.1114394, 39.861484 ], [ 3.1135652, 39.8612305 ], [ 3.1156117, 39.862161 ], [ 3.1160185, 39.8646038 ], [ 3.118473, 39.8641718 ], [ 3.1181003, 39.8633998 ], [ 3.1188237, 39.8629837 ], [ 3.1178515, 39.8633174 ], [ 3.1184512, 39.8619183 ], [ 3.1201967, 39.8614652 ], [ 3.1209728, 39.8620819 ], [ 3.1205842, 39.8631558 ], [ 3.1224682, 39.8645501 ], [ 3.1236981, 39.8629766 ], [ 3.1254075, 39.8629728 ], [ 3.1286037, 39.8670787 ], [ 3.1318225, 39.8692888 ], [ 3.1334613, 39.8691385 ], [ 3.1343752, 39.8681915 ], [ 3.1349768, 39.8654867 ], [ 3.1367485, 39.8661254 ], [ 3.1367068, 39.8654418 ], [ 3.137179, 39.8657765 ], [ 3.1381986, 39.8646073 ], [ 3.1392395, 39.8653153 ], [ 3.141315, 39.8647078 ], [ 3.1431323, 39.8666858 ], [ 3.1434926, 39.8649682 ], [ 3.1456179, 39.8660617 ], [ 3.1427574, 39.8672275 ], [ 3.1457452, 39.8663233 ], [ 3.1480751, 39.8667531 ], [ 3.1496533, 39.8697211 ], [ 3.152438, 39.8721285 ], [ 3.1539487, 39.8718526 ], [ 3.1543086, 39.871049 ], [ 3.1547797, 39.8716551 ], [ 3.1570313, 39.8708644 ], [ 3.1584145, 39.8720348 ], [ 3.1591576, 39.8713701 ], [ 3.1598622, 39.8731404 ], [ 3.160339, 39.87253 ], [ 3.1638946, 39.8737529 ], [ 3.1650575, 39.876105 ], [ 3.1668669, 39.8766475 ], [ 3.1664845, 39.8775934 ], [ 3.1690494, 39.8777158 ], [ 3.169622, 39.8762728 ], [ 3.1705837, 39.8761761 ], [ 3.1720473, 39.8793235 ], [ 3.1727856, 39.8777335 ], [ 3.1733946, 39.8779463 ], [ 3.1736323, 39.8790435 ], [ 3.1764999, 39.87992 ], [ 3.1798319, 39.8832567 ], [ 3.1805508, 39.8825796 ], [ 3.186283, 39.8844051 ], [ 3.1871336, 39.8860271 ], [ 3.1888987, 39.8861068 ], [ 3.1884014, 39.8866878 ], [ 3.1897459, 39.8869454 ], [ 3.1876351, 39.8872346 ], [ 3.1885551, 39.8878327 ], [ 3.1874371, 39.8881087 ], [ 3.1882604, 39.8898609 ], [ 3.1900102, 39.8899092 ], [ 3.1892535, 39.8904193 ], [ 3.1901943, 39.8904188 ], [ 3.1904353, 39.8924832 ], [ 3.1913386, 39.8919862 ], [ 3.1945621, 39.8933626 ], [ 3.1969225, 39.8923479 ], [ 3.1978223, 39.8908612 ], [ 3.1994343, 39.8904854 ], [ 3.2002817, 39.8913056 ], [ 3.2000248, 39.8908085 ], [ 3.2013211, 39.8899782 ], [ 3.2033628, 39.8903789 ], [ 3.2044579, 39.8888658 ], [ 3.2035715, 39.8879638 ], [ 3.2011734, 39.8877671 ], [ 3.1931027, 39.8820064 ], [ 3.1882571, 39.8816677 ], [ 3.188225, 39.8792877 ], [ 3.1904734, 39.8772252 ], [ 3.1871061, 39.876983 ], [ 3.1867473, 39.8755891 ], [ 3.1887762, 39.8736824 ], [ 3.1869131, 39.8732615 ], [ 3.1841227, 39.8707466 ], [ 3.1859383, 39.8700934 ], [ 3.1853127, 39.8689369 ], [ 3.1860088, 39.866417 ], [ 3.1866471, 39.866162 ], [ 3.1866792, 39.8646535 ], [ 3.1874463, 39.864687 ], [ 3.1866473, 39.8632996 ], [ 3.1883706, 39.8619848 ], [ 3.1936144, 39.862664 ], [ 3.1933891, 39.862156 ], [ 3.1942712, 39.8619073 ], [ 3.1971529, 39.8627506 ], [ 3.1971695, 39.8617535 ], [ 3.1945168, 39.8569985 ], [ 3.1886693, 39.8516158 ], [ 3.1869223, 39.8513907 ], [ 3.1869009, 39.8499579 ], [ 3.1853727, 39.849389 ], [ 3.1859712, 39.8486114 ], [ 3.1800844, 39.8421386 ], [ 3.1787512, 39.8420122 ], [ 3.1780418, 39.8408101 ], [ 3.1752564, 39.8403262 ], [ 3.1746786, 39.838665 ], [ 3.173454, 39.8379701 ], [ 3.1702391, 39.8378658 ], [ 3.1688406, 39.8370591 ], [ 3.1637811, 39.8388963 ], [ 3.1594685, 39.8367894 ], [ 3.1573903, 39.8377235 ], [ 3.1451527, 39.8339096 ], [ 3.1440047, 39.834165 ], [ 3.1407002, 39.831957 ], [ 3.1404334, 39.8324879 ], [ 3.1431263, 39.8341369 ], [ 3.1413065, 39.8356133 ], [ 3.1392176, 39.8346135 ], [ 3.1376631, 39.8357362 ], [ 3.1400619, 39.8372832 ], [ 3.1388549, 39.8384078 ], [ 3.1368861, 39.8389721 ], [ 3.1352234, 39.8379492 ], [ 3.1372945, 39.8397205 ], [ 3.1369708, 39.8403557 ], [ 3.133312, 39.8409812 ], [ 3.1319401, 39.8380164 ], [ 3.1335521, 39.8370154 ], [ 3.1350291, 39.8372037 ], [ 3.1349527, 39.8365662 ], [ 3.1335294, 39.8367884 ], [ 3.1335119, 39.8360557 ], [ 3.1351132, 39.8360207 ], [ 3.1360667, 39.8369315 ], [ 3.1354431, 39.8359527 ], [ 3.1331981, 39.8359074 ], [ 3.1300753, 39.8387149 ], [ 3.1323286, 39.8401097 ], [ 3.1313344, 39.840929 ], [ 3.1280845, 39.8398107 ], [ 3.1229755, 39.8354658 ], [ 3.1190918, 39.8290653 ], [ 3.1168079, 39.8212468 ], [ 3.1169677, 39.8150866 ], [ 3.1203923, 39.8028498 ], [ 3.1212077, 39.8015722 ], [ 3.1237124, 39.8019615 ], [ 3.1219851, 39.8011373 ], [ 3.1230365, 39.7983182 ], [ 3.1292344, 39.7892042 ], [ 3.1458029, 39.7731542 ], [ 3.1527158, 39.7679648 ], [ 3.1572848, 39.7664832 ], [ 3.1581405, 39.7654344 ], [ 3.1588396, 39.7664103 ], [ 3.1583775, 39.7667265 ], [ 3.1590505, 39.7665255 ], [ 3.1585264, 39.7654165 ], [ 3.1615408, 39.7647246 ], [ 3.1583551, 39.7672326 ], [ 3.1592307, 39.7673035 ], [ 3.1630748, 39.7645044 ], [ 3.1637507, 39.7629127 ], [ 3.1663236, 39.7628388 ], [ 3.1698447, 39.7596055 ], [ 3.1740486, 39.7591636 ], [ 3.1754901, 39.7574975 ], [ 3.1769498, 39.7574293 ], [ 3.1775914, 39.7560874 ], [ 3.1807579, 39.7551077 ], [ 3.1822873, 39.755639 ], [ 3.1826679, 39.7547053 ], [ 3.1852208, 39.7546491 ], [ 3.1876831, 39.7529336 ], [ 3.1895285, 39.7540011 ], [ 3.1902752, 39.7518864 ], [ 3.1982789, 39.7481002 ], [ 3.2000296, 39.7484696 ], [ 3.2005608, 39.7476306 ], [ 3.2019438, 39.7483361 ], [ 3.2041753, 39.7464531 ], [ 3.2060831, 39.746453 ], [ 3.2063792, 39.7454358 ], [ 3.2087382, 39.744595 ], [ 3.2121985, 39.7415229 ], [ 3.2219576, 39.739101 ], [ 3.2202074, 39.7402694 ], [ 3.2224152, 39.7389856 ], [ 3.2225052, 39.7384694 ], [ 3.2315644, 39.7347893 ], [ 3.2326041, 39.7349698 ], [ 3.2333538, 39.7336865 ], [ 3.2396607, 39.7311557 ], [ 3.2523565, 39.7293483 ], [ 3.2551861, 39.729898 ], [ 3.2576616, 39.7341191 ], [ 3.2600206, 39.7344704 ], [ 3.2604176, 39.735345 ], [ 3.2616945, 39.7344036 ], [ 3.2626193, 39.7347391 ], [ 3.2626384, 39.7336783 ], [ 3.2655901, 39.7344593 ], [ 3.2660729, 39.7335435 ], [ 3.2729179, 39.7361177 ], [ 3.2732612, 39.7373222 ], [ 3.2748092, 39.736384 ], [ 3.2757113, 39.7375435 ], [ 3.2721937, 39.7377265 ], [ 3.275954, 39.7378624 ], [ 3.2770163, 39.7389558 ], [ 3.2762599, 39.7394838 ], [ 3.2774008, 39.7392413 ], [ 3.2792801, 39.7404078 ], [ 3.2858032, 39.7400613 ], [ 3.2882816, 39.7446894 ], [ 3.2935713, 39.7467346 ], [ 3.2933566, 39.7473638 ], [ 3.2944134, 39.7478299 ], [ 3.2961997, 39.7470627 ], [ 3.2980505, 39.7486341 ], [ 3.3006951, 39.7478464 ], [ 3.3015078, 39.7484073 ], [ 3.2999012, 39.7498385 ], [ 3.301489, 39.7505644 ], [ 3.3026746, 39.7498838 ], [ 3.3032057, 39.7516078 ], [ 3.3044073, 39.7511748 ], [ 3.3050242, 39.7526925 ], [ 3.3078191, 39.7545979 ], [ 3.3100775, 39.7544865 ], [ 3.3104461, 39.7553125 ], [ 3.3136744, 39.7560588 ], [ 3.3144204, 39.7556132 ], [ 3.3175961, 39.7572976 ], [ 3.3206243, 39.7562042 ], [ 3.3213724, 39.7579331 ], [ 3.3255974, 39.7578575 ], [ 3.3269905, 39.7594703 ], [ 3.3294879, 39.7600239 ], [ 3.3310766, 39.7616413 ], [ 3.3304033, 39.7646765 ], [ 3.3340552, 39.7661539 ], [ 3.3361552, 39.770368 ], [ 3.3352654, 39.7709429 ], [ 3.3358405, 39.7717394 ], [ 3.3348341, 39.772287 ], [ 3.335333, 39.7731548 ], [ 3.3347113, 39.7740114 ], [ 3.3331829, 39.7744347 ], [ 3.332891, 39.7737698 ], [ 3.3319221, 39.7751678 ], [ 3.3330344, 39.7750918 ], [ 3.3326136, 39.7759069 ], [ 3.3335261, 39.776788 ], [ 3.3347125, 39.7767333 ], [ 3.3341288, 39.7780185 ], [ 3.3350167, 39.7839924 ], [ 3.3372053, 39.7847509 ], [ 3.3372751, 39.7854682 ], [ 3.3379295, 39.7849817 ], [ 3.343294, 39.7879415 ], [ 3.3480254, 39.789376 ], [ 3.3560988, 39.7829 ], [ 3.3568337, 39.7814612 ], [ 3.3585665, 39.781152 ], [ 3.3594301, 39.7789135 ], [ 3.364816, 39.7764481 ], [ 3.3683136, 39.7766377 ], [ 3.3702341, 39.7745763 ], [ 3.3715215, 39.7745351 ], [ 3.3712372, 39.7732033 ], [ 3.3728251, 39.7730755 ], [ 3.3738014, 39.7719334 ], [ 3.3731469, 39.7694802 ], [ 3.3737209, 39.7684164 ], [ 3.3765319, 39.7678639 ], [ 3.3805618, 39.7652337 ], [ 3.3842191, 39.7647878 ], [ 3.3847554, 39.7637361 ], [ 3.3870891, 39.7646558 ], [ 3.3922282, 39.7640084 ], [ 3.3963534, 39.7647507 ], [ 3.3973244, 39.7646641 ], [ 3.3976557, 39.7633235 ], [ 3.3996686, 39.7627013 ], [ 3.4040728, 39.7639878 ], [ 3.4057411, 39.7621198 ], [ 3.4059343, 39.7604621 ], [ 3.4043464, 39.7589652 ], [ 3.4085575, 39.7594373 ], [ 3.4102767, 39.7586744 ], [ 3.4106335, 39.757695 ], [ 3.4099844, 39.7570022 ], [ 3.4108722, 39.7572063 ], [ 3.4123743, 39.7557093 ], [ 3.4114788, 39.7542601 ], [ 3.4137502, 39.7543174 ], [ 3.4135505, 39.7523463 ], [ 3.4169279, 39.7525554 ], [ 3.4173139, 39.7508636 ], [ 3.4183956, 39.7505891 ], [ 3.4205745, 39.7517004 ], [ 3.4215817, 39.7511829 ], [ 3.4266739, 39.7516716 ], [ 3.4274986, 39.7502369 ], [ 3.4304219, 39.7492852 ], [ 3.4324225, 39.7450364 ], [ 3.4356223, 39.7441331 ], [ 3.4394478, 39.7453993 ], [ 3.4418578, 39.7444197 ], [ 3.4499513, 39.7441537 ], [ 3.4507453, 39.7434081 ], [ 3.4595192, 39.7468894 ], [ 3.4597454, 39.7485205 ], [ 3.4613829, 39.7480772 ], [ 3.4597884, 39.7469733 ], [ 3.4600801, 39.7460897 ], [ 3.4575813, 39.7453767 ], [ 3.4572957, 39.7440985 ], [ 3.4584262, 39.7412493 ], [ 3.4614191, 39.7407785 ], [ 3.461849, 39.7383318 ], [ 3.4600841, 39.738634 ], [ 3.4595409, 39.7375135 ], [ 3.4584667, 39.7378218 ], [ 3.4576553, 39.7334192 ], [ 3.4527624, 39.7293748 ], [ 3.4518166, 39.7268302 ], [ 3.4521704, 39.7259209 ], [ 3.4566883, 39.7280062 ], [ 3.4551557, 39.7260785 ], [ 3.4520675, 39.7247533 ], [ 3.4527226, 39.7223726 ], [ 3.4541746, 39.7209552 ], [ 3.456426, 39.7217215 ], [ 3.4568037, 39.7207577 ], [ 3.4590525, 39.7209887 ], [ 3.4590414, 39.7200039 ], [ 3.4592441, 39.7199501 ], [ 3.4606661, 39.7207577 ], [ 3.4611794, 39.7198665 ], [ 3.4618076, 39.7210019 ], [ 3.4662696, 39.7200661 ], [ 3.4670012, 39.7210149 ], [ 3.4708471, 39.7206609 ], [ 3.4716454, 39.72177 ], [ 3.4735356, 39.720369 ], [ 3.4730632, 39.7197109 ], [ 3.4742289, 39.7197697 ], [ 3.4742289, 39.7204893 ], [ 3.4761429, 39.7201658 ], [ 3.4764347, 39.7196442 ], [ 3.4757052, 39.7193735 ], [ 3.4769669, 39.7173665 ], [ 3.4767094, 39.716462 ], [ 3.4787522, 39.7158348 ], [ 3.4777136, 39.7146266 ], [ 3.4760003, 39.7149409 ], [ 3.4763032, 39.7135719 ], [ 3.4775763, 39.7128505 ], [ 3.4753533, 39.7120252 ], [ 3.4745452, 39.7093066 ], [ 3.4744492, 39.710656 ], [ 3.4697358, 39.7129265 ], [ 3.4693011, 39.7113862 ], [ 3.4655977, 39.7105134 ], [ 3.4629994, 39.708986 ], [ 3.4635743, 39.7103123 ], [ 3.4653119, 39.7105345 ], [ 3.4630464, 39.7112308 ], [ 3.4626355, 39.7100561 ], [ 3.4613451, 39.7099505 ], [ 3.461067, 39.7076548 ], [ 3.4566263, 39.7055064 ], [ 3.4559111, 39.703474 ], [ 3.4561503, 39.7005633 ], [ 3.4548246, 39.6999497 ], [ 3.4561932, 39.6987844 ], [ 3.4552189, 39.6967571 ], [ 3.4558466, 39.6958552 ], [ 3.4547898, 39.6957376 ], [ 3.4555354, 39.6950916 ], [ 3.4533742, 39.6931007 ], [ 3.4548692, 39.6888999 ], [ 3.4577222, 39.6894476 ], [ 3.4570329, 39.6864227 ], [ 3.45798, 39.6844542 ], [ 3.4565608, 39.6832026 ], [ 3.4536815, 39.683637 ], [ 3.4533638, 39.6823959 ], [ 3.452205, 39.6821565 ], [ 3.4526482, 39.681317 ], [ 3.4564479, 39.680538 ], [ 3.4567816, 39.6797308 ], [ 3.4528272, 39.6744168 ], [ 3.453954, 39.6740342 ], [ 3.4535667, 39.6734652 ], [ 3.4565772, 39.6724602 ], [ 3.4571359, 39.6708001 ], [ 3.4550159, 39.6695446 ], [ 3.4524986, 39.6695124 ], [ 3.453343, 39.6682685 ], [ 3.4527541, 39.6677801 ], [ 3.4547155, 39.6670835 ], [ 3.4540932, 39.6667862 ], [ 3.4543982, 39.663946 ], [ 3.4533864, 39.6628443 ], [ 3.4539215, 39.6613022 ], [ 3.45596, 39.6614013 ], [ 3.4559386, 39.6564124 ], [ 3.454973, 39.6549917 ], [ 3.4527085, 39.6548797 ], [ 3.4489181, 39.6562107 ], [ 3.4477668, 39.6554062 ], [ 3.4467663, 39.6568542 ], [ 3.4453875, 39.6564482 ], [ 3.4431792, 39.6575828 ], [ 3.4409021, 39.6563189 ], [ 3.4388906, 39.65279 ], [ 3.4378707, 39.648522 ], [ 3.436569, 39.6478653 ], [ 3.437708, 39.6466076 ], [ 3.4369267, 39.6457404 ], [ 3.4376133, 39.6458168 ], [ 3.4372849, 39.6453645 ], [ 3.438823, 39.6440407 ], [ 3.4381364, 39.639962 ], [ 3.4353249, 39.6370606 ], [ 3.4368012, 39.6348481 ], [ 3.4341372, 39.6327029 ], [ 3.4317044, 39.6325025 ], [ 3.4305829, 39.6332602 ], [ 3.4299623, 39.6325026 ], [ 3.4267182, 39.632232 ], [ 3.4202944, 39.6340577 ], [ 3.419593, 39.6335227 ], [ 3.417002, 39.6339927 ], [ 3.4148723, 39.6352248 ], [ 3.4134937, 39.6349563 ], [ 3.41274, 39.6354613 ], [ 3.413711, 39.6357773 ], [ 3.4127454, 39.6367668 ], [ 3.4094851, 39.6376726 ], [ 3.4043942, 39.6360154 ], [ 3.4022117, 39.6341238 ], [ 3.4017604, 39.6324599 ], [ 3.399852, 39.6324589 ], [ 3.4000022, 39.6305315 ], [ 3.3980603, 39.6298891 ], [ 3.3970705, 39.6286372 ], [ 3.3971582, 39.6265534 ], [ 3.3959069, 39.6240526 ], [ 3.3939288, 39.6226116 ], [ 3.3929913, 39.6206613 ], [ 3.3930423, 39.619964 ], [ 3.39431, 39.6196946 ], [ 3.3924107, 39.6194527 ], [ 3.3919504, 39.618368 ], [ 3.3932116, 39.6164669 ], [ 3.3926024, 39.616402 ], [ 3.3930561, 39.6146177 ], [ 3.392434, 39.6152027 ], [ 3.3914499, 39.6139242 ], [ 3.3934097, 39.6143244 ], [ 3.3924119, 39.6134425 ], [ 3.3931271, 39.6132401 ], [ 3.3930634, 39.6128883 ], [ 3.3918407, 39.61291 ], [ 3.3920177, 39.6121537 ], [ 3.3928438, 39.6123232 ], [ 3.3926668, 39.6115834 ], [ 3.391374, 39.6116206 ], [ 3.3914169, 39.6108974 ], [ 3.3924898, 39.6109677 ], [ 3.3920821, 39.6101039 ], [ 3.3914652, 39.6108148 ], [ 3.3904928, 39.6104119 ], [ 3.3904915, 39.6094974 ], [ 3.391716, 39.6091441 ], [ 3.3902045, 39.6086988 ], [ 3.3892068, 39.6054834 ], [ 3.3866104, 39.6033837 ], [ 3.3857481, 39.6012701 ], [ 3.3848025, 39.5966407 ], [ 3.3850758, 39.5917898 ], [ 3.3865353, 39.5875262 ], [ 3.3931423, 39.5851838 ], [ 3.3941615, 39.5834722 ], [ 3.3976269, 39.5835466 ], [ 3.398496, 39.5828189 ], [ 3.402691, 39.583497 ], [ 3.4040857, 39.5808013 ], [ 3.4036244, 39.579164 ], [ 3.4004486, 39.5769479 ], [ 3.3950091, 39.5756661 ], [ 3.3930565, 39.5765178 ], [ 3.387456, 39.5759886 ], [ 3.3847845, 39.5768155 ], [ 3.3830894, 39.575757 ], [ 3.3801175, 39.5764269 ], [ 3.3789157, 39.5759403 ], [ 3.3754182, 39.5719619 ], [ 3.3754803, 39.5709655 ], [ 3.3769537, 39.5699669 ], [ 3.374726, 39.5689488 ], [ 3.3730839, 39.5667949 ], [ 3.3736872, 39.5646864 ], [ 3.3758906, 39.5644417 ], [ 3.3749623, 39.5627313 ], [ 3.3740811, 39.5625677 ], [ 3.3752157, 39.5600065 ], [ 3.3731678, 39.5583717 ], [ 3.3735976, 39.5569927 ], [ 3.3725883, 39.5561262 ], [ 3.3707063, 39.5576884 ], [ 3.3670654, 39.5561498 ], [ 3.3695069, 39.5543363 ], [ 3.3693699, 39.5528168 ], [ 3.3677942, 39.5521285 ], [ 3.3685389, 39.5508884 ], [ 3.3635572, 39.5504567 ], [ 3.3609047, 39.5513626 ], [ 3.3592372, 39.5488638 ], [ 3.3540309, 39.5474611 ], [ 3.3531614, 39.5483303 ], [ 3.3535862, 39.5472274 ], [ 3.3556715, 39.5464898 ], [ 3.353418, 39.5454379 ], [ 3.3512486, 39.5455351 ], [ 3.3502948, 39.5448996 ], [ 3.3512246, 39.5444876 ], [ 3.3411021, 39.5412081 ], [ 3.3401345, 39.5392667 ], [ 3.3405079, 39.5377414 ], [ 3.3382289, 39.5384978 ], [ 3.3386779, 39.5410941 ], [ 3.3381093, 39.5417562 ], [ 3.336326, 39.5413147 ], [ 3.332827, 39.5385379 ], [ 3.3320198, 39.538688 ], [ 3.3318701, 39.5404454 ], [ 3.3316314, 39.538496 ], [ 3.3327387, 39.5377153 ], [ 3.3359576, 39.5402219 ], [ 3.3365552, 39.5366063 ], [ 3.3386743, 39.5360798 ], [ 3.3381875, 39.5352107 ], [ 3.3403107, 39.534876 ], [ 3.3378698, 39.5342716 ], [ 3.3360261, 39.5321736 ], [ 3.3319988, 39.5327126 ], [ 3.3337958, 39.5314058 ], [ 3.3291831, 39.5290653 ], [ 3.3255333, 39.5259484 ], [ 3.3242289, 39.5258726 ], [ 3.3242058, 39.5245579 ], [ 3.3219935, 39.5221194 ], [ 3.3192157, 39.52124 ], [ 3.3175102, 39.5225937 ], [ 3.3170324, 39.5207467 ], [ 3.3142562, 39.5207961 ], [ 3.317274, 39.5187315 ], [ 3.3167815, 39.5177626 ], [ 3.3152296, 39.516413 ], [ 3.3108075, 39.5168648 ], [ 3.3105964, 39.515993 ], [ 3.3127579, 39.5152555 ], [ 3.3127576, 39.5143302 ], [ 3.302811, 39.5048005 ], [ 3.3000005, 39.5037759 ], [ 3.3019269, 39.5014919 ], [ 3.3016224, 39.5005949 ], [ 3.2998816, 39.4999373 ], [ 3.2986489, 39.500715 ], [ 3.2989468, 39.4999149 ], [ 3.2960256, 39.499747 ], [ 3.296888, 39.4980781 ], [ 3.2996728, 39.4979903 ], [ 3.2985204, 39.4969025 ], [ 3.2966497, 39.4975199 ], [ 3.2960683, 39.4967906 ], [ 3.2971349, 39.49542 ], [ 3.2968006, 39.4946319 ], [ 3.2938003, 39.4949484 ], [ 3.294716, 39.49423 ], [ 3.2921416, 39.4941152 ], [ 3.2944213, 39.4932528 ], [ 3.2939827, 39.4923032 ], [ 3.2918598, 39.4913563 ], [ 3.2941453, 39.490771 ], [ 3.2943992, 39.4874502 ], [ 3.2930798, 39.4848023 ], [ 3.2890847, 39.485381 ], [ 3.2878656, 39.4866146 ], [ 3.2872633, 39.4862607 ], [ 3.288401, 39.4847158 ], [ 3.2864414, 39.4842444 ], [ 3.2895377, 39.4840251 ], [ 3.2902511, 39.4832796 ], [ 3.2864472, 39.4826914 ], [ 3.2880467, 39.4827624 ], [ 3.2891982, 39.4813268 ], [ 3.2911367, 39.4810539 ], [ 3.2898537, 39.4777222 ], [ 3.2880999, 39.4748484 ], [ 3.2859979, 39.4752292 ], [ 3.2868078, 39.4726507 ], [ 3.2854418, 39.4711518 ], [ 3.2839225, 39.4710086 ], [ 3.2841577, 39.4689906 ], [ 3.2823769, 39.4689452 ], [ 3.2833637, 39.4671416 ], [ 3.2796092, 39.4666699 ], [ 3.28272, 39.4649368 ], [ 3.2804469, 39.4633503 ], [ 3.2817734, 39.4623753 ], [ 3.2805554, 39.4581849 ], [ 3.2782707, 39.4580469 ], [ 3.2781473, 39.4570503 ], [ 3.2774641, 39.4569747 ], [ 3.2798212, 39.4553421 ], [ 3.2795775, 39.454053 ], [ 3.2777303, 39.4536774 ], [ 3.2767673, 39.4520486 ], [ 3.2786158, 39.4514258 ], [ 3.2770786, 39.4353659 ], [ 3.2760776, 39.4316609 ], [ 3.2725504, 39.4284746 ], [ 3.2739763, 39.4277366 ], [ 3.2748662, 39.4283191 ], [ 3.2747015, 39.4274347 ], [ 3.2769092, 39.4254802 ], [ 3.2760251, 39.4201733 ], [ 3.2747728, 39.4195962 ], [ 3.275322, 39.4184307 ], [ 3.2744029, 39.418343 ], [ 3.2748987, 39.416059 ], [ 3.2730551, 39.4141894 ], [ 3.2701111, 39.4141625 ], [ 3.2710201, 39.4163628 ], [ 3.2702739, 39.4180189 ], [ 3.2709144, 39.4184729 ], [ 3.2679817, 39.4204977 ], [ 3.2677701, 39.4219152 ], [ 3.268451, 39.4225369 ], [ 3.2669079, 39.4239719 ], [ 3.2675854, 39.4249794 ], [ 3.2671437, 39.4278488 ], [ 3.2661374, 39.4279488 ], [ 3.2656575, 39.4249989 ], [ 3.2648137, 39.424674 ], [ 3.2633345, 39.4259379 ], [ 3.2609454, 39.4240152 ], [ 3.2618061, 39.4233126 ], [ 3.2629742, 39.4237391 ], [ 3.2617142, 39.4231414 ], [ 3.261993, 39.4213202 ], [ 3.2627839, 39.4212847 ], [ 3.2619022, 39.4211113 ], [ 3.2621716, 39.4191858 ], [ 3.2594485, 39.4182076 ], [ 3.2589738, 39.4160181 ], [ 3.2601038, 39.4151157 ], [ 3.2630977, 39.4150551 ], [ 3.2663224, 39.4171267 ], [ 3.2679166, 39.4167315 ], [ 3.2681859, 39.4158971 ], [ 3.2663934, 39.4140209 ], [ 3.2643509, 39.4137758 ], [ 3.2650052, 39.4123528 ], [ 3.2645209, 39.4111631 ], [ 3.2626752, 39.4110166 ], [ 3.2616303, 39.4118939 ], [ 3.2617674, 39.4103697 ], [ 3.2586349, 39.4101085 ], [ 3.2586582, 39.4092956 ], [ 3.2599488, 39.4087291 ], [ 3.2629186, 39.4093676 ], [ 3.2634376, 39.4092512 ], [ 3.2585024, 39.4047058 ], [ 3.2587098, 39.4039789 ], [ 3.2541797, 39.4036553 ], [ 3.2565497, 39.4029376 ], [ 3.2522261, 39.3992677 ], [ 3.2543337, 39.4001314 ], [ 3.2532398, 39.3972362 ], [ 3.2544459, 39.3958006 ], [ 3.2543444, 39.3944058 ], [ 3.2508394, 39.3935501 ], [ 3.251386, 39.3929327 ], [ 3.2500534, 39.3925154 ], [ 3.2491053, 39.3933689 ], [ 3.2475947, 39.3931711 ], [ 3.2501271, 39.3913712 ], [ 3.2524176, 39.3924599 ], [ 3.2527112, 39.3919338 ], [ 3.2502844, 39.3907005 ], [ 3.2510456, 39.3885538 ], [ 3.2505367, 39.387302 ], [ 3.2479307, 39.3863991 ], [ 3.2471001, 39.3887919 ], [ 3.2464534, 39.3881831 ], [ 3.2469948, 39.3870248 ], [ 3.2457883, 39.3864961 ], [ 3.2470287, 39.3862272 ], [ 3.2476383, 39.3846704 ], [ 3.2481093, 39.3855023 ], [ 3.2489969, 39.3850185 ], [ 3.2479303, 39.3825366 ], [ 3.2455337, 39.3805557 ], [ 3.2444683, 39.377594 ], [ 3.2420992, 39.3760195 ], [ 3.2412103, 39.376831 ], [ 3.2416995, 39.3791993 ], [ 3.2407973, 39.3784271 ], [ 3.2393607, 39.3795405 ], [ 3.2400121, 39.3776732 ], [ 3.2388147, 39.3768037 ], [ 3.240213, 39.3759925 ], [ 3.2400371, 39.3753348 ], [ 3.2373952, 39.3759314 ], [ 3.2404949, 39.3736834 ], [ 3.2392214, 39.3730601 ], [ 3.2397873, 39.3722533 ], [ 3.2388403, 39.3718694 ], [ 3.2386782, 39.3707127 ], [ 3.2366277, 39.3695501 ], [ 3.2349862, 39.3724092 ], [ 3.2339505, 39.371917 ], [ 3.2329419, 39.3730232 ], [ 3.2324006, 39.3728204 ], [ 3.2341684, 39.3706867 ], [ 3.2339403, 39.3695794 ], [ 3.2328705, 39.3691544 ], [ 3.2298822, 39.3709364 ], [ 3.2314304, 39.368569 ], [ 3.2301912, 39.3679698 ], [ 3.2229488, 39.3709326 ], [ 3.2235706, 39.3733839 ], [ 3.2220556, 39.3728791 ], [ 3.2220298, 39.3711019 ], [ 3.2238219, 39.3696765 ], [ 3.2234433, 39.3691154 ], [ 3.2265802, 39.3683442 ], [ 3.2270425, 39.3688217 ], [ 3.226701, 39.3682544 ], [ 3.2289123, 39.3661123 ], [ 3.2349189, 39.3674483 ], [ 3.2346208, 39.365178 ], [ 3.2313732, 39.364271 ], [ 3.2338675, 39.3640466 ], [ 3.2322925, 39.3631273 ], [ 3.2321375, 39.3616287 ], [ 3.2299267, 39.3609019 ], [ 3.2293547, 39.3590495 ], [ 3.2269793, 39.3583769 ], [ 3.2243153, 39.3609985 ], [ 3.2249878, 39.3576702 ], [ 3.2235598, 39.3568199 ], [ 3.2219052, 39.3576106 ], [ 3.2200037, 39.3569169 ], [ 3.2193802, 39.3575721 ], [ 3.2207359, 39.3586054 ], [ 3.2204943, 39.3592956 ], [ 3.2158198, 39.3578772 ], [ 3.2152352, 39.3585467 ], [ 3.2162045, 39.3616153 ], [ 3.2121865, 39.3624588 ], [ 3.211936, 39.3641903 ], [ 3.2109511, 39.3647402 ], [ 3.2106552, 39.3615005 ], [ 3.2119252, 39.3616808 ], [ 3.2113607, 39.3607913 ], [ 3.2082651, 39.3609693 ], [ 3.2101977, 39.3601168 ], [ 3.2122232, 39.3608953 ], [ 3.212273, 39.3598861 ], [ 3.2113103, 39.3592084 ], [ 3.2117854, 39.358123 ], [ 3.2110185, 39.3573849 ], [ 3.2085838, 39.3578001 ], [ 3.2099572, 39.3563531 ], [ 3.209273, 39.3555641 ], [ 3.2129624, 39.3565089 ], [ 3.2158192, 39.3555873 ], [ 3.2153972, 39.354947 ], [ 3.209784, 39.3539324 ], [ 3.2025307, 39.3507527 ], [ 3.1971781, 39.3512509 ], [ 3.1978466, 39.3526697 ], [ 3.1924178, 39.3511972 ], [ 3.1927975, 39.3524879 ], [ 3.191284, 39.351859 ], [ 3.1914576, 39.3501759 ], [ 3.1887833, 39.350255 ], [ 3.188855, 39.3520096 ], [ 3.1853041, 39.3504174 ], [ 3.1901367, 39.3482868 ], [ 3.1892048, 39.347381 ], [ 3.1903824, 39.3475932 ], [ 3.1903815, 39.3469336 ], [ 3.1922839, 39.3462369 ], [ 3.1918623, 39.3450189 ], [ 3.1890422, 39.3437983 ], [ 3.1882681, 39.3396549 ], [ 3.1869271, 39.3386168 ], [ 3.1892895, 39.3387241 ], [ 3.1889899, 39.3377042 ], [ 3.1872927, 39.3368757 ], [ 3.1873638, 39.33562 ], [ 3.1865185, 39.3350307 ], [ 3.1819874, 39.3353668 ], [ 3.1790137, 39.3341809 ], [ 3.1788221, 39.3329588 ], [ 3.1803031, 39.3313262 ], [ 3.1769758, 39.3292957 ], [ 3.1716279, 39.3311625 ], [ 3.1692972, 39.3334681 ], [ 3.1700116, 39.3319653 ], [ 3.1675169, 39.3320406 ], [ 3.1674538, 39.3317692 ], [ 3.1703327, 39.3317434 ], [ 3.1713874, 39.3303934 ], [ 3.1727457, 39.3302499 ], [ 3.1727578, 39.3290862 ], [ 3.1738309, 39.3280526 ], [ 3.1709528, 39.3264947 ], [ 3.1604132, 39.3258283 ], [ 3.158582, 39.3269308 ], [ 3.155658, 39.3271658 ], [ 3.1547649, 39.3264463 ], [ 3.1518253, 39.3278955 ], [ 3.1503223, 39.3268095 ], [ 3.1488161, 39.3270934 ], [ 3.1472454, 39.3301753 ], [ 3.1463952, 39.3300853 ], [ 3.1468784, 39.3279427 ], [ 3.1460384, 39.3277258 ], [ 3.1458976, 39.3262671 ], [ 3.140577, 39.3257442 ], [ 3.1413328, 39.3245667 ], [ 3.139239, 39.3243059 ], [ 3.1422671, 39.323693 ], [ 3.1424605, 39.320657 ], [ 3.1392208, 39.3188876 ], [ 3.1376721, 39.3169378 ], [ 3.1330619, 39.3159501 ], [ 3.1319965, 39.3141285 ], [ 3.1295836, 39.3135242 ], [ 3.1245391, 39.3160102 ], [ 3.1215676, 39.3139101 ], [ 3.1231454, 39.3133057 ], [ 3.1217778, 39.3131943 ], [ 3.1209772, 39.3121134 ], [ 3.1192536, 39.3120734 ], [ 3.1195388, 39.3126865 ], [ 3.1190777, 39.3129524 ], [ 3.1181142, 39.3131263 ], [ 3.118549, 39.3126666 ], [ 3.1174484, 39.3121786 ], [ 3.1177351, 39.3112754 ], [ 3.115666, 39.310441 ], [ 3.1153648, 39.308537 ], [ 3.1135229, 39.3079202 ], [ 3.1140321, 39.3076061 ], [ 3.110798, 39.3050915 ], [ 3.1112587, 39.3045193 ], [ 3.1103206, 39.3038046 ], [ 3.1106488, 39.3031925 ], [ 3.1096299, 39.3028745 ], [ 3.1100418, 39.3022035 ], [ 3.1070072, 39.3023565 ], [ 3.107242, 39.301582 ], [ 3.1063508, 39.3007323 ], [ 3.1045143, 39.3006836 ], [ 3.1049646, 39.3000476 ], [ 3.1040833, 39.3000822 ], [ 3.1039938, 39.2992781 ], [ 3.1044985, 39.299065 ], [ 3.1028767, 39.2976913 ], [ 3.1034999, 39.2970385 ], [ 3.1013308, 39.2955839 ], [ 3.1012431, 39.2946718 ], [ 3.0975111, 39.292618 ], [ 3.0952093, 39.2926182 ], [ 3.0960731, 39.2918756 ], [ 3.09563, 39.2900707 ], [ 3.0936024, 39.2886294 ], [ 3.0901554, 39.289231 ], [ 3.0916988, 39.2869448 ], [ 3.0895205, 39.2855638 ], [ 3.0891133, 39.2843163 ], [ 3.0877393, 39.2840487 ], [ 3.0885265, 39.2836096 ], [ 3.0872371, 39.2829324 ], [ 3.08718, 39.2817702 ], [ 3.084596, 39.2809646 ], [ 3.0835095, 39.2789081 ], [ 3.0805754, 39.277166 ], [ 3.0802039, 39.2749192 ], [ 3.0774522, 39.2738995 ], [ 3.0732889, 39.2687765 ], [ 3.0700628, 39.2678731 ], [ 3.0688499, 39.266706 ], [ 3.0661993, 39.2665552 ], [ 3.0650979, 39.2655408 ], [ 3.0556158, 39.2643359 ], [ 3.0499676, 39.2654577 ], [ 3.0449808, 39.2710718 ], [ 3.0448742, 39.2722665 ], [ 3.0428168, 39.2734921 ], [ 3.0435013, 39.2745272 ], [ 3.0429573, 39.2749221 ], [ 3.0421313, 39.2748932 ], [ 3.0416855, 39.2747097 ], [ 3.041593, 39.2747527 ], [ 3.043364, 39.2752565 ], [ 3.0439134, 39.2764815 ], [ 3.0421615, 39.2795718 ], [ 3.0394077, 39.2801117 ], [ 3.0374058, 39.279458 ], [ 3.0382405, 39.2803581 ], [ 3.0359898, 39.2806764 ], [ 3.0359444, 39.281469 ], [ 3.0339372, 39.2810982 ], [ 3.0327248, 39.2821683 ], [ 3.030167, 39.2824819 ], [ 3.029277, 39.2851031 ], [ 3.0275164, 39.2855001 ], [ 3.0309577, 39.2884467 ], [ 3.0307254, 39.289454 ], [ 3.0296228, 39.2899744 ], [ 3.025739, 39.2877149 ], [ 3.0238917, 39.2887669 ], [ 3.0241218, 39.2896122 ], [ 3.0224424, 39.2908149 ], [ 3.0218205, 39.2928383 ], [ 3.0198364, 39.2933228 ], [ 3.0191919, 39.2947517 ], [ 3.0181416, 39.2948661 ], [ 3.0175458, 39.2967279 ], [ 3.0184914, 39.298013 ], [ 3.0174281, 39.298905 ], [ 3.0198091, 39.3008153 ], [ 3.0201146, 39.3034748 ], [ 3.0156299, 39.306838 ], [ 3.0136558, 39.3104238 ], [ 3.0105383, 39.3108086 ], [ 3.0092506, 39.3123535 ], [ 3.0064135, 39.3115749 ], [ 3.0047831, 39.3122144 ], [ 3.0052981, 39.3149208 ], [ 3.003016, 39.3174051 ], [ 2.998838, 39.3176361 ], [ 2.9969667, 39.3152255 ], [ 2.9995786, 39.3155211 ], [ 2.9979457, 39.3144111 ], [ 2.997154, 39.3147535 ], [ 2.9956151, 39.3128059 ], [ 2.9933076, 39.3121639 ], [ 2.991937, 39.3128449 ], [ 2.9935738, 39.3133544 ], [ 2.9938029, 39.3148431 ], [ 2.9860007, 39.3159785 ], [ 2.9863117, 39.3173881 ], [ 2.9843898, 39.3180024 ], [ 2.9867392, 39.3190384 ], [ 2.9869667, 39.3199613 ], [ 2.9861387, 39.3204387 ], [ 2.9870895, 39.3211523 ], [ 2.9840429, 39.3213298 ], [ 2.9837011, 39.3221879 ], [ 2.9846475, 39.3229148 ], [ 2.9839269, 39.3233952 ], [ 2.9844434, 39.3250397 ], [ 2.9865378, 39.3254643 ], [ 2.9862536, 39.326335 ], [ 2.9883983, 39.3253433 ], [ 2.9898837, 39.3266749 ], [ 2.9903132, 39.3282884 ], [ 2.9893844, 39.3292593 ], [ 2.9914069, 39.3307618 ], [ 2.9908147, 39.3316734 ], [ 2.9920939, 39.3322274 ], [ 2.9916306, 39.3330413 ], [ 2.9900463, 39.333306 ], [ 2.9911915, 39.3354687 ], [ 2.9901661, 39.3378656 ], [ 2.9786147, 39.3497269 ], [ 2.9741889, 39.3529077 ], [ 2.9722167, 39.3526513 ], [ 2.9716128, 39.3541209 ], [ 2.968607, 39.3549392 ], [ 2.9684789, 39.3564702 ], [ 2.96594, 39.3585867 ], [ 2.9581705, 39.3624436 ], [ 2.9551211, 39.3630354 ], [ 2.9517359, 39.3611673 ], [ 2.9497271, 39.3609896 ], [ 2.9385747, 39.3643349 ], [ 2.933594, 39.3634052 ], [ 2.9289089, 39.3642099 ], [ 2.9275877, 39.3629606 ], [ 2.9193337, 39.3613394 ], [ 2.9159744, 39.3583777 ], [ 2.9142248, 39.3584808 ], [ 2.9137515, 39.3566665 ], [ 2.9150279, 39.3561916 ], [ 2.91377, 39.354673 ], [ 2.9143547, 39.3529259 ], [ 2.9136351, 39.3522833 ], [ 2.9110655, 39.3524436 ], [ 2.9110259, 39.3532234 ], [ 2.9083866, 39.3538439 ], [ 2.9079094, 39.3547746 ], [ 2.9088503, 39.3565897 ], [ 2.9061821, 39.3564659 ], [ 2.9050938, 39.3578296 ], [ 2.9010188, 39.3579397 ], [ 2.8988199, 39.3588755 ], [ 2.8990737, 39.3600924 ], [ 2.8981967, 39.3610022 ], [ 2.8967595, 39.3606465 ], [ 2.8950055, 39.3619686 ], [ 2.8927609, 39.3612195 ], [ 2.8867491, 39.3651703 ], [ 2.8817756, 39.3662002 ], [ 2.8746843, 39.362784 ], [ 2.871117, 39.363489 ], [ 2.8699066, 39.3628061 ], [ 2.8679471, 39.3634885 ], [ 2.8599536, 39.3628959 ], [ 2.8595502, 39.3637195 ], [ 2.8558391, 39.3629395 ], [ 2.853688, 39.3637337 ], [ 2.8521052, 39.3654811 ], [ 2.8443056, 39.3659152 ], [ 2.8349567, 39.3609518 ], [ 2.8348244, 39.3624586 ], [ 2.8362227, 39.3636856 ], [ 2.8351003, 39.3635678 ], [ 2.8337485, 39.3621805 ], [ 2.8334346, 39.3600404 ], [ 2.8321928, 39.3590843 ], [ 2.8299651, 39.3588684 ], [ 2.8318521, 39.3585671 ], [ 2.8309295, 39.3568424 ], [ 2.828781, 39.3561498 ], [ 2.8174487, 39.3587359 ], [ 2.8158876, 39.3604406 ], [ 2.8143829, 39.3605609 ], [ 2.8126341, 39.3630121 ], [ 2.8107378, 39.3634766 ], [ 2.8094718, 39.3658053 ], [ 2.8060546, 39.3671822 ], [ 2.8037943, 39.3666752 ], [ 2.7985686, 39.3635429 ], [ 2.7921715, 39.3630307 ], [ 2.7901947, 39.3621888 ], [ 2.7873918, 39.3630805 ], [ 2.7858415, 39.3650609 ], [ 2.7850985, 39.3685736 ], [ 2.7733504, 39.3773838 ], [ 2.7731636, 39.3808812 ], [ 2.7719449, 39.3814805 ], [ 2.770864, 39.3836442 ], [ 2.7689408, 39.3838771 ], [ 2.7657758, 39.3866716 ], [ 2.7595982, 39.3889364 ], [ 2.7554724, 39.3922465 ], [ 2.7542617, 39.3923378 ], [ 2.7455321, 39.4011115 ], [ 2.745861, 39.4017894 ], [ 2.7445521, 39.4029583 ], [ 2.7451851, 39.4038288 ], [ 2.7444341, 39.4039448 ], [ 2.7435197, 39.405937 ], [ 2.7419136, 39.4063439 ], [ 2.7395847, 39.4110739 ], [ 2.7394073, 39.4160482 ], [ 2.7438844, 39.428911 ], [ 2.7463608, 39.4320747 ], [ 2.7457118, 39.4333622 ], [ 2.7479209, 39.4373833 ], [ 2.7463961, 39.439427 ], [ 2.7471057, 39.4397124 ], [ 2.746351, 39.440071 ], [ 2.7472117, 39.4414765 ], [ 2.7439213, 39.4451498 ], [ 2.744266, 39.4461162 ], [ 2.7430093, 39.4472589 ], [ 2.7441037, 39.4487041 ], [ 2.741916, 39.4499094 ], [ 2.7422798, 39.4505681 ], [ 2.7413531, 39.4507141 ], [ 2.7411961, 39.452051 ], [ 2.7404237, 39.4522778 ], [ 2.7409986, 39.452846 ], [ 2.7404505, 39.453916 ], [ 2.7366593, 39.4571135 ], [ 2.7367129, 39.4582154 ], [ 2.7352418, 39.4579141 ], [ 2.7354972, 39.4585169 ], [ 2.7343263, 39.4587154 ], [ 2.7302739, 39.462472 ], [ 2.7301441, 39.4641143 ], [ 2.7293586, 39.4641441 ], [ 2.7288754, 39.4654188 ], [ 2.7292194, 39.4661041 ], [ 2.7282109, 39.4663826 ], [ 2.7283504, 39.4677989 ], [ 2.7269583, 39.468234 ], [ 2.7257677, 39.4714721 ], [ 2.721873, 39.4761009 ], [ 2.7222027, 39.4771577 ], [ 2.725072, 39.4783624 ], [ 2.7268387, 39.4801799 ], [ 2.7284579, 39.4801597 ], [ 2.73291, 39.4825857 ], [ 2.7339903, 39.4824941 ], [ 2.7338566, 39.4838271 ], [ 2.7358013, 39.4847161 ], [ 2.7348195, 39.4857295 ], [ 2.7368916, 39.4871215 ], [ 2.7359194, 39.4894612 ], [ 2.737761, 39.4917455 ], [ 2.7371582, 39.4926117 ], [ 2.745189, 39.496547 ], [ 2.7499777, 39.5003962 ], [ 2.7500018, 39.5013834 ], [ 2.7489531, 39.5020218 ], [ 2.7506299, 39.5031052 ], [ 2.7514625, 39.5049684 ], [ 2.7492023, 39.5094651 ], [ 2.7435531, 39.5166288 ], [ 2.7268825, 39.5307561 ], [ 2.7195326, 39.5344418 ], [ 2.7172012, 39.5340634 ], [ 2.7175162, 39.5327445 ], [ 2.7169409, 39.5322221 ], [ 2.7160336, 39.5321058 ], [ 2.717191, 39.5326991 ], [ 2.7169971, 39.5334737 ], [ 2.7152251, 39.5342254 ], [ 2.7146211, 39.5328569 ], [ 2.7161872, 39.5313517 ], [ 2.7133492, 39.5332243 ], [ 2.7134093, 39.5346893 ], [ 2.7121366, 39.5347481 ], [ 2.7117593, 39.534013 ], [ 2.7124818, 39.5333961 ], [ 2.7111736, 39.5335881 ], [ 2.7103166, 39.5348394 ], [ 2.7092169, 39.5349483 ], [ 2.7105437, 39.5363836 ], [ 2.7083406, 39.5365501 ], [ 2.7054421, 39.5401493 ], [ 2.7015432, 39.5423625 ], [ 2.7009589, 39.5419872 ], [ 2.700118, 39.5437167 ], [ 2.6964816, 39.5438788 ], [ 2.6981273, 39.5458789 ], [ 2.6961375, 39.5479622 ], [ 2.6950168, 39.5479245 ], [ 2.6954012, 39.547009 ], [ 2.6954267, 39.5468955 ], [ 2.6953398, 39.5466771 ], [ 2.6949542, 39.5477873 ], [ 2.6940158, 39.5473572 ], [ 2.6953767, 39.546111 ], [ 2.6931658, 39.5466422 ], [ 2.6924306, 39.5478191 ], [ 2.6893047, 39.5482526 ], [ 2.6912215, 39.5483783 ], [ 2.6913976, 39.5496288 ], [ 2.6885133, 39.5527375 ], [ 2.68673, 39.5531878 ], [ 2.6862127, 39.5524964 ], [ 2.6869862, 39.5537628 ], [ 2.6857349, 39.5536106 ], [ 2.6749508, 39.5579187 ], [ 2.6755077, 39.5585407 ], [ 2.6744775, 39.5583912 ], [ 2.6748723, 39.5576253 ], [ 2.6726856, 39.558905 ], [ 2.6721363, 39.5601821 ], [ 2.6692438, 39.5588454 ], [ 2.6697541, 39.5592146 ], [ 2.668362, 39.5604118 ], [ 2.6691021, 39.5603729 ], [ 2.6689917, 39.5610104 ], [ 2.6696167, 39.5604952 ], [ 2.6704979, 39.5605207 ], [ 2.6694208, 39.5626462 ], [ 2.6683029, 39.5624143 ], [ 2.6675486, 39.5612535 ], [ 2.6682303, 39.5609802 ], [ 2.6671406, 39.5604427 ], [ 2.6682498, 39.5597345 ], [ 2.6675014, 39.5595667 ], [ 2.6682633, 39.5586973 ], [ 2.667407, 39.5591631 ], [ 2.6669092, 39.5604071 ], [ 2.6576995, 39.5639339 ], [ 2.6505584, 39.5642251 ], [ 2.6454, 39.5656543 ], [ 2.6421384, 39.5640663 ], [ 2.6421266, 39.5623043 ], [ 2.6342182, 39.5590149 ], [ 2.6330994, 39.5611361 ], [ 2.6358642, 39.5625113 ], [ 2.6350175, 39.563499 ], [ 2.6355994, 39.5637965 ], [ 2.6364307, 39.5628091 ], [ 2.6385146, 39.5638865 ], [ 2.6380842, 39.564247 ], [ 2.6386558, 39.5639537 ], [ 2.6382146, 39.5643578 ], [ 2.6388635, 39.5641172 ], [ 2.6380932, 39.5646941 ], [ 2.6396388, 39.5643532 ], [ 2.6408482, 39.5649595 ], [ 2.6400522, 39.5656121 ], [ 2.6408951, 39.5649915 ], [ 2.6407512, 39.5659182 ], [ 2.6422292, 39.5657409 ], [ 2.6441279, 39.5670745 ], [ 2.6413977, 39.5688495 ], [ 2.6405801, 39.5665919 ], [ 2.6394296, 39.5660394 ], [ 2.640074, 39.5665826 ], [ 2.6394056, 39.5670061 ], [ 2.6368269, 39.5655993 ], [ 2.6382426, 39.566607 ], [ 2.6376767, 39.5672006 ], [ 2.6393364, 39.5677148 ], [ 2.6380675, 39.5683442 ], [ 2.632979, 39.5659151 ], [ 2.6339815, 39.5646341 ], [ 2.632696, 39.5660037 ], [ 2.6340371, 39.5666648 ], [ 2.6334337, 39.56727 ], [ 2.6342582, 39.5667868 ], [ 2.6360253, 39.5678687 ], [ 2.6390056, 39.5686585 ], [ 2.6318924, 39.5681547 ], [ 2.6303924, 39.5672638 ], [ 2.631228, 39.5666136 ], [ 2.6304605, 39.5659015 ], [ 2.6295216, 39.5664077 ], [ 2.6281221, 39.563271 ], [ 2.6300706, 39.5629589 ], [ 2.6304474, 39.5653496 ], [ 2.6301833, 39.562642 ], [ 2.6279228, 39.5627844 ], [ 2.6300755, 39.5622639 ], [ 2.6297254, 39.5611386 ], [ 2.629859, 39.5619897 ], [ 2.6277912, 39.5623459 ], [ 2.6275915, 39.5616492 ], [ 2.6291638, 39.5616262 ], [ 2.6275737, 39.5615966 ], [ 2.6270936, 39.5599017 ], [ 2.6297721, 39.5600149 ], [ 2.6299252, 39.5568506 ], [ 2.6297, 39.5592949 ], [ 2.627065, 39.5598113 ], [ 2.6269458, 39.5591 ], [ 2.628593, 39.5589113 ], [ 2.6285666, 39.5587288 ], [ 2.6269332, 39.5590097 ], [ 2.6267937, 39.5584062 ], [ 2.6283327, 39.5582485 ], [ 2.6282918, 39.5580781 ], [ 2.6267648, 39.5583281 ], [ 2.6259698, 39.5570435 ], [ 2.6285601, 39.5574105 ], [ 2.6284774, 39.5557631 ], [ 2.6283626, 39.556847 ], [ 2.625925, 39.5569341 ], [ 2.6244893, 39.5545659 ], [ 2.6260028, 39.5540078 ], [ 2.6272684, 39.5560805 ], [ 2.6268746, 39.5542332 ], [ 2.6339654, 39.5537849 ], [ 2.6364515, 39.5550751 ], [ 2.6331104, 39.5528634 ], [ 2.6278894, 39.5530324 ], [ 2.6244044, 39.5502379 ], [ 2.6201558, 39.5504781 ], [ 2.6199006, 39.5495717 ], [ 2.6249898, 39.5483324 ], [ 2.6254965, 39.5457742 ], [ 2.6296604, 39.5456752 ], [ 2.6300463, 39.547067 ], [ 2.6328975, 39.5485903 ], [ 2.6346899, 39.5474461 ], [ 2.6391304, 39.5504059 ], [ 2.6391543, 39.5512023 ], [ 2.6384649, 39.5509902 ], [ 2.6384805, 39.5516501 ], [ 2.6390343, 39.5513274 ], [ 2.6387424, 39.5525574 ], [ 2.6394433, 39.5526183 ], [ 2.6394605, 39.5503086 ], [ 2.6324481, 39.545133 ], [ 2.6190156, 39.5448749 ], [ 2.6186072, 39.5459555 ], [ 2.6159682, 39.5473298 ], [ 2.6153069, 39.5488098 ], [ 2.6110136, 39.5493742 ], [ 2.6099297, 39.5510535 ], [ 2.6092565, 39.5507192 ], [ 2.6080469, 39.5520466 ], [ 2.6051885, 39.5518964 ], [ 2.6034395, 39.5506776 ], [ 2.6005357, 39.5510654 ], [ 2.5989908, 39.549961 ], [ 2.5994757, 39.5493201 ], [ 2.5987163, 39.5497473 ], [ 2.5973466, 39.5483866 ], [ 2.5980483, 39.5478972 ], [ 2.6002099, 39.5494522 ], [ 2.6005424, 39.5489261 ], [ 2.5974405, 39.546898 ], [ 2.5957668, 39.5467863 ], [ 2.5971192, 39.5449987 ], [ 2.5960715, 39.5446649 ], [ 2.5972183, 39.543504 ], [ 2.5945292, 39.5410764 ], [ 2.5949095, 39.5401968 ], [ 2.5926293, 39.5392646 ], [ 2.592897, 39.537975 ], [ 2.590818, 39.5370543 ], [ 2.5910331, 39.5359732 ], [ 2.5894508, 39.5347229 ], [ 2.5895347, 39.5327443 ], [ 2.5909869, 39.5316069 ], [ 2.5904085, 39.5310206 ], [ 2.5885527, 39.5334793 ], [ 2.5871053, 39.533613 ], [ 2.5792304, 39.5317153 ], [ 2.579805, 39.5320132 ], [ 2.5787696, 39.5325469 ], [ 2.5779261, 39.5318927 ], [ 2.5761558, 39.5337533 ], [ 2.5757092, 39.5313491 ], [ 2.5720043, 39.5316617 ], [ 2.5712923, 39.5304383 ], [ 2.5703811, 39.5317384 ], [ 2.565299, 39.5312866 ], [ 2.5615749, 39.5320136 ], [ 2.5583988, 39.5310871 ], [ 2.5583473, 39.5299021 ], [ 2.5573345, 39.5300941 ], [ 2.5562874, 39.5289091 ], [ 2.5539786, 39.528545 ], [ 2.5540587, 39.5259691 ], [ 2.5531575, 39.5260155 ], [ 2.5521962, 39.5247311 ], [ 2.5522711, 39.5268998 ], [ 2.5513036, 39.5270615 ], [ 2.5491578, 39.5257838 ], [ 2.54645, 39.5260943 ], [ 2.5465262, 39.5252396 ], [ 2.544997, 39.5241707 ], [ 2.5399087, 39.5236242 ], [ 2.538746, 39.5224745 ], [ 2.5392929, 39.5215112 ], [ 2.5378789, 39.5203293 ], [ 2.5372724, 39.5176909 ], [ 2.5373629, 39.516911 ], [ 2.5385081, 39.516731 ], [ 2.5391746, 39.5132029 ], [ 2.5458006, 39.5123667 ], [ 2.5472597, 39.5111581 ], [ 2.5434937, 39.5086939 ], [ 2.5417258, 39.5084994 ], [ 2.5407156, 39.5094081 ], [ 2.5369177, 39.507996 ], [ 2.5347724, 39.5062064 ], [ 2.5337234, 39.5040374 ], [ 2.5348545, 39.501789 ], [ 2.5371262, 39.5005864 ], [ 2.5369741, 39.4968171 ], [ 2.5340182, 39.4952395 ], [ 2.5361907, 39.4949832 ], [ 2.5359842, 39.4938075 ], [ 2.5372175, 39.4932926 ], [ 2.5366027, 39.4878958 ], [ 2.5353152, 39.4863988 ], [ 2.5327774, 39.4875151 ], [ 2.5335019, 39.4850406 ], [ 2.5323037, 39.4838107 ], [ 2.5304248, 39.4838498 ], [ 2.5314713, 39.4830448 ], [ 2.5299395, 39.4800272 ], [ 2.5255719, 39.4789896 ], [ 2.5266746, 39.4767986 ], [ 2.5259854, 39.4743947 ], [ 2.5248109, 39.4739551 ], [ 2.5248166, 39.4750479 ], [ 2.5234816, 39.4749571 ], [ 2.5209371, 39.4763733 ], [ 2.5214492, 39.475046 ], [ 2.5200848, 39.47501 ], [ 2.5215274, 39.473657 ], [ 2.5206599, 39.4721203 ], [ 2.5240093, 39.4718645 ], [ 2.5222502, 39.4678558 ], [ 2.5223376, 39.463515 ], [ 2.5212818, 39.4625113 ], [ 2.5191551, 39.4625981 ], [ 2.5243332, 39.4607217 ], [ 2.5227326, 39.4580493 ], [ 2.5232184, 39.4575475 ], [ 2.5218183, 39.4567108 ], [ 2.5221616, 39.4577546 ], [ 2.5214162, 39.4583451 ], [ 2.5189429, 39.4575765 ], [ 2.5191835, 39.4580827 ], [ 2.5172585, 39.4581025 ], [ 2.5172574, 39.4588385 ], [ 2.5126993, 39.4592645 ], [ 2.5098696, 39.4582873 ], [ 2.5088117, 39.4602534 ], [ 2.5073923, 39.460641 ], [ 2.5079695, 39.4613298 ], [ 2.5068087, 39.4613078 ], [ 2.5060228, 39.4622592 ], [ 2.5011675, 39.4611525 ], [ 2.5013512, 39.4618121 ], [ 2.5000677, 39.4619237 ], [ 2.5010865, 39.4643568 ], [ 2.5001901, 39.4653247 ], [ 2.5006476, 39.466765 ], [ 2.499878, 39.4681414 ], [ 2.4976315, 39.4686986 ], [ 2.4978222, 39.469335 ], [ 2.4938316, 39.4710198 ], [ 2.4941387, 39.4716012 ], [ 2.4915107, 39.4717903 ], [ 2.490509, 39.4729065 ], [ 2.4857107, 39.472605 ], [ 2.4824586, 39.4708528 ], [ 2.4802934, 39.4690758 ], [ 2.4798384, 39.4690266 ], [ 2.478947, 39.4681144 ], [ 2.4786062, 39.4680765 ], [ 2.4764661, 39.4663509 ], [ 2.4760909, 39.4662595 ], [ 2.4808423, 39.4727882 ], [ 2.4820937, 39.4760608 ], [ 2.4807429, 39.4767259 ], [ 2.4820555, 39.4765358 ], [ 2.481411, 39.4770519 ], [ 2.4778676, 39.4777046 ], [ 2.477498, 39.4816363 ], [ 2.4763694, 39.483301 ], [ 2.4762718, 39.4841389 ], [ 2.4775861, 39.4852462 ], [ 2.476635, 39.4861136 ], [ 2.4783128, 39.4874969 ], [ 2.4788932, 39.4922173 ], [ 2.4727903, 39.4936972 ], [ 2.4680023, 39.4902661 ], [ 2.4670009, 39.4909435 ], [ 2.4669349, 39.4927757 ], [ 2.4657606, 39.4935738 ], [ 2.4667434, 39.49421 ], [ 2.4656746, 39.4945248 ], [ 2.4675986, 39.4946887 ], [ 2.4670262, 39.4958309 ], [ 2.4647859, 39.4966662 ], [ 2.4643499, 39.4981269 ], [ 2.4625657, 39.4990766 ], [ 2.4594914, 39.498849 ], [ 2.4599122, 39.499642 ], [ 2.4592943, 39.4998637 ], [ 2.4613666, 39.5027013 ], [ 2.4608208, 39.504351 ], [ 2.4562003, 39.5047194 ], [ 2.4591366, 39.5074478 ], [ 2.4598392, 39.5073235 ], [ 2.459306, 39.5097487 ], [ 2.4624323, 39.5118733 ], [ 2.4655198, 39.5122063 ], [ 2.4668261, 39.5134309 ], [ 2.4730505, 39.5118064 ], [ 2.4724099, 39.5126873 ], [ 2.4744132, 39.5139062 ], [ 2.4789477, 39.513762 ], [ 2.4795865, 39.5181189 ], [ 2.4763384, 39.5189238 ], [ 2.4727738, 39.5187347 ], [ 2.4728418, 39.5195604 ], [ 2.4668147, 39.5189471 ], [ 2.4667614, 39.5211259 ], [ 2.4684074, 39.5223252 ], [ 2.4664515, 39.5223779 ], [ 2.4662947, 39.5246647 ], [ 2.4649075, 39.5259165 ], [ 2.4628007, 39.5258405 ], [ 2.4624805, 39.5282802 ], [ 2.4605767, 39.5302418 ], [ 2.4599034, 39.5298935 ], [ 2.4597072, 39.530071 ], [ 2.4599821, 39.5308359 ], [ 2.4584458, 39.5309293 ], [ 2.4592851, 39.5314666 ], [ 2.4579405, 39.5322799 ], [ 2.4584525, 39.5328567 ], [ 2.4576172, 39.5338698 ], [ 2.4552129, 39.5350566 ], [ 2.4542828, 39.5343873 ], [ 2.4522386, 39.534789 ], [ 2.4532715, 39.5352253 ], [ 2.4523363, 39.536683 ], [ 2.4499554, 39.5371244 ], [ 2.4487047, 39.5364403 ], [ 2.449171, 39.5355374 ], [ 2.4400387, 39.533567 ], [ 2.438856, 39.5326951 ], [ 2.4394824, 39.5320018 ], [ 2.4381113, 39.5325999 ], [ 2.4389348, 39.5293338 ], [ 2.4404332, 39.5287927 ], [ 2.4383577, 39.5286839 ], [ 2.4350434, 39.5270595 ], [ 2.4280345, 39.5277628 ], [ 2.4238049, 39.5233645 ], [ 2.423068, 39.5230718 ], [ 2.4217809, 39.524072 ], [ 2.4194449, 39.5229283 ], [ 2.4190392, 39.5242716 ], [ 2.421086, 39.5282791 ], [ 2.4236811, 39.5311022 ], [ 2.4229392, 39.5312631 ], [ 2.4217182, 39.5340943 ], [ 2.4238098, 39.5368966 ], [ 2.4220615, 39.5376917 ], [ 2.420515, 39.5371906 ], [ 2.4203326, 39.5380719 ], [ 2.4183169, 39.5387829 ], [ 2.4136046, 39.5390958 ], [ 2.4120582, 39.5373549 ], [ 2.4053323, 39.5364372 ], [ 2.4071656, 39.5310332 ], [ 2.4061912, 39.5312292 ], [ 2.4064446, 39.5301544 ], [ 2.405247, 39.5295 ], [ 2.4045256, 39.5267498 ], [ 2.3874608, 39.5207748 ], [ 2.3857909, 39.5218017 ], [ 2.3871118, 39.5242887 ], [ 2.3860439, 39.5244723 ], [ 2.3862266, 39.5259756 ], [ 2.3882442, 39.5261313 ], [ 2.3892189, 39.527632 ], [ 2.3893958, 39.5323793 ], [ 2.3881262, 39.5339515 ], [ 2.3795243, 39.5329902 ], [ 2.3788903, 39.5356559 ], [ 2.3772916, 39.5363638 ], [ 2.3770459, 39.537522 ], [ 2.3757258, 39.5366855 ], [ 2.3761017, 39.5353783 ], [ 2.3732581, 39.5344202 ], [ 2.3728981, 39.5323364 ], [ 2.3720895, 39.5317475 ], [ 2.3639207, 39.5314457 ], [ 2.3630828, 39.5330517 ], [ 2.3651664, 39.5333011 ], [ 2.3663143, 39.5353661 ], [ 2.3658207, 39.5357339 ], [ 2.3682232, 39.5380163 ], [ 2.369775, 39.5376589 ], [ 2.3713464, 39.5384085 ], [ 2.3715462, 39.537192 ], [ 2.3773355, 39.5396343 ], [ 2.3786638, 39.5393421 ], [ 2.3808615, 39.5408962 ], [ 2.3842702, 39.5416288 ], [ 2.384807, 39.5426886 ], [ 2.3905476, 39.5462114 ], [ 2.3882741, 39.5477665 ], [ 2.3855751, 39.5480675 ], [ 2.3791661, 39.5463379 ], [ 2.3783134, 39.544054 ], [ 2.377261, 39.5439596 ], [ 2.3768985, 39.5446952 ], [ 2.3752298, 39.5439539 ], [ 2.3756302, 39.5442905 ], [ 2.3721905, 39.5442363 ], [ 2.3709396, 39.5464673 ], [ 2.3686046, 39.5473113 ], [ 2.3692766, 39.5482625 ], [ 2.3682896, 39.5499667 ], [ 2.3686973, 39.5527545 ], [ 2.3662278, 39.5550832 ], [ 2.361824, 39.5539294 ], [ 2.360794, 39.5544919 ], [ 2.3607043, 39.5563033 ], [ 2.3598031, 39.5568989 ], [ 2.3569814, 39.5578832 ], [ 2.3541168, 39.5574944 ], [ 2.3538915, 39.558272 ], [ 2.3563809, 39.5596791 ], [ 2.3553184, 39.5631604 ], [ 2.3532287, 39.5645025 ], [ 2.3518722, 39.5631781 ], [ 2.3507986, 39.5637173 ], [ 2.3497984, 39.5628065 ], [ 2.346498, 39.5646828 ], [ 2.3480601, 39.5653956 ], [ 2.3476445, 39.5658947 ], [ 2.3488875, 39.5679783 ], [ 2.3517569, 39.5703608 ], [ 2.352092, 39.5714905 ], [ 2.3514556, 39.5723299 ], [ 2.3534392, 39.5731738 ], [ 2.3524665, 39.5735493 ], [ 2.3530246, 39.5742184 ], [ 2.3523345, 39.5751566 ], [ 2.3545193, 39.5767068 ], [ 2.3531463, 39.5782765 ], [ 2.3496765, 39.5789524 ], [ 2.3499299, 39.581135 ], [ 2.3487727, 39.5815352 ], [ 2.3489234, 39.5823789 ], [ 2.347923, 39.5821446 ], [ 2.3490023, 39.5828209 ], [ 2.3488526, 39.5839768 ], [ 2.3462, 39.5835597 ], [ 2.3455254, 39.5869396 ], [ 2.3447252, 39.5871688 ] ] ], [ [ [ 2.7090043, 39.8165296 ], [ 2.7097771, 39.8191334 ], [ 2.7109044, 39.8170841 ], [ 2.7106001, 39.8158692 ], [ 2.7090043, 39.8165296 ] ] ], [ [ [ 3.036176, 39.2789553 ], [ 3.0356707, 39.2795756 ], [ 3.0367226, 39.2796082 ], [ 3.036176, 39.2789553 ] ] ], [ [ [ 3.0099065, 39.2980354 ], [ 3.0093231, 39.299632 ], [ 3.0099653, 39.3001089 ], [ 3.0104526, 39.298403 ], [ 3.0099065, 39.2980354 ] ] ], [ [ [ 3.0081592, 39.3045912 ], [ 3.0107191, 39.3058659 ], [ 3.0124876, 39.3053151 ], [ 3.0121827, 39.3035984 ], [ 3.0092836, 39.3034459 ], [ 3.0081592, 39.3045912 ] ] ], [ [ [ 3.0001754, 39.3110327 ], [ 3.0016558, 39.3110029 ], [ 3.0021586, 39.3096841 ], [ 2.9997431, 39.3101368 ], [ 3.0001754, 39.3110327 ] ] ], [ [ [ 2.9872454, 39.3124222 ], [ 2.9865279, 39.3118805 ], [ 2.9864179, 39.3120685 ], [ 2.9872454, 39.3124222 ] ] ], [ [ [ 2.9825903, 39.317534 ], [ 2.9832902, 39.3182907 ], [ 2.9834293, 39.3177562 ], [ 2.9825903, 39.317534 ] ] ], [ [ [ 3.1442502, 39.3255687 ], [ 3.1449679, 39.3257691 ], [ 3.145088, 39.3256636 ], [ 3.1442502, 39.3255687 ] ] ], [ [ [ 2.9814549, 39.3252817 ], [ 2.9843923, 39.3264856 ], [ 2.9820367, 39.3250051 ], [ 2.9814549, 39.3252817 ] ] ], [ [ [ 2.9834178, 39.327657 ], [ 2.9830813, 39.3272069 ], [ 2.9828009, 39.3271635 ], [ 2.9834178, 39.327657 ] ] ], [ [ [ 2.989815, 39.3340218 ], [ 2.988525, 39.3336097 ], [ 2.9883988, 39.3337018 ], [ 2.989815, 39.3340218 ] ] ], [ [ [ 3.2419102, 39.3753792 ], [ 3.2422897, 39.3752941 ], [ 3.2419591, 39.3751452 ], [ 3.2419102, 39.3753792 ] ] ], [ [ [ 3.3756759, 39.5651904 ], [ 3.3756884, 39.5649171 ], [ 3.3753793, 39.5650812 ], [ 3.3756759, 39.5651904 ] ] ], [ [ [ 3.1881479, 39.754986 ], [ 3.1879612, 39.7542577 ], [ 3.1876168, 39.7544527 ], [ 3.1881479, 39.754986 ] ] ], [ [ [ 3.4059022, 39.7699895 ], [ 3.4069429, 39.7699647 ], [ 3.4058593, 39.7696596 ], [ 3.4059022, 39.7699895 ] ] ], [ [ [ 3.1692809, 39.8348951 ], [ 3.1703694, 39.8361184 ], [ 3.1717592, 39.8353353 ], [ 3.1698981, 39.8346373 ], [ 3.1692809, 39.8348951 ] ] ], [ [ [ 3.161918, 39.8733167 ], [ 3.1622612, 39.8738882 ], [ 3.1623165, 39.8732475 ], [ 3.161918, 39.8733167 ] ] ], [ [ [ 3.1774501, 39.8813466 ], [ 3.1772034, 39.8812561 ], [ 3.1774823, 39.8814125 ], [ 3.1774501, 39.8813466 ] ] ], [ [ [ 3.1444022, 39.9228974 ], [ 3.1491709, 39.9215483 ], [ 3.1501706, 39.9202566 ], [ 3.1460749, 39.9198666 ], [ 3.144577, 39.9206724 ], [ 3.1444022, 39.9228974 ] ] ], [ [ [ 3.1837975, 39.9376502 ], [ 3.1844178, 39.9375045 ], [ 3.183735, 39.9375382 ], [ 3.1837975, 39.9376502 ] ] ], [ [ [ 3.1300279, 39.9440801 ], [ 3.1315619, 39.9460419 ], [ 3.1323747, 39.9459082 ], [ 3.1314519, 39.9442488 ], [ 3.1300279, 39.9440801 ] ] ] ] } }
]
}
