{
"type": "FeatureCollection",
"name": "malta",
"crs": { "type": "name", "properties": { "name": "urn:ogc:def:crs:OGC:1.3:CRS84" } },
"features": [
{ "type": "Feature", "properties": { }, "geometry": { "type": "Polygon", "coordinates": [ [ [ 14.3189084, 35.971546 ], [ 14.320024, 35.9714139 ], [ 14.3196962, 35.9706087 ], [ 14.322037, 35.9686206 ], [ 14.3258413, 35.9684255 ], [ 14.328543, 35.9695932 ], [ 14.3354593, 35.9702998 ], [ 14.3349825, 35.9697395 ], [ 14.3366101, 35.9695283 ], [ 14.3368716, 35.968684 ], [ 14.3361335, 35.9681838 ], [ 14.3372691, 35.9676405 ], [ 14.3368203, 35.9665919 ], [ 14.3381091, 35.9646709 ], [ 14.3376956, 35.9627512 ], [ 14.3358969, 35.9625215 ], [ 14.3356923, 35.9618553 ], [ 14.3379274, 35.9605769 ], [ 14.3416927, 35.9603426 ], [ 14.3401273, 35.9601371 ], [ 14.3404468, 35.9597128 ], [ 14.3378891, 35.9583624 ], [ 14.3391994, 35.9578989 ], [ 14.3385878, 35.9555628 ], [ 14.3396161, 35.9544867 ], [ 14.3416975, 35.9545859 ], [ 14.3416567, 35.9539589 ], [ 14.3406675, 35.9517372 ], [ 14.3376695, 35.9508632 ], [ 14.3385046, 35.9492844 ], [ 14.3360805, 35.9476896 ], [ 14.3360318, 35.9447854 ], [ 14.3335264, 35.9441287 ], [ 14.3323709, 35.9447314 ], [ 14.3295748, 35.9434658 ], [ 14.3285483, 35.9421622 ], [ 14.3292216, 35.9407714 ], [ 14.3284964, 35.9405669 ], [ 14.3310803, 35.9386042 ], [ 14.3307994, 35.9381158 ], [ 14.3321095, 35.9376617 ], [ 14.3327969, 35.9386251 ], [ 14.3353473, 35.9384882 ], [ 14.3383296, 35.9369651 ], [ 14.3393938, 35.9347881 ], [ 14.3438294, 35.93428 ], [ 14.3445434, 35.9328524 ], [ 14.3430441, 35.9318848 ], [ 14.3429265, 35.9308701 ], [ 14.345022, 35.9299257 ], [ 14.3445838, 35.9287997 ], [ 14.3432351, 35.9279045 ], [ 14.3401595, 35.9286762 ], [ 14.3390167, 35.9273153 ], [ 14.3402375, 35.9261272 ], [ 14.3426118, 35.9271701 ], [ 14.3435674, 35.9267528 ], [ 14.3439015, 35.9261378 ], [ 14.3429484, 35.9253276 ], [ 14.3440588, 35.9253794 ], [ 14.3430403, 35.9232599 ], [ 14.3441953, 35.9214457 ], [ 14.3436062, 35.9205971 ], [ 14.3416946, 35.9202134 ], [ 14.3385549, 35.9227549 ], [ 14.3363662, 35.9227401 ], [ 14.3362324, 35.9221166 ], [ 14.3348711, 35.922945 ], [ 14.3332271, 35.9215565 ], [ 14.3327513, 35.915437 ], [ 14.3340493, 35.9138579 ], [ 14.3356396, 35.9142123 ], [ 14.3359127, 35.9123001 ], [ 14.338412, 35.9114178 ], [ 14.3390275, 35.9096939 ], [ 14.3383998, 35.9085722 ], [ 14.3404828, 35.9081354 ], [ 14.3411365, 35.906424 ], [ 14.3344892, 35.9056851 ], [ 14.3281921, 35.9065458 ], [ 14.3283822, 35.9050916 ], [ 14.3303929, 35.9038402 ], [ 14.3315688, 35.901977 ], [ 14.3305376, 35.9007004 ], [ 14.3309974, 35.9002085 ], [ 14.3286931, 35.8986732 ], [ 14.3296977, 35.896241 ], [ 14.3289252, 35.8968876 ], [ 14.3290625, 35.8961506 ], [ 14.3347871, 35.8915077 ], [ 14.3373194, 35.8853241 ], [ 14.3365041, 35.8798094 ], [ 14.3413074, 35.875591 ], [ 14.3419082, 35.8736175 ], [ 14.3443318, 35.8734528 ], [ 14.3443873, 35.8725669 ], [ 14.3470117, 35.8707751 ], [ 14.354418, 35.8704116 ], [ 14.3539355, 35.8689826 ], [ 14.3517306, 35.8681037 ], [ 14.3538613, 35.8667327 ], [ 14.3569677, 35.8661709 ], [ 14.3580863, 35.8645196 ], [ 14.3611921, 35.8626314 ], [ 14.3623418, 35.860152 ], [ 14.3688622, 35.856933 ], [ 14.3712527, 35.8538556 ], [ 14.3748856, 35.852985 ], [ 14.380182, 35.848552 ], [ 14.384586, 35.8486685 ], [ 14.3855154, 35.8474976 ], [ 14.3961971, 35.8428495 ], [ 14.3965632, 35.8413886 ], [ 14.3954952, 35.8402839 ], [ 14.3962313, 35.8384785 ], [ 14.3998904, 35.8381524 ], [ 14.4021559, 35.8361084 ], [ 14.4071431, 35.8357839 ], [ 14.4158631, 35.8338016 ], [ 14.4145951, 35.8337969 ], [ 14.4159513, 35.8335145 ], [ 14.4145314, 35.8318243 ], [ 14.4154575, 35.8299704 ], [ 14.4166617, 35.8294613 ], [ 14.416739, 35.8281809 ], [ 14.4219509, 35.8275368 ], [ 14.4229898, 35.8270304 ], [ 14.4225807, 35.8265587 ], [ 14.4248548, 35.8274766 ], [ 14.4264433, 35.8266968 ], [ 14.4280211, 35.8273293 ], [ 14.4289956, 35.8260166 ], [ 14.4342716, 35.8258894 ], [ 14.4358632, 35.8250804 ], [ 14.4347274, 35.8247155 ], [ 14.4363226, 35.8243696 ], [ 14.4355021, 35.8237065 ], [ 14.4372542, 35.8236581 ], [ 14.4382169, 35.8224367 ], [ 14.4382627, 35.8232949 ], [ 14.4393869, 35.82286 ], [ 14.4386365, 35.8235754 ], [ 14.4412334, 35.8233407 ], [ 14.4446921, 35.8214735 ], [ 14.4445323, 35.8218631 ], [ 14.4454933, 35.822261 ], [ 14.4463015, 35.8217871 ], [ 14.4458745, 35.8212011 ], [ 14.4508564, 35.8194632 ], [ 14.4511683, 35.819563 ], [ 14.4514552, 35.8202991 ], [ 14.4521838, 35.8211788 ], [ 14.4524283, 35.8212969 ], [ 14.4515915, 35.8195189 ], [ 14.4536967, 35.8188895 ], [ 14.4556472, 35.8193997 ], [ 14.455286, 35.8204824 ], [ 14.4565787, 35.8201578 ], [ 14.4568524, 35.8221595 ], [ 14.4582447, 35.8214822 ], [ 14.4584906, 35.8220509 ], [ 14.4596314, 35.8199061 ], [ 14.4655392, 35.819629 ], [ 14.4668208, 35.8175718 ], [ 14.4688244, 35.8163742 ], [ 14.4717446, 35.8150886 ], [ 14.4730872, 35.8153679 ], [ 14.4751471, 35.8140058 ], [ 14.4796253, 35.814256 ], [ 14.4821472, 35.815197 ], [ 14.4844359, 35.8134269 ], [ 14.494109, 35.8139518 ], [ 14.4980636, 35.8130646 ], [ 14.5083922, 35.808336 ], [ 14.5100391, 35.8085322 ], [ 14.5103974, 35.8074753 ], [ 14.5155213, 35.8061415 ], [ 14.5223708, 35.8073361 ], [ 14.5263563, 35.8066841 ], [ 14.5286107, 35.8073083 ], [ 14.5286965, 35.8066261 ], [ 14.5304885, 35.8063212 ], [ 14.5335148, 35.8078972 ], [ 14.5352969, 35.8074336 ], [ 14.5391987, 35.8095773 ], [ 14.5386953, 35.8115267 ], [ 14.5399681, 35.8101374 ], [ 14.5430066, 35.8113317 ], [ 14.5425006, 35.8120652 ], [ 14.5496836, 35.8179494 ], [ 14.5430218, 35.8132929 ], [ 14.5422711, 35.8144996 ], [ 14.5463899, 35.8176853 ], [ 14.5468061, 35.8187593 ], [ 14.5469406, 35.8205035 ], [ 14.5465986, 35.8186656 ], [ 14.5412687, 35.8232062 ], [ 14.5388194, 35.8212934 ], [ 14.5438102, 35.816928 ], [ 14.5420017, 35.8159616 ], [ 14.5334847, 35.8217227 ], [ 14.5314432, 35.819732 ], [ 14.5306505, 35.8198742 ], [ 14.529426, 35.8234828 ], [ 14.529915, 35.8255808 ], [ 14.5310784, 35.8252842 ], [ 14.5337016, 35.8270895 ], [ 14.5324192, 35.8304767 ], [ 14.5305037, 35.8295219 ], [ 14.5298868, 35.8301329 ], [ 14.530993, 35.8312186 ], [ 14.5308491, 35.8323365 ], [ 14.5341721, 35.8319347 ], [ 14.5382842, 35.8330011 ], [ 14.5407875, 35.8301834 ], [ 14.5447002, 35.8292766 ], [ 14.5466659, 35.8324379 ], [ 14.5450484, 35.8338264 ], [ 14.546674, 35.8359102 ], [ 14.5446403, 35.8365149 ], [ 14.5449349, 35.8374587 ], [ 14.5438696, 35.838681 ], [ 14.5456451, 35.8411656 ], [ 14.5482457, 35.8395612 ], [ 14.5460473, 35.8397086 ], [ 14.5496274, 35.8385569 ], [ 14.5509131, 35.8373166 ], [ 14.5521623, 35.8350353 ], [ 14.5509937, 35.8345756 ], [ 14.5523381, 35.8347016 ], [ 14.5547312, 35.8318546 ], [ 14.5555688, 35.8320158 ], [ 14.5547287, 35.8315195 ], [ 14.5549068, 35.8292619 ], [ 14.5568624, 35.8280318 ], [ 14.5570911, 35.8270526 ], [ 14.5560275, 35.8248113 ], [ 14.5564518, 35.823613 ], [ 14.5580241, 35.822925 ], [ 14.5590927, 35.8190123 ], [ 14.5623036, 35.8197914 ], [ 14.5610967, 35.8212262 ], [ 14.562246, 35.8214684 ], [ 14.5623734, 35.8224676 ], [ 14.5601202, 35.8232739 ], [ 14.55949, 35.8243587 ], [ 14.5626434, 35.8242233 ], [ 14.5639685, 35.8276074 ], [ 14.5631034, 35.8280513 ], [ 14.5643305, 35.828879 ], [ 14.5623339, 35.8296779 ], [ 14.5614418, 35.8311119 ], [ 14.5624019, 35.8311369 ], [ 14.562969, 35.8324099 ], [ 14.5619485, 35.833005 ], [ 14.563306, 35.8328659 ], [ 14.5640013, 35.8349545 ], [ 14.5612633, 35.834904 ], [ 14.5598002, 35.8358115 ], [ 14.5596362, 35.83775 ], [ 14.5622192, 35.8387158 ], [ 14.5648253, 35.8371173 ], [ 14.5646468, 35.8383164 ], [ 14.5627868, 35.8388164 ], [ 14.5614538, 35.8409841 ], [ 14.5637535, 35.8427317 ], [ 14.5678623, 35.8415897 ], [ 14.5697682, 35.8392839 ], [ 14.5727358, 35.8408103 ], [ 14.5708189, 35.8429982 ], [ 14.5687292, 35.8428953 ], [ 14.5696176, 35.8438772 ], [ 14.567418, 35.8451092 ], [ 14.5694336, 35.8484842 ], [ 14.5722091, 35.8497638 ], [ 14.5687205, 35.8497987 ], [ 14.5689923, 35.8503697 ], [ 14.5650841, 35.849855 ], [ 14.5632781, 35.8517614 ], [ 14.563956, 35.8519422 ], [ 14.5633504, 35.8519575 ], [ 14.5632055, 35.8536141 ], [ 14.5643558, 35.8547479 ], [ 14.5675543, 35.85492 ], [ 14.5688028, 35.8570233 ], [ 14.5713371, 35.8569812 ], [ 14.5714375, 35.8580776 ], [ 14.5732088, 35.8598813 ], [ 14.5764915, 35.8613296 ], [ 14.5739232, 35.8619409 ], [ 14.573241, 35.8632912 ], [ 14.5709684, 35.8646307 ], [ 14.5683108, 35.8652165 ], [ 14.5664849, 35.8637133 ], [ 14.5617129, 35.8635594 ], [ 14.5633953, 35.8654786 ], [ 14.5653253, 35.8648913 ], [ 14.5683969, 35.8668357 ], [ 14.5698736, 35.866452 ], [ 14.5751675, 35.8675727 ], [ 14.5719707, 35.8696872 ], [ 14.5710488, 35.8725188 ], [ 14.5659827, 35.8760215 ], [ 14.565472, 35.877273 ], [ 14.5642242, 35.8772607 ], [ 14.5646394, 35.8780883 ], [ 14.5640545, 35.8787158 ], [ 14.5585646, 35.8815294 ], [ 14.5571711, 35.8811348 ], [ 14.5556597, 35.8844041 ], [ 14.5524719, 35.8851124 ], [ 14.5509767, 35.8881974 ], [ 14.5469228, 35.8890499 ], [ 14.5423458, 35.8932757 ], [ 14.5384198, 35.8954013 ], [ 14.5356968, 35.894069 ], [ 14.5354167, 35.8952227 ], [ 14.5330888, 35.8958322 ], [ 14.5332857, 35.896335 ], [ 14.5309426, 35.8962653 ], [ 14.5306016, 35.897399 ], [ 14.5286852, 35.8980433 ], [ 14.527504, 35.8972573 ], [ 14.5253145, 35.8988938 ], [ 14.5234348, 35.8983307 ], [ 14.5259727, 35.8965803 ], [ 14.5254831, 35.8962214 ], [ 14.5276327, 35.893233 ], [ 14.5256675, 35.8932335 ], [ 14.5246233, 35.8942432 ], [ 14.5226709, 35.8924275 ], [ 14.5272449, 35.888765 ], [ 14.5261175, 35.8876004 ], [ 14.5251859, 35.8888468 ], [ 14.5211778, 35.8900351 ], [ 14.5188678, 35.8927554 ], [ 14.5176369, 35.8931037 ], [ 14.516656, 35.8924238 ], [ 14.5191344, 35.890575 ], [ 14.5197431, 35.8910161 ], [ 14.5196113, 35.8891424 ], [ 14.5213007, 35.8855426 ], [ 14.5200567, 35.8813739 ], [ 14.5200005, 35.885983 ], [ 14.5169424, 35.8896766 ], [ 14.5141162, 35.8910491 ], [ 14.5139874, 35.8892694 ], [ 14.5175941, 35.8845083 ], [ 14.5169469, 35.884516 ], [ 14.5178932, 35.8830307 ], [ 14.5176344, 35.8816773 ], [ 14.5168205, 35.8809145 ], [ 14.5156178, 35.8807819 ], [ 14.5157049, 35.8829753 ], [ 14.5133866, 35.8864747 ], [ 14.5117774, 35.886521 ], [ 14.5074534, 35.8846222 ], [ 14.5068182, 35.8855655 ], [ 14.5060886, 35.8852919 ], [ 14.5053023, 35.8833407 ], [ 14.5029111, 35.8823851 ], [ 14.5036272, 35.8791221 ], [ 14.5006915, 35.8779517 ], [ 14.500759, 35.8790369 ], [ 14.4981286, 35.8802136 ], [ 14.4965723, 35.8789794 ], [ 14.4959706, 35.8798911 ], [ 14.4980233, 35.8811891 ], [ 14.5015485, 35.8807793 ], [ 14.4996037, 35.8838583 ], [ 14.4977552, 35.8839758 ], [ 14.4978635, 35.8850963 ], [ 14.5002066, 35.8846632 ], [ 14.5011365, 35.8853668 ], [ 14.5018413, 35.8847882 ], [ 14.505665, 35.8878814 ], [ 14.5068881, 35.887987 ], [ 14.5080037, 35.8900069 ], [ 14.509597, 35.8910451 ], [ 14.5077184, 35.8885934 ], [ 14.5097399, 35.8908313 ], [ 14.5101749, 35.892325 ], [ 14.5131419, 35.8939642 ], [ 14.5143781, 35.8959474 ], [ 14.5184404, 35.897124 ], [ 14.519187, 35.901001 ], [ 14.5206512, 35.902731 ], [ 14.5175138, 35.9034997 ], [ 14.5153416, 35.9015414 ], [ 14.5141016, 35.9026025 ], [ 14.5127678, 35.9024129 ], [ 14.509961, 35.9002175 ], [ 14.508462, 35.9005413 ], [ 14.5034601, 35.8978377 ], [ 14.5045029, 35.8978967 ], [ 14.5018194, 35.8964749 ], [ 14.5005314, 35.8947845 ], [ 14.4980743, 35.8943255 ], [ 14.4974786, 35.8928896 ], [ 14.4973228, 35.896503 ], [ 14.4909535, 35.8950563 ], [ 14.4906165, 35.8963286 ], [ 14.4952933, 35.8976725 ], [ 14.499157, 35.8974631 ], [ 14.5000581, 35.8966695 ], [ 14.5006093, 35.8999875 ], [ 14.4968624, 35.9013318 ], [ 14.4956027, 35.9029947 ], [ 14.4959356, 35.9044332 ], [ 14.499376, 35.907495 ], [ 14.5051414, 35.908706 ], [ 14.5122353, 35.9052839 ], [ 14.5144331, 35.9057732 ], [ 14.5152091, 35.9070941 ], [ 14.5117599, 35.9082711 ], [ 14.5122215, 35.9086686 ], [ 14.5110373, 35.9089183 ], [ 14.5113512, 35.9096566 ], [ 14.5101299, 35.9110909 ], [ 14.5071197, 35.9117062 ], [ 14.5071041, 35.9136757 ], [ 14.5081722, 35.9138946 ], [ 14.5069596, 35.9153203 ], [ 14.501125, 35.9171784 ], [ 14.4988741, 35.9188998 ], [ 14.4977756, 35.9174844 ], [ 14.4975908, 35.9152741 ], [ 14.4949625, 35.9154882 ], [ 14.4943051, 35.9143482 ], [ 14.4936589, 35.9145244 ], [ 14.4938351, 35.9170693 ], [ 14.4900742, 35.9191966 ], [ 14.4913816, 35.9196879 ], [ 14.4929574, 35.9186369 ], [ 14.4950273, 35.9194384 ], [ 14.4953999, 35.9205662 ], [ 14.4948454, 35.9216027 ], [ 14.4948128, 35.9203589 ], [ 14.4925152, 35.9211758 ], [ 14.4941359, 35.9212289 ], [ 14.4948351, 35.9223742 ], [ 14.4949419, 35.921937 ], [ 14.4956304, 35.9212308 ], [ 14.4953814, 35.9234318 ], [ 14.4927648, 35.9239358 ], [ 14.4955161, 35.9269933 ], [ 14.4942561, 35.9268625 ], [ 14.4937996, 35.9259931 ], [ 14.4896887, 35.9262329 ], [ 14.4886825, 35.9253771 ], [ 14.4877197, 35.9262871 ], [ 14.4924528, 35.9283362 ], [ 14.4927425, 35.9290784 ], [ 14.4910879, 35.9306042 ], [ 14.4892056, 35.9304018 ], [ 14.4877593, 35.9316462 ], [ 14.4855989, 35.9315987 ], [ 14.4837364, 35.9334179 ], [ 14.4810853, 35.9338156 ], [ 14.481548, 35.9362748 ], [ 14.4762103, 35.9379536 ], [ 14.4722705, 35.9374532 ], [ 14.4710016, 35.9360681 ], [ 14.4593216, 35.9379847 ], [ 14.4593755, 35.9400685 ], [ 14.4580058, 35.9416869 ], [ 14.4564149, 35.9400336 ], [ 14.4552151, 35.9401919 ], [ 14.4547103, 35.9414089 ], [ 14.4557969, 35.9441543 ], [ 14.4548309, 35.9471693 ], [ 14.4527605, 35.9474884 ], [ 14.4517714, 35.9468643 ], [ 14.4522922, 35.9445489 ], [ 14.4500093, 35.9432013 ], [ 14.4489118, 35.9463093 ], [ 14.4460036, 35.9480942 ], [ 14.4471623, 35.9495533 ], [ 14.4451559, 35.9504088 ], [ 14.4440295, 35.9519644 ], [ 14.4410512, 35.9518671 ], [ 14.4375321, 35.9541391 ], [ 14.4329706, 35.95478 ], [ 14.4322965, 35.9527148 ], [ 14.4283582, 35.9488108 ], [ 14.4257125, 35.9483898 ], [ 14.4243525, 35.9490923 ], [ 14.4211734, 35.9447405 ], [ 14.4248284, 35.950672 ], [ 14.4243135, 35.9544361 ], [ 14.4246012, 35.9557318 ], [ 14.4264694, 35.9571903 ], [ 14.4260651, 35.9593553 ], [ 14.4301625, 35.9599393 ], [ 14.4282642, 35.9608954 ], [ 14.4276942, 35.9601106 ], [ 14.4248843, 35.9599719 ], [ 14.4178341, 35.9571674 ], [ 14.4170156, 35.9542393 ], [ 14.4148833, 35.9535489 ], [ 14.4139944, 35.9521814 ], [ 14.4120508, 35.9530973 ], [ 14.4086694, 35.9525226 ], [ 14.4085155, 35.9501604 ], [ 14.4064759, 35.9501322 ], [ 14.4053958, 35.9491972 ], [ 14.4061882, 35.9490839 ], [ 14.4052032, 35.9488186 ], [ 14.4038281, 35.9499629 ], [ 14.39975, 35.9493802 ], [ 14.3997712, 35.9506805 ], [ 14.3912688, 35.9471218 ], [ 14.3895957, 35.9473604 ], [ 14.3906713, 35.947043 ], [ 14.3898092, 35.9459743 ], [ 14.3849125, 35.9450833 ], [ 14.3831856, 35.9471815 ], [ 14.3863155, 35.9499353 ], [ 14.3890294, 35.95119 ], [ 14.3896773, 35.9525745 ], [ 14.3883411, 35.9524398 ], [ 14.390752, 35.9543685 ], [ 14.3914988, 35.9559526 ], [ 14.3909924, 35.9574741 ], [ 14.3898959, 35.9577104 ], [ 14.3898859, 35.9588737 ], [ 14.3917207, 35.959428 ], [ 14.3944885, 35.9580023 ], [ 14.3964347, 35.9583388 ], [ 14.3970824, 35.9598383 ], [ 14.3965028, 35.9595642 ], [ 14.3953242, 35.9608631 ], [ 14.3979036, 35.9637323 ], [ 14.3953702, 35.9661953 ], [ 14.3971089, 35.9678202 ], [ 14.3955526, 35.9675108 ], [ 14.3946542, 35.9681714 ], [ 14.3920526, 35.9673564 ], [ 14.3901932, 35.9683167 ], [ 14.3878214, 35.9675389 ], [ 14.3868818, 35.9691627 ], [ 14.3853463, 35.9697069 ], [ 14.3834089, 35.968026 ], [ 14.3819232, 35.9678304 ], [ 14.3796153, 35.9696783 ], [ 14.3793746, 35.9714687 ], [ 14.3676547, 35.9678027 ], [ 14.3566635, 35.9668858 ], [ 14.3556089, 35.9661044 ], [ 14.3530202, 35.9666653 ], [ 14.3499694, 35.9711222 ], [ 14.349941, 35.9733986 ], [ 14.353104, 35.9756996 ], [ 14.3557513, 35.9761574 ], [ 14.3571297, 35.9770273 ], [ 14.3565405, 35.9777419 ], [ 14.3580624, 35.9777564 ], [ 14.3638194, 35.9815403 ], [ 14.3645574, 35.9839214 ], [ 14.3686852, 35.9853767 ], [ 14.3711136, 35.9849989 ], [ 14.3760589, 35.9873815 ], [ 14.3762784, 35.9888619 ], [ 14.3726205, 35.9914003 ], [ 14.3702794, 35.9959833 ], [ 14.3675683, 35.9982779 ], [ 14.3667502, 35.9979965 ], [ 14.3670696, 35.9961438 ], [ 14.3635934, 35.9972826 ], [ 14.3617775, 35.9962879 ], [ 14.3621667, 35.9941889 ], [ 14.3653387, 35.9929208 ], [ 14.3649839, 35.9919563 ], [ 14.3638681, 35.9913452 ], [ 14.3605675, 35.9919167 ], [ 14.3594993, 35.9898287 ], [ 14.3574442, 35.9892162 ], [ 14.3560852, 35.9894256 ], [ 14.3554206, 35.9913913 ], [ 14.3534436, 35.9918777 ], [ 14.3525445, 35.9914476 ], [ 14.3518538, 35.9870018 ], [ 14.3511869, 35.9866892 ], [ 14.3485799, 35.9883729 ], [ 14.3457736, 35.98826 ], [ 14.3468791, 35.9863476 ], [ 14.3460207, 35.9858699 ], [ 14.344244, 35.9865647 ], [ 14.3445676, 35.9873516 ], [ 14.3404943, 35.9870148 ], [ 14.3380945, 35.9859051 ], [ 14.3359746, 35.9873491 ], [ 14.330406, 35.9869423 ], [ 14.3291616, 35.9888492 ], [ 14.3299851, 35.9894999 ], [ 14.3290615, 35.9889325 ], [ 14.3285756, 35.9894767 ], [ 14.3294462, 35.9906652 ], [ 14.3278738, 35.989309 ], [ 14.3280885, 35.988234 ], [ 14.3270186, 35.9870299 ], [ 14.3322856, 35.9856783 ], [ 14.3341534, 35.9837934 ], [ 14.3321912, 35.9819208 ], [ 14.330264, 35.9826417 ], [ 14.326202, 35.9780983 ], [ 14.324136, 35.9785197 ], [ 14.3227745, 35.9776564 ], [ 14.3216886, 35.9761816 ], [ 14.3215513, 35.9739718 ], [ 14.3189084, 35.971546 ] ] ] } }
]
}
