{
"type": "FeatureCollection",
"name": "menorca",
"crs": { "type": "name", "properties": { "name": "urn:ogc:def:crs:OGC:1.3:CRS84" } },
"features": [
{ "type": "Feature", "properties": { }, "geometry": { "type": "MultiPolygon", "coordinates": [ [ [ [ 4.0296974, 39.9158087 ], [ 4.0303788, 39.916624 ], [ 4.0299673, 39.9154868 ], [ 4.0296974, 39.9158087 ] ] ], [ [ [ 4.0302957, 39.9169668 ], [ 4.0308102, 39.9168416 ], [ 4.0306676, 39.9163717 ], [ 4.0302957, 39.9169668 ] ] ], [ [ [ 3.7911649, 40.0151674 ], [ 3.79267, 40.0182744 ], [ 3.7917434, 40.0186394 ], [ 3.792049, 40.0199388 ], [ 3.7930929, 40.0197055 ], [ 3.7944202, 40.0206302 ], [ 3.7965049, 40.0197844 ], [ 3.7973025, 40.0207727 ], [ 3.7981743, 40.0204523 ], [ 3.7988609, 40.0216641 ], [ 3.7994349, 40.0205272 ], [ 3.8011864, 40.0205919 ], [ 3.8022871, 40.0212881 ], [ 3.801858, 40.0236214 ], [ 3.8025543, 40.0245931 ], [ 3.8057569, 40.025692 ], [ 3.8085182, 40.0249885 ], [ 3.8087985, 40.0262722 ], [ 3.8104695, 40.0267569 ], [ 3.8095039, 40.0273741 ], [ 3.8105456, 40.0283828 ], [ 3.8101167, 40.0292779 ], [ 3.8064166, 40.0317438 ], [ 3.8076106, 40.0336808 ], [ 3.8106235, 40.033265 ], [ 3.8133499, 40.0345312 ], [ 3.8138502, 40.0363674 ], [ 3.8153699, 40.0369558 ], [ 3.8153053, 40.0377674 ], [ 3.8139134, 40.0381571 ], [ 3.8146028, 40.0391911 ], [ 3.8187977, 40.0397064 ], [ 3.8177152, 40.0427742 ], [ 3.8214802, 40.0462901 ], [ 3.8218071, 40.0505444 ], [ 3.8228097, 40.0499426 ], [ 3.8223559, 40.0511345 ], [ 3.8235454, 40.0506703 ], [ 3.8258989, 40.052748 ], [ 3.8264109, 40.0502245 ], [ 3.826949, 40.0525222 ], [ 3.8290129, 40.0528236 ], [ 3.8288603, 40.0518955 ], [ 3.8300662, 40.0514968 ], [ 3.8295736, 40.0504045 ], [ 3.8305676, 40.0495656 ], [ 3.8316693, 40.0509875 ], [ 3.831187, 40.0525316 ], [ 3.8331866, 40.0519023 ], [ 3.8330656, 40.0508995 ], [ 3.8354131, 40.0499305 ], [ 3.834837, 40.0488624 ], [ 3.8374016, 40.0495717 ], [ 3.8389991, 40.0532355 ], [ 3.8422239, 40.0538581 ], [ 3.8462329, 40.053321 ], [ 3.8527886, 40.0550936 ], [ 3.8593994, 40.0537964 ], [ 3.8609819, 40.0546081 ], [ 3.8619425, 40.0538762 ], [ 3.8652092, 40.0541882 ], [ 3.8671605, 40.0558203 ], [ 3.8675352, 40.05813 ], [ 3.8687396, 40.0562192 ], [ 3.8701551, 40.0558239 ], [ 3.8709683, 40.054036 ], [ 3.8787585, 40.0522661 ], [ 3.8817801, 40.0555761 ], [ 3.8824211, 40.055341 ], [ 3.8817559, 40.0541575 ], [ 3.882722, 40.0530808 ], [ 3.8847732, 40.0552295 ], [ 3.8817299, 40.0573374 ], [ 3.8819625, 40.0580048 ], [ 3.8827056, 40.0581704 ], [ 3.8831724, 40.0572864 ], [ 3.8831179, 40.0583525 ], [ 3.8846776, 40.0583938 ], [ 3.8859303, 40.0569401 ], [ 3.8879858, 40.0581408 ], [ 3.8898149, 40.0563949 ], [ 3.8915705, 40.0577412 ], [ 3.8917614, 40.0568589 ], [ 3.892959, 40.0572556 ], [ 3.8933348, 40.0580786 ], [ 3.8944432, 40.0572142 ], [ 3.8951321, 40.0575295 ], [ 3.8946081, 40.0585259 ], [ 3.8981904, 40.0580943 ], [ 3.898526, 40.0597871 ], [ 3.8988655, 40.0590223 ], [ 3.9044477, 40.0573365 ], [ 3.9049274, 40.0557117 ], [ 3.9043963, 40.0550635 ], [ 3.9066918, 40.0544015 ], [ 3.9072204, 40.0499574 ], [ 3.9078507, 40.0506395 ], [ 3.9095222, 40.0484021 ], [ 3.9120716, 40.0495913 ], [ 3.9132042, 40.051458 ], [ 3.9145695, 40.050028 ], [ 3.9141352, 40.0465952 ], [ 3.9168741, 40.0484353 ], [ 3.9211187, 40.0454437 ], [ 3.9234777, 40.0465638 ], [ 3.922846, 40.0484405 ], [ 3.9241639, 40.0488658 ], [ 3.9243749, 40.0499917 ], [ 3.9204404, 40.0517069 ], [ 3.9209752, 40.0517615 ], [ 3.9210302, 40.0539645 ], [ 3.9201826, 40.0544716 ], [ 3.919861, 40.0569874 ], [ 3.9234598, 40.0563251 ], [ 3.93102, 40.058167 ], [ 3.9288971, 40.0604088 ], [ 3.9339431, 40.0629067 ], [ 3.9386473, 40.061197 ], [ 3.9390571, 40.0595729 ], [ 3.9417486, 40.056329 ], [ 3.9491075, 40.0567669 ], [ 3.9509845, 40.0584291 ], [ 3.9544199, 40.0585659 ], [ 3.9582798, 40.0611772 ], [ 3.962284, 40.0607587 ], [ 3.9632683, 40.0594667 ], [ 3.9672488, 40.0573794 ], [ 3.969166, 40.0536552 ], [ 3.9729495, 40.0525975 ], [ 3.9748822, 40.0537204 ], [ 3.9772876, 40.0526875 ], [ 3.9772216, 40.0515019 ], [ 3.9788404, 40.0509023 ], [ 3.982934, 40.0532931 ], [ 3.9845506, 40.0522262 ], [ 3.9871695, 40.0522282 ], [ 3.9867705, 40.0546452 ], [ 3.9876151, 40.0561802 ], [ 3.9912759, 40.0572053 ], [ 3.9917384, 40.0566225 ], [ 3.9943633, 40.0590374 ], [ 3.9947787, 40.0579735 ], [ 3.9961622, 40.0589109 ], [ 3.997195, 40.0585773 ], [ 3.9972423, 40.0576083 ], [ 3.9992842, 40.0586722 ], [ 4.0001724, 40.058003 ], [ 4.0020599, 40.05932 ], [ 4.0018616, 40.0586999 ], [ 4.0029089, 40.0583068 ], [ 4.003481, 40.0591538 ], [ 4.0084549, 40.0588392 ], [ 4.0084418, 40.0596348 ], [ 4.0102646, 40.0595391 ], [ 4.0104971, 40.0580172 ], [ 4.0126762, 40.0577538 ], [ 4.0131335, 40.0567621 ], [ 4.0162583, 40.0555566 ], [ 4.0154986, 40.0581877 ], [ 4.0173457, 40.0599718 ], [ 4.0181522, 40.0590203 ], [ 4.0219879, 40.0596013 ], [ 4.0271526, 40.0628576 ], [ 4.0290001, 40.0623409 ], [ 4.0296264, 40.0634919 ], [ 4.0287478, 40.06462 ], [ 4.0321437, 40.0655489 ], [ 4.0319634, 40.064428 ], [ 4.0326046, 40.0649778 ], [ 4.0331149, 40.0638922 ], [ 4.0357473, 40.0642057 ], [ 4.0390152, 40.0614278 ], [ 4.0402584, 40.0598832 ], [ 4.0401028, 40.0589491 ], [ 4.0407962, 40.0588219 ], [ 4.0402967, 40.0579071 ], [ 4.0411723, 40.0557912 ], [ 4.0432995, 40.0546468 ], [ 4.0452067, 40.054757 ], [ 4.0452004, 40.0564348 ], [ 4.0469089, 40.0556151 ], [ 4.04679, 40.0540966 ], [ 4.0484632, 40.0539251 ], [ 4.0483115, 40.0525289 ], [ 4.0514412, 40.0532904 ], [ 4.051712, 40.0520848 ], [ 4.0531339, 40.0517665 ], [ 4.0544792, 40.0525031 ], [ 4.054118, 40.0566201 ], [ 4.0574615, 40.0583983 ], [ 4.0598728, 40.0590535 ], [ 4.0628659, 40.0580176 ], [ 4.0637513, 40.0594773 ], [ 4.0643243, 40.0592563 ], [ 4.0639326, 40.0578682 ], [ 4.0653124, 40.0577996 ], [ 4.0651474, 40.0567759 ], [ 4.066602, 40.0562632 ], [ 4.0679325, 40.0574599 ], [ 4.0674349, 40.0581804 ], [ 4.0681195, 40.0588462 ], [ 4.0690396, 40.0577911 ], [ 4.0712074, 40.0588111 ], [ 4.0718601, 40.0601338 ], [ 4.0731819, 40.0585633 ], [ 4.0762524, 40.0594777 ], [ 4.0773297, 40.0627285 ], [ 4.0758092, 40.0632336 ], [ 4.0763132, 40.0646228 ], [ 4.0753937, 40.0658542 ], [ 4.0757172, 40.0669457 ], [ 4.0778991, 40.0707827 ], [ 4.0785465, 40.0708245 ], [ 4.0781573, 40.0682611 ], [ 4.0790101, 40.0677973 ], [ 4.0790205, 40.0667096 ], [ 4.0823659, 40.067914 ], [ 4.0842758, 40.0699417 ], [ 4.0835904, 40.0706645 ], [ 4.0844221, 40.0722988 ], [ 4.0831238, 40.073556 ], [ 4.0844771, 40.0743542 ], [ 4.0842749, 40.0750096 ], [ 4.0859943, 40.0740556 ], [ 4.0859357, 40.0727805 ], [ 4.0868393, 40.0721297 ], [ 4.0868284, 40.0706275 ], [ 4.0879328, 40.0702658 ], [ 4.0879923, 40.0688845 ], [ 4.0893952, 40.0689743 ], [ 4.0893549, 40.0709043 ], [ 4.0876566, 40.0726464 ], [ 4.0882954, 40.0738558 ], [ 4.0870733, 40.0749069 ], [ 4.0887755, 40.076863 ], [ 4.0909858, 40.0762398 ], [ 4.0898082, 40.0787528 ], [ 4.0903124, 40.0823484 ], [ 4.0878555, 40.0843349 ], [ 4.0855556, 40.0850034 ], [ 4.0853745, 40.0858186 ], [ 4.0817097, 40.0882101 ], [ 4.0816106, 40.0890822 ], [ 4.0838603, 40.0888837 ], [ 4.0859356, 40.0873778 ], [ 4.0909487, 40.0894946 ], [ 4.0928045, 40.0893324 ], [ 4.0941646, 40.0880691 ], [ 4.0936014, 40.0871379 ], [ 4.094725, 40.0861095 ], [ 4.0941239, 40.0854091 ], [ 4.0945818, 40.0847313 ], [ 4.0974765, 40.0847952 ], [ 4.0978138, 40.086167 ], [ 4.099048, 40.086001 ], [ 4.0985273, 40.0854892 ], [ 4.0992367, 40.0846054 ], [ 4.0945683, 40.0807558 ], [ 4.0969454, 40.0777869 ], [ 4.0924899, 40.0748015 ], [ 4.0928027, 40.0739259 ], [ 4.0943022, 40.0737335 ], [ 4.0926793, 40.070343 ], [ 4.0951096, 40.0703812 ], [ 4.0964446, 40.0691904 ], [ 4.0958201, 40.0686958 ], [ 4.0964536, 40.0681975 ], [ 4.0961922, 40.065216 ], [ 4.0951191, 40.0638885 ], [ 4.0922119, 40.0630276 ], [ 4.0933771, 40.0620833 ], [ 4.0930634, 40.0610005 ], [ 4.0941129, 40.0608329 ], [ 4.0928412, 40.059779 ], [ 4.0946982, 40.0596504 ], [ 4.0940531, 40.0583381 ], [ 4.095584, 40.057042 ], [ 4.0974244, 40.0574614 ], [ 4.0980119, 40.0585047 ], [ 4.0992736, 40.0580068 ], [ 4.0987673, 40.0542206 ], [ 4.1008675, 40.0546439 ], [ 4.0999822, 40.0539654 ], [ 4.0989814, 40.0503544 ], [ 4.1021434, 40.0480275 ], [ 4.103115, 40.044728 ], [ 4.1066244, 40.0441284 ], [ 4.107928, 40.0451874 ], [ 4.1075194, 40.0460928 ], [ 4.1081158, 40.0465003 ], [ 4.1070531, 40.0483531 ], [ 4.1073572, 40.0498392 ], [ 4.1082286, 40.0495519 ], [ 4.1079326, 40.0508495 ], [ 4.1095634, 40.0513077 ], [ 4.1088399, 40.0517433 ], [ 4.109914, 40.053241 ], [ 4.109812, 40.0544628 ], [ 4.1112326, 40.0550584 ], [ 4.1118558, 40.0542293 ], [ 4.1122902, 40.055368 ], [ 4.1135403, 40.0549321 ], [ 4.1134577, 40.0555777 ], [ 4.1186497, 40.0551058 ], [ 4.1192634, 40.0557513 ], [ 4.1188723, 40.0547019 ], [ 4.1194021, 40.0544608 ], [ 4.1202574, 40.0552282 ], [ 4.1251022, 40.0550498 ], [ 4.1257868, 40.0562015 ], [ 4.1248558, 40.0597508 ], [ 4.1263961, 40.0625737 ], [ 4.1288611, 40.0616227 ], [ 4.129902, 40.0625807 ], [ 4.1297328, 40.0634576 ], [ 4.1326433, 40.0636693 ], [ 4.1327978, 40.0628498 ], [ 4.1337073, 40.0628826 ], [ 4.1329603, 40.0586856 ], [ 4.1338667, 40.0576531 ], [ 4.1314379, 40.0553396 ], [ 4.1320345, 40.0542085 ], [ 4.1311348, 40.0554111 ], [ 4.1303065, 40.0551775 ], [ 4.1311572, 40.0543614 ], [ 4.1298829, 40.0540184 ], [ 4.1300707, 40.0516252 ], [ 4.1277221, 40.0494778 ], [ 4.1271376, 40.048269 ], [ 4.1275959, 40.047263 ], [ 4.1244806, 40.0426517 ], [ 4.1233263, 40.0376081 ], [ 4.1238309, 40.0370318 ], [ 4.1201395, 40.0357392 ], [ 4.1215779, 40.0339033 ], [ 4.1209501, 40.032119 ], [ 4.1226711, 40.0316444 ], [ 4.1223517, 40.0302792 ], [ 4.1242277, 40.030051 ], [ 4.1250617, 40.0293588 ], [ 4.1245691, 40.028132 ], [ 4.1260496, 40.0269635 ], [ 4.1266859, 40.0275221 ], [ 4.1261176, 40.0257468 ], [ 4.1284973, 40.0261627 ], [ 4.1289389, 40.0285973 ], [ 4.1299088, 40.0270923 ], [ 4.1305142, 40.028159 ], [ 4.1311419, 40.0277156 ], [ 4.1333502, 40.0293167 ], [ 4.1332208, 40.0302798 ], [ 4.130256, 40.0310388 ], [ 4.1312871, 40.033029 ], [ 4.1329683, 40.0334957 ], [ 4.134295, 40.0353198 ], [ 4.1370191, 40.035994 ], [ 4.133468, 40.0325418 ], [ 4.1374266, 40.034587 ], [ 4.1364964, 40.0325826 ], [ 4.1375884, 40.0320292 ], [ 4.1392976, 40.0323217 ], [ 4.1408676, 40.0360191 ], [ 4.1403241, 40.0362877 ], [ 4.1406476, 40.0400448 ], [ 4.1394814, 40.0413276 ], [ 4.1401441, 40.0426828 ], [ 4.1412392, 40.043002 ], [ 4.1405537, 40.0439252 ], [ 4.1415144, 40.0450379 ], [ 4.1414779, 40.0461305 ], [ 4.1404737, 40.0467178 ], [ 4.1407372, 40.048359 ], [ 4.1425927, 40.0488278 ], [ 4.1404045, 40.0508332 ], [ 4.1399808, 40.0532537 ], [ 4.1387982, 40.0540537 ], [ 4.1391729, 40.0546567 ], [ 4.1408803, 40.054067 ], [ 4.1408592, 40.0548215 ], [ 4.1429312, 40.0554728 ], [ 4.1405556, 40.055653 ], [ 4.1408755, 40.0570695 ], [ 4.1388584, 40.0580136 ], [ 4.1396545, 40.0591809 ], [ 4.1383965, 40.0589963 ], [ 4.137916, 40.059868 ], [ 4.1389995, 40.0604281 ], [ 4.1373732, 40.0607025 ], [ 4.1385744, 40.0613331 ], [ 4.1370505, 40.062668 ], [ 4.1380739, 40.0634013 ], [ 4.1364576, 40.0634254 ], [ 4.1381613, 40.064281 ], [ 4.1370186, 40.0648971 ], [ 4.137594, 40.0654018 ], [ 4.1366343, 40.0670258 ], [ 4.1391225, 40.0672283 ], [ 4.1414428, 40.0696193 ], [ 4.1421955, 40.0669654 ], [ 4.1430581, 40.0673452 ], [ 4.1434092, 40.0666468 ], [ 4.1462666, 40.0660275 ], [ 4.1516264, 40.0678397 ], [ 4.1549927, 40.0679641 ], [ 4.1603428, 40.0639638 ], [ 4.1599871, 40.0631863 ], [ 4.1608436, 40.0637808 ], [ 4.1611113, 40.0630705 ], [ 4.163227, 40.0634067 ], [ 4.1665483, 40.0622739 ], [ 4.166348, 40.0610755 ], [ 4.1727785, 40.0605573 ], [ 4.1700428, 40.0575172 ], [ 4.1669677, 40.0586261 ], [ 4.1662309, 40.0583311 ], [ 4.1666371, 40.0572592 ], [ 4.164409, 40.057806 ], [ 4.1652006, 40.0567804 ], [ 4.1638805, 40.0557338 ], [ 4.1657934, 40.0544088 ], [ 4.1640296, 40.0536712 ], [ 4.1651555, 40.0535462 ], [ 4.1638114, 40.0521235 ], [ 4.1664689, 40.0514746 ], [ 4.1654661, 40.0508179 ], [ 4.166728, 40.0506425 ], [ 4.1645216, 40.0499162 ], [ 4.1627309, 40.0475203 ], [ 4.1663751, 40.0457853 ], [ 4.1658188, 40.0445319 ], [ 4.1663825, 40.044312 ], [ 4.1639751, 40.0434879 ], [ 4.1628623, 40.0443593 ], [ 4.1626029, 40.0434828 ], [ 4.1609667, 40.0431692 ], [ 4.1584204, 40.0447965 ], [ 4.1604771, 40.0427634 ], [ 4.1596053, 40.0428413 ], [ 4.1596721, 40.0414122 ], [ 4.1619757, 40.0414512 ], [ 4.1628025, 40.0398581 ], [ 4.1621733, 40.0395769 ], [ 4.1616642, 40.0365087 ], [ 4.1606169, 40.0368316 ], [ 4.160155, 40.0355815 ], [ 4.1606714, 40.0336519 ], [ 4.1641281, 40.0336144 ], [ 4.1642064, 40.0366074 ], [ 4.1647256, 40.0366297 ], [ 4.1655867, 40.0354313 ], [ 4.1677271, 40.036172 ], [ 4.1686998, 40.0349401 ], [ 4.1676436, 40.0352108 ], [ 4.1677981, 40.0340041 ], [ 4.1698079, 40.0338456 ], [ 4.1704743, 40.0345158 ], [ 4.1699885, 40.0360621 ], [ 4.171071, 40.0363633 ], [ 4.1740043, 40.0332261 ], [ 4.1714058, 40.0334265 ], [ 4.1707638, 40.031678 ], [ 4.169253, 40.0311205 ], [ 4.1681009, 40.0294422 ], [ 4.1696843, 40.0287122 ], [ 4.1684524, 40.0280075 ], [ 4.1689491, 40.0268171 ], [ 4.1698958, 40.0270054 ], [ 4.170389, 40.0258775 ], [ 4.1728156, 40.0244981 ], [ 4.1754225, 40.0239974 ], [ 4.1779767, 40.0240577 ], [ 4.1769823, 40.0252899 ], [ 4.1798886, 40.0256809 ], [ 4.1815664, 40.0238448 ], [ 4.1802839, 40.0226712 ], [ 4.1821477, 40.021871 ], [ 4.1845131, 40.0224312 ], [ 4.18543, 40.023504 ], [ 4.1827351, 40.0253727 ], [ 4.1838804, 40.0256113 ], [ 4.1857224, 40.0291997 ], [ 4.1880701, 40.0305459 ], [ 4.1864952, 40.0323255 ], [ 4.187309, 40.0332826 ], [ 4.1913908, 40.0349675 ], [ 4.1902839, 40.0340472 ], [ 4.1915961, 40.0336169 ], [ 4.191546, 40.0330095 ], [ 4.1932263, 40.0337925 ], [ 4.1935879, 40.0329644 ], [ 4.1928615, 40.0325811 ], [ 4.1952616, 40.0322999 ], [ 4.1956049, 40.0295869 ], [ 4.1939713, 40.0285567 ], [ 4.1946612, 40.0276862 ], [ 4.193175, 40.0236949 ], [ 4.1980872, 40.0249863 ], [ 4.1985988, 40.0240866 ], [ 4.1974818, 40.0212918 ], [ 4.20016, 40.021272 ], [ 4.201281, 40.020463 ], [ 4.2020431, 40.0228335 ], [ 4.2027625, 40.0219173 ], [ 4.2019496, 40.0210753 ], [ 4.2027548, 40.0199687 ], [ 4.2019378, 40.0192579 ], [ 4.2030099, 40.0186545 ], [ 4.2020007, 40.018456 ], [ 4.2010661, 40.0168651 ], [ 4.2013317, 40.0158189 ], [ 4.2004496, 40.0159268 ], [ 4.1991068, 40.0139932 ], [ 4.1993031, 40.0130729 ], [ 4.1969037, 40.0119133 ], [ 4.1958135, 40.010297 ], [ 4.1936567, 40.0097073 ], [ 4.1957725, 40.0099626 ], [ 4.1972906, 40.0113012 ], [ 4.1991085, 40.0110158 ], [ 4.200019, 40.0115472 ], [ 4.2005859, 40.0136162 ], [ 4.2021965, 40.0137612 ], [ 4.2012697, 40.0127017 ], [ 4.2008504, 40.0096233 ], [ 4.1976188, 40.0069201 ], [ 4.1982654, 40.0041576 ], [ 4.2006331, 40.0022159 ], [ 4.2014279, 40.0002393 ], [ 4.2014755, 39.9956577 ], [ 4.2035662, 39.9956721 ], [ 4.2035363, 39.9976958 ], [ 4.2053899, 39.9931319 ], [ 4.207121, 39.9938444 ], [ 4.2073143, 39.9952244 ], [ 4.2018102, 40.0020929 ], [ 4.20045, 40.005782 ], [ 4.2013438, 40.0074419 ], [ 4.2009874, 40.008622 ], [ 4.2034694, 40.0080779 ], [ 4.2033215, 40.0094587 ], [ 4.204331, 40.0089418 ], [ 4.2059018, 40.0054821 ], [ 4.2085741, 40.0071938 ], [ 4.2087363, 40.0077719 ], [ 4.2069541, 40.0087188 ], [ 4.2062775, 40.0083654 ], [ 4.2054557, 40.0095555 ], [ 4.2071031, 40.0107927 ], [ 4.2067729, 40.0127024 ], [ 4.2073498, 40.0130851 ], [ 4.2091991, 40.0121233 ], [ 4.2108636, 40.0097173 ], [ 4.2107804, 40.0075031 ], [ 4.2128378, 40.0066135 ], [ 4.2094043, 40.0054215 ], [ 4.2099436, 40.0048904 ], [ 4.209204, 40.0030344 ], [ 4.2123628, 40.0019248 ], [ 4.2175389, 40.0034614 ], [ 4.2199244, 40.0021185 ], [ 4.2195324, 40.001049 ], [ 4.2172689, 40.0007327 ], [ 4.2167347, 39.9998428 ], [ 4.2200853, 39.9993077 ], [ 4.2189718, 39.9981005 ], [ 4.2205801, 39.996577 ], [ 4.2217618, 39.9963939 ], [ 4.2227748, 39.9979972 ], [ 4.2243075, 39.9980316 ], [ 4.2275706, 39.9974153 ], [ 4.2271842, 39.9965681 ], [ 4.2283392, 39.9967955 ], [ 4.2294989, 39.9954664 ], [ 4.2304257, 39.9965858 ], [ 4.2301412, 39.9982012 ], [ 4.231527, 39.9988732 ], [ 4.2362751, 39.9986054 ], [ 4.2387945, 40.0005771 ], [ 4.241423, 39.9989492 ], [ 4.24288, 39.9997451 ], [ 4.2447341, 39.9995165 ], [ 4.2470072, 40.001285 ], [ 4.2501791, 40.0014844 ], [ 4.2517751, 40.0006708 ], [ 4.2512976, 39.9983474 ], [ 4.2545069, 39.9985262 ], [ 4.2549226, 39.9977793 ], [ 4.2554778, 39.9993923 ], [ 4.2564944, 39.9995474 ], [ 4.2572454, 39.9993132 ], [ 4.2563345, 39.9987851 ], [ 4.2567571, 39.9976152 ], [ 4.2586818, 39.9972278 ], [ 4.2597346, 39.9979337 ], [ 4.258893, 39.9988742 ], [ 4.26438, 39.9989424 ], [ 4.2672368, 39.9983184 ], [ 4.2668161, 39.9979052 ], [ 4.2678876, 39.9969824 ], [ 4.2695417, 39.9967356 ], [ 4.2639524, 39.9964668 ], [ 4.2632369, 39.9958057 ], [ 4.2611598, 39.9963715 ], [ 4.2572499, 39.9951642 ], [ 4.2549229, 39.9928407 ], [ 4.2549799, 39.9916199 ], [ 4.2560868, 39.9916309 ], [ 4.2550356, 39.9906778 ], [ 4.2554497, 39.9882943 ], [ 4.257529, 39.9870578 ], [ 4.2594826, 39.9874469 ], [ 4.2602595, 39.9856314 ], [ 4.259856, 39.9842301 ], [ 4.2581262, 39.9834865 ], [ 4.2583882, 39.9825741 ], [ 4.2596165, 39.982772 ], [ 4.2593578, 39.9815183 ], [ 4.2653236, 39.9824017 ], [ 4.2661725, 39.9819029 ], [ 4.2631732, 39.9795864 ], [ 4.2590894, 39.9788884 ], [ 4.2601403, 39.9776962 ], [ 4.2591934, 39.975822 ], [ 4.2603401, 39.9748994 ], [ 4.2590792, 39.9729011 ], [ 4.2575184, 39.9720369 ], [ 4.25821, 39.9716934 ], [ 4.257986, 39.9705061 ], [ 4.2562037, 39.9695322 ], [ 4.2561851, 39.9676535 ], [ 4.2552603, 39.9670009 ], [ 4.2559711, 39.9654302 ], [ 4.2547609, 39.9648201 ], [ 4.2546652, 39.9638181 ], [ 4.2590139, 39.9632132 ], [ 4.2591204, 39.9644065 ], [ 4.2617576, 39.9651584 ], [ 4.2627508, 39.9628562 ], [ 4.2656399, 39.9630889 ], [ 4.2663645, 39.9615962 ], [ 4.2639129, 39.962126 ], [ 4.2628922, 39.9614089 ], [ 4.2630351, 39.9607264 ], [ 4.2647835, 39.9609562 ], [ 4.2627342, 39.9591984 ], [ 4.2634592, 39.958 ], [ 4.2649374, 39.9584902 ], [ 4.2651401, 39.9578696 ], [ 4.2678718, 39.9601583 ], [ 4.2687692, 39.9600739 ], [ 4.2684979, 39.9593195 ], [ 4.2699976, 39.9595825 ], [ 4.2693548, 39.9560082 ], [ 4.2705303, 39.954355 ], [ 4.2715291, 39.9546457 ], [ 4.2723206, 39.9541364 ], [ 4.2692238, 39.9532797 ], [ 4.2676076, 39.9538515 ], [ 4.264533, 39.9526479 ], [ 4.2649895, 39.9514686 ], [ 4.2641578, 39.9512811 ], [ 4.2650849, 39.9502944 ], [ 4.2673151, 39.9496882 ], [ 4.2704023, 39.9512424 ], [ 4.2725229, 39.9509782 ], [ 4.273322, 39.9502156 ], [ 4.2728882, 39.9497043 ], [ 4.274002, 39.9499727 ], [ 4.2741005, 39.9494316 ], [ 4.2744537, 39.9492442 ], [ 4.274407, 39.9504449 ], [ 4.2759968, 39.9514806 ], [ 4.2782988, 39.9509656 ], [ 4.2794527, 39.9497205 ], [ 4.2806863, 39.9498436 ], [ 4.2797902, 39.9487502 ], [ 4.2781223, 39.9486584 ], [ 4.27782, 39.9476635 ], [ 4.2796371, 39.9465127 ], [ 4.2784469, 39.9455197 ], [ 4.2834015, 39.9445714 ], [ 4.2813596, 39.9438663 ], [ 4.2810758, 39.9426002 ], [ 4.2752663, 39.9390588 ], [ 4.2736596, 39.9360501 ], [ 4.2752839, 39.9349437 ], [ 4.2743949, 39.9334041 ], [ 4.276878, 39.9307436 ], [ 4.2807736, 39.9294671 ], [ 4.2802222, 39.9289993 ], [ 4.2820897, 39.9274224 ], [ 4.2823907, 39.9249389 ], [ 4.2854873, 39.9249126 ], [ 4.2842499, 39.9241146 ], [ 4.2850108, 39.9222578 ], [ 4.2861804, 39.9216123 ], [ 4.2854214, 39.9178521 ], [ 4.2888714, 39.9181867 ], [ 4.2900193, 39.9170282 ], [ 4.2893014, 39.916158 ], [ 4.2868077, 39.9160602 ], [ 4.2863539, 39.9141181 ], [ 4.2876898, 39.9137729 ], [ 4.2862291, 39.9134045 ], [ 4.2854858, 39.9121167 ], [ 4.2869995, 39.9126008 ], [ 4.2873196, 39.9115252 ], [ 4.2926177, 39.9103474 ], [ 4.292446, 39.9098639 ], [ 4.292514, 39.9093743 ], [ 4.2939762, 39.9087719 ], [ 4.2932413, 39.9072493 ], [ 4.2947304, 39.9063795 ], [ 4.2942284, 39.9052609 ], [ 4.2958104, 39.9052198 ], [ 4.2935629, 39.9044843 ], [ 4.2932824, 39.9031413 ], [ 4.2989551, 39.8995754 ], [ 4.2983702, 39.8975051 ], [ 4.29958, 39.8970202 ], [ 4.3033557, 39.8977552 ], [ 4.3033595, 39.8971259 ], [ 4.304673, 39.8978104 ], [ 4.3056755, 39.8971293 ], [ 4.3076377, 39.89916 ], [ 4.3084708, 39.8990278 ], [ 4.3081877, 39.8977858 ], [ 4.3066977, 39.8968886 ], [ 4.3075692, 39.8967621 ], [ 4.3076355, 39.8959554 ], [ 4.3064519, 39.8943866 ], [ 4.3064073, 39.8926951 ], [ 4.307227, 39.8920222 ], [ 4.3068981, 39.8914934 ], [ 4.3095455, 39.8904932 ], [ 4.309103, 39.8892775 ], [ 4.3096655, 39.8881877 ], [ 4.3110864, 39.8882491 ], [ 4.3100152, 39.8871069 ], [ 4.3106164, 39.8872734 ], [ 4.3102995, 39.8870272 ], [ 4.3103054, 39.8862106 ], [ 4.3118948, 39.8854855 ], [ 4.3101023, 39.8833769 ], [ 4.3107003, 39.8832977 ], [ 4.3099383, 39.8821259 ], [ 4.3109964, 39.8819637 ], [ 4.3100856, 39.8812607 ], [ 4.3094063, 39.8798061 ], [ 4.3144904, 39.8808872 ], [ 4.3134978, 39.8799712 ], [ 4.3143295, 39.8789418 ], [ 4.3203062, 39.8796707 ], [ 4.328026, 39.8770765 ], [ 4.3274805, 39.8759364 ], [ 4.3187475, 39.873235 ], [ 4.3160775, 39.8712222 ], [ 4.3145833, 39.8713159 ], [ 4.3136988, 39.8725967 ], [ 4.3114206, 39.8721284 ], [ 4.3114254, 39.8701132 ], [ 4.3104772, 39.8699328 ], [ 4.3083564, 39.8721224 ], [ 4.3081452, 39.87305 ], [ 4.3089389, 39.8736945 ], [ 4.3077804, 39.874059 ], [ 4.3070795, 39.8757991 ], [ 4.3104842, 39.8779221 ], [ 4.3086923, 39.8800636 ], [ 4.3053891, 39.8807716 ], [ 4.3033236, 39.8817153 ], [ 4.3023091, 39.8832827 ], [ 4.2998242, 39.8837775 ], [ 4.3005085, 39.884638 ], [ 4.3000318, 39.885138 ], [ 4.298949, 39.8842347 ], [ 4.2966777, 39.8852285 ], [ 4.2968416, 39.8875491 ], [ 4.2951561, 39.8878935 ], [ 4.2968505, 39.8892703 ], [ 4.2955289, 39.890142 ], [ 4.2960579, 39.891876 ], [ 4.2933999, 39.8885515 ], [ 4.2904751, 39.8884046 ], [ 4.2878659, 39.8904762 ], [ 4.2860785, 39.890332 ], [ 4.285917, 39.8917112 ], [ 4.2840828, 39.8908101 ], [ 4.2834675, 39.8917745 ], [ 4.2812812, 39.8918711 ], [ 4.2793678, 39.8938306 ], [ 4.2782153, 39.8937938 ], [ 4.2781245, 39.8952377 ], [ 4.2768233, 39.894748 ], [ 4.2777813, 39.8926279 ], [ 4.2705678, 39.8939797 ], [ 4.2699591, 39.8935713 ], [ 4.27087, 39.8920893 ], [ 4.2702572, 39.8917986 ], [ 4.2692865, 39.8924241 ], [ 4.2697824, 39.8935923 ], [ 4.2689246, 39.8938395 ], [ 4.2682765, 39.8929557 ], [ 4.2682444, 39.8939669 ], [ 4.2676563, 39.8930212 ], [ 4.2678295, 39.8940194 ], [ 4.2673514, 39.8930675 ], [ 4.2671529, 39.8937867 ], [ 4.2590389, 39.8946076 ], [ 4.2566229, 39.8972252 ], [ 4.2563821, 39.8951687 ], [ 4.262507, 39.8912304 ], [ 4.2692812, 39.8896962 ], [ 4.2736562, 39.8909638 ], [ 4.2764247, 39.8907431 ], [ 4.2768526, 39.8901431 ], [ 4.2750171, 39.8873181 ], [ 4.2756175, 39.886775 ], [ 4.2747164, 39.8857776 ], [ 4.2748331, 39.8844603 ], [ 4.2784032, 39.8867212 ], [ 4.2799137, 39.8852363 ], [ 4.2814008, 39.8853398 ], [ 4.2842825, 39.88361 ], [ 4.287591, 39.8831071 ], [ 4.2890565, 39.8836963 ], [ 4.2904327, 39.8823463 ], [ 4.2897123, 39.8810326 ], [ 4.2918733, 39.8817418 ], [ 4.2938606, 39.8813828 ], [ 4.2958856, 39.8792467 ], [ 4.2935785, 39.8790717 ], [ 4.2931335, 39.8783273 ], [ 4.2969835, 39.8770419 ], [ 4.2953389, 39.8748856 ], [ 4.2978805, 39.8755843 ], [ 4.3006663, 39.8740662 ], [ 4.3016889, 39.8720554 ], [ 4.3033282, 39.8712108 ], [ 4.3032083, 39.8694967 ], [ 4.3055293, 39.868235 ], [ 4.3061122, 39.8663479 ], [ 4.3073832, 39.8655386 ], [ 4.3074795, 39.8645802 ], [ 4.3060261, 39.8641615 ], [ 4.3027659, 39.864784 ], [ 4.299829, 39.863411 ], [ 4.298638, 39.8638838 ], [ 4.2995134, 39.8629941 ], [ 4.3026341, 39.8641465 ], [ 4.3058401, 39.8631868 ], [ 4.3049859, 39.8615497 ], [ 4.3058117, 39.860728 ], [ 4.3050349, 39.8597237 ], [ 4.305444, 39.8584654 ], [ 4.3072031, 39.8572501 ], [ 4.3072509, 39.8559555 ], [ 4.3058323, 39.8548586 ], [ 4.3068688, 39.8541163 ], [ 4.3054296, 39.8532783 ], [ 4.3079788, 39.8518611 ], [ 4.3075009, 39.8508594 ], [ 4.3079759, 39.8497738 ], [ 4.3087858, 39.8498379 ], [ 4.3082008, 39.8488301 ], [ 4.3087573, 39.8489189 ], [ 4.3084415, 39.848512 ], [ 4.3057737, 39.8489407 ], [ 4.303518, 39.8472839 ], [ 4.3037229, 39.8455891 ], [ 4.3027462, 39.8450659 ], [ 4.3030643, 39.8434253 ], [ 4.3023751, 39.8425375 ], [ 4.300396, 39.8411826 ], [ 4.298146, 39.8409517 ], [ 4.2992615, 39.8409348 ], [ 4.3014863, 39.8382695 ], [ 4.3025298, 39.8353828 ], [ 4.3032895, 39.8351376 ], [ 4.3038389, 39.8318396 ], [ 4.2998352, 39.8331368 ], [ 4.2978423, 39.8304225 ], [ 4.2981672, 39.8293126 ], [ 4.2965845, 39.8287734 ], [ 4.2962895, 39.8278983 ], [ 4.2928543, 39.8289708 ], [ 4.2948702, 39.827423 ], [ 4.2951213, 39.826327 ], [ 4.2941357, 39.8255427 ], [ 4.2967469, 39.8253797 ], [ 4.2960859, 39.8247469 ], [ 4.296238, 39.8231765 ], [ 4.2910977, 39.8183395 ], [ 4.2883964, 39.8168946 ], [ 4.2875518, 39.8150198 ], [ 4.2807456, 39.8137109 ], [ 4.2807844, 39.8114096 ], [ 4.2760805, 39.8095425 ], [ 4.2670856, 39.8092561 ], [ 4.2661759, 39.8101454 ], [ 4.2650927, 39.809677 ], [ 4.2618414, 39.8105913 ], [ 4.2639746, 39.8123587 ], [ 4.2604877, 39.8115157 ], [ 4.2595458, 39.8127772 ], [ 4.259163, 39.812142 ], [ 4.2567745, 39.8123977 ], [ 4.2566003, 39.8130451 ], [ 4.2560245, 39.8121889 ], [ 4.254377, 39.8123348 ], [ 4.252854, 39.8128958 ], [ 4.2528889, 39.813889 ], [ 4.251588, 39.8131783 ], [ 4.2498355, 39.8145572 ], [ 4.2483161, 39.8141714 ], [ 4.2476686, 39.8153315 ], [ 4.2460288, 39.8155957 ], [ 4.2458888, 39.8167447 ], [ 4.2446347, 39.8152555 ], [ 4.2434299, 39.8165589 ], [ 4.2422458, 39.8157087 ], [ 4.2397375, 39.8162015 ], [ 4.2393881, 39.8151402 ], [ 4.2411776, 39.8136669 ], [ 4.2402034, 39.8131844 ], [ 4.2388587, 39.8137293 ], [ 4.2390134, 39.814879 ], [ 4.2373767, 39.8140824 ], [ 4.2369088, 39.8150438 ], [ 4.2375532, 39.8154881 ], [ 4.2361421, 39.8174586 ], [ 4.2330436, 39.818309 ], [ 4.2332049, 39.8194748 ], [ 4.2316717, 39.8189738 ], [ 4.2310882, 39.8208914 ], [ 4.2301349, 39.8211794 ], [ 4.2304656, 39.8217989 ], [ 4.2289775, 39.8215662 ], [ 4.2293289, 39.8230458 ], [ 4.2273698, 39.8217892 ], [ 4.2276516, 39.8212025 ], [ 4.2242103, 39.821258 ], [ 4.2257604, 39.823216 ], [ 4.2225285, 39.8257786 ], [ 4.2209075, 39.8257049 ], [ 4.2190084, 39.8290854 ], [ 4.2183932, 39.8289346 ], [ 4.2184254, 39.8265852 ], [ 4.2166953, 39.8282115 ], [ 4.2158036, 39.8274869 ], [ 4.2110055, 39.8293133 ], [ 4.2106106, 39.8282988 ], [ 4.209429, 39.8285301 ], [ 4.2098507, 39.8253696 ], [ 4.2081772, 39.8248219 ], [ 4.2053274, 39.8268439 ], [ 4.2068086, 39.8290993 ], [ 4.2027511, 39.8304695 ], [ 4.2043845, 39.8323879 ], [ 4.2031, 39.8335336 ], [ 4.2036574, 39.8322342 ], [ 4.2015658, 39.8309144 ], [ 4.1980584, 39.8342502 ], [ 4.1976786, 39.8332239 ], [ 4.1985509, 39.832139 ], [ 4.1974582, 39.8320707 ], [ 4.1928285, 39.834122 ], [ 4.1893141, 39.8368175 ], [ 4.1839597, 39.8382206 ], [ 4.184105, 39.8389448 ], [ 4.1829063, 39.8384939 ], [ 4.1812051, 39.8401375 ], [ 4.1816071, 39.8413712 ], [ 4.180717, 39.8406655 ], [ 4.1786744, 39.8432108 ], [ 4.1764941, 39.8428959 ], [ 4.1755849, 39.8438368 ], [ 4.1748349, 39.8430086 ], [ 4.1740666, 39.843703 ], [ 4.1744191, 39.8447285 ], [ 4.1716518, 39.8453597 ], [ 4.17193, 39.8467075 ], [ 4.1712561, 39.8473568 ], [ 4.1718112, 39.8479147 ], [ 4.17023, 39.8480843 ], [ 4.1682306, 39.8497269 ], [ 4.1685262, 39.8524503 ], [ 4.1672623, 39.8516259 ], [ 4.1673981, 39.8492386 ], [ 4.1655504, 39.8491078 ], [ 4.1632695, 39.8510919 ], [ 4.1602428, 39.8519382 ], [ 4.160536, 39.8531692 ], [ 4.1589403, 39.8529178 ], [ 4.1588026, 39.8541123 ], [ 4.1538506, 39.8561451 ], [ 4.1499104, 39.8594199 ], [ 4.1479095, 39.8595777 ], [ 4.1470096, 39.8608415 ], [ 4.1450033, 39.8605363 ], [ 4.1452977, 39.8629421 ], [ 4.1466737, 39.8635834 ], [ 4.1469459, 39.8648089 ], [ 4.1460505, 39.8638485 ], [ 4.1441698, 39.8648858 ], [ 4.1451553, 39.8638512 ], [ 4.1440323, 39.8623479 ], [ 4.1425632, 39.8620197 ], [ 4.1385073, 39.8634294 ], [ 4.1385316, 39.8641917 ], [ 4.1364373, 39.8641854 ], [ 4.1351241, 39.8654208 ], [ 4.1342188, 39.8646179 ], [ 4.1325337, 39.8655902 ], [ 4.1322352, 39.8677755 ], [ 4.1332425, 39.8692417 ], [ 4.1326746, 39.8708923 ], [ 4.1314057, 39.8706268 ], [ 4.130935, 39.8679667 ], [ 4.1282362, 39.8672562 ], [ 4.1242342, 39.8677592 ], [ 4.1207395, 39.8703693 ], [ 4.1180482, 39.870072 ], [ 4.1053603, 39.8763251 ], [ 4.1014046, 39.8771464 ], [ 4.0985405, 39.8791238 ], [ 4.0977887, 39.8786698 ], [ 4.0952926, 39.8822176 ], [ 4.0935272, 39.8824461 ], [ 4.0937796, 39.8830459 ], [ 4.0930337, 39.8815919 ], [ 4.092207, 39.8818319 ], [ 4.0909989, 39.88259 ], [ 4.091074, 39.8834443 ], [ 4.0865663, 39.885257 ], [ 4.0842403, 39.8880078 ], [ 4.0842489, 39.8892468 ], [ 4.0823566, 39.8900722 ], [ 4.0821401, 39.8911179 ], [ 4.0805179, 39.8902507 ], [ 4.0792444, 39.891281 ], [ 4.0785775, 39.8958499 ], [ 4.0671269, 39.9011927 ], [ 4.0672154, 39.9017511 ], [ 4.0639891, 39.9034943 ], [ 4.0559222, 39.9071034 ], [ 4.0541478, 39.9074862 ], [ 4.052465, 39.9066285 ], [ 4.0528279, 39.907426 ], [ 4.0503225, 39.9079998 ], [ 4.0505285, 39.9089048 ], [ 4.047857, 39.9096723 ], [ 4.0476192, 39.910378 ], [ 4.0445309, 39.9102161 ], [ 4.043382, 39.9128288 ], [ 4.030866, 39.9173677 ], [ 4.0257121, 39.9203423 ], [ 4.0185211, 39.9222452 ], [ 4.012526, 39.9201107 ], [ 4.0054971, 39.9224694 ], [ 4.0041469, 39.925423 ], [ 4.0019381, 39.9243367 ], [ 4.0004271, 39.9259009 ], [ 4.0002356, 39.9246629 ], [ 3.99872, 39.9244216 ], [ 3.994183, 39.9257988 ], [ 3.9899561, 39.9274213 ], [ 3.9905077, 39.9292839 ], [ 3.990015, 39.9309686 ], [ 3.9882435, 39.9310291 ], [ 3.9870595, 39.9294991 ], [ 3.9827688, 39.9287549 ], [ 3.9773123, 39.9303054 ], [ 3.9773699, 39.9312814 ], [ 3.9760295, 39.9308434 ], [ 3.9761761, 39.9317263 ], [ 3.9730994, 39.9319439 ], [ 3.9736935, 39.9333212 ], [ 3.9723832, 39.9341995 ], [ 3.9703994, 39.9337586 ], [ 3.9704936, 39.932087 ], [ 3.9680752, 39.9316348 ], [ 3.9658278, 39.9328681 ], [ 3.9648223, 39.9322884 ], [ 3.9610641, 39.9325217 ], [ 3.9602256, 39.9340312 ], [ 3.9576079, 39.9348652 ], [ 3.9608449, 39.9356204 ], [ 3.9606852, 39.9373329 ], [ 3.9591002, 39.9384442 ], [ 3.9581446, 39.9382634 ], [ 3.9581564, 39.9373384 ], [ 3.9574255, 39.9384288 ], [ 3.9562794, 39.9371886 ], [ 3.9536793, 39.9368131 ], [ 3.9531802, 39.9352294 ], [ 3.9502626, 39.9356336 ], [ 3.9479678, 39.9334234 ], [ 3.9461424, 39.933378 ], [ 3.9395403, 39.9358929 ], [ 3.9401772, 39.9363233 ], [ 3.9391365, 39.9363233 ], [ 3.9368187, 39.9383069 ], [ 3.9363026, 39.9365203 ], [ 3.9350361, 39.9361093 ], [ 3.9363905, 39.9356922 ], [ 3.9368727, 39.9346366 ], [ 3.9331538, 39.9333443 ], [ 3.9312588, 39.9317279 ], [ 3.9215464, 39.931977 ], [ 3.9189944, 39.9299258 ], [ 3.9163808, 39.9291551 ], [ 3.9160558, 39.9299088 ], [ 3.9167904, 39.9304702 ], [ 3.9152619, 39.9312145 ], [ 3.9156002, 39.9320601 ], [ 3.9144947, 39.9321999 ], [ 3.9141611, 39.9289437 ], [ 3.9130964, 39.9281808 ], [ 3.9136387, 39.9272663 ], [ 3.9112749, 39.9250933 ], [ 3.9058595, 39.9239997 ], [ 3.9044552, 39.9247551 ], [ 3.904878, 39.9252529 ], [ 3.903268, 39.9250848 ], [ 3.9026885, 39.9268829 ], [ 3.902217, 39.9258988 ], [ 3.9014008, 39.9260484 ], [ 3.9000955, 39.922448 ], [ 3.8961669, 39.9224714 ], [ 3.8968928, 39.923023 ], [ 3.8959948, 39.9245381 ], [ 3.8975582, 39.9256668 ], [ 3.895398, 39.9276607 ], [ 3.8942774, 39.9269632 ], [ 3.8932113, 39.927615 ], [ 3.8911617, 39.9272163 ], [ 3.8912383, 39.9262695 ], [ 3.8899818, 39.9259718 ], [ 3.891061, 39.9245787 ], [ 3.8870308, 39.9229379 ], [ 3.8860606, 39.9233245 ], [ 3.8866996, 39.9239914 ], [ 3.8844909, 39.9237899 ], [ 3.8854451, 39.9229738 ], [ 3.8836236, 39.9228776 ], [ 3.8848969, 39.9222537 ], [ 3.8840014, 39.9218951 ], [ 3.8827701, 39.9225341 ], [ 3.8827863, 39.9233086 ], [ 3.8813103, 39.9229898 ], [ 3.8809889, 39.9219541 ], [ 3.8801249, 39.9232208 ], [ 3.8791851, 39.9224603 ], [ 3.875657, 39.9220733 ], [ 3.8711628, 39.922892 ], [ 3.8702253, 39.9220202 ], [ 3.8686557, 39.9236186 ], [ 3.8670198, 39.9215455 ], [ 3.8652198, 39.9223037 ], [ 3.8636824, 39.9214062 ], [ 3.8635118, 39.9225452 ], [ 3.8578593, 39.9215243 ], [ 3.8578864, 39.9224147 ], [ 3.8563087, 39.9232254 ], [ 3.8541772, 39.9213116 ], [ 3.8526663, 39.9231088 ], [ 3.8479895, 39.9229227 ], [ 3.8464918, 39.9245668 ], [ 3.84474, 39.9241124 ], [ 3.8447291, 39.9254485 ], [ 3.8427323, 39.9258093 ], [ 3.8404222, 39.9249122 ], [ 3.841026, 39.923584 ], [ 3.8392918, 39.922358 ], [ 3.8387477, 39.9242989 ], [ 3.8371329, 39.9244782 ], [ 3.8379466, 39.9260014 ], [ 3.8370176, 39.9262448 ], [ 3.8359428, 39.92503 ], [ 3.8343403, 39.9253321 ], [ 3.8341831, 39.9275983 ], [ 3.8364409, 39.9279864 ], [ 3.8340481, 39.9291451 ], [ 3.8340537, 39.9254403 ], [ 3.8300407, 39.924942 ], [ 3.829695, 39.9231003 ], [ 3.8284984, 39.9236616 ], [ 3.8274941, 39.9229724 ], [ 3.8263644, 39.923682 ], [ 3.8248888, 39.9233063 ], [ 3.8240475, 39.9218553 ], [ 3.8209563, 39.9254602 ], [ 3.8200038, 39.9281665 ], [ 3.8217198, 39.9315001 ], [ 3.82305, 39.9323169 ], [ 3.8220608, 39.9338334 ], [ 3.8224029, 39.9380148 ], [ 3.8259238, 39.9404308 ], [ 3.8231813, 39.9425966 ], [ 3.8232332, 39.9434368 ], [ 3.8244509, 39.9434088 ], [ 3.8241788, 39.9442156 ], [ 3.8265672, 39.9464613 ], [ 3.82488, 39.9520348 ], [ 3.8279953, 39.9558414 ], [ 3.8297409, 39.9553497 ], [ 3.8303034, 39.9570297 ], [ 3.8296862, 39.9574606 ], [ 3.8323209, 39.9585665 ], [ 3.8321241, 39.9594438 ], [ 3.8329635, 39.960158 ], [ 3.8343373, 39.9604288 ], [ 3.8341215, 39.9629475 ], [ 3.8322932, 39.9638603 ], [ 3.8330057, 39.9650728 ], [ 3.8322197, 39.9656639 ], [ 3.8356804, 39.9674385 ], [ 3.832082, 39.9669898 ], [ 3.8294768, 39.9699422 ], [ 3.8306297, 39.9716061 ], [ 3.8299729, 39.9726096 ], [ 3.8307505, 39.9729452 ], [ 3.8314108, 39.9761601 ], [ 3.8336084, 39.9769388 ], [ 3.8327588, 39.9776797 ], [ 3.8331147, 39.979219 ], [ 3.838773, 39.9777443 ], [ 3.8394185, 39.9784562 ], [ 3.8342669, 39.9799011 ], [ 3.833476, 39.9803839 ], [ 3.8340232, 39.9814544 ], [ 3.8328515, 39.9808202 ], [ 3.8322198, 39.9814445 ], [ 3.8322947, 39.9801377 ], [ 3.8312211, 39.9794947 ], [ 3.8307447, 39.9799588 ], [ 3.8315064, 39.9800628 ], [ 3.8304443, 39.9804706 ], [ 3.8316724, 39.9811969 ], [ 3.8305195, 39.9820258 ], [ 3.8294441, 39.9875908 ], [ 3.8272511, 39.9877562 ], [ 3.8259449, 39.9890514 ], [ 3.8268817, 39.9882282 ], [ 3.8287344, 39.9884377 ], [ 3.8290505, 39.9910685 ], [ 3.827354, 39.9927454 ], [ 3.8334917, 39.993061 ], [ 3.8354133, 39.994302 ], [ 3.8335694, 39.9935367 ], [ 3.8299206, 39.9937527 ], [ 3.8254466, 39.9954726 ], [ 3.8252367, 39.9962306 ], [ 3.8280674, 39.9984256 ], [ 3.8351944, 40.0010501 ], [ 3.8359781, 40.0024845 ], [ 3.8347904, 40.0012671 ], [ 3.8296499, 39.9994621 ], [ 3.828381, 39.9993421 ], [ 3.8285707, 40.0003804 ], [ 3.8270046, 39.9998609 ], [ 3.8279776, 39.9989876 ], [ 3.8256256, 39.9986089 ], [ 3.8245729, 39.996956 ], [ 3.8238645, 39.9979347 ], [ 3.8230829, 39.9972718 ], [ 3.8222787, 39.997942 ], [ 3.8232954, 39.9964302 ], [ 3.8217002, 39.9955416 ], [ 3.8177041, 39.9964679 ], [ 3.8153396, 39.9962026 ], [ 3.8149723, 39.9954691 ], [ 3.8130767, 39.9959213 ], [ 3.8124663, 39.9966604 ], [ 3.8131721, 40.0006425 ], [ 3.81217, 39.9994176 ], [ 3.8114341, 39.9955752 ], [ 3.8086721, 39.9982653 ], [ 3.8093913, 39.9995729 ], [ 3.8080493, 39.9991488 ], [ 3.8060088, 40.0014254 ], [ 3.8067129, 40.0000885 ], [ 3.8049128, 39.9980045 ], [ 3.8012079, 39.9978339 ], [ 3.801014, 39.9995066 ], [ 3.7998612, 39.9992515 ], [ 3.8006477, 39.9989177 ], [ 3.8005978, 39.9975518 ], [ 3.7990519, 39.9978101 ], [ 3.7946054, 40.0000121 ], [ 3.7980524, 40.0034319 ], [ 3.7965915, 40.0027541 ], [ 3.796054, 40.0048896 ], [ 3.7961191, 40.0033905 ], [ 3.7943316, 40.003912 ], [ 3.7960178, 40.0089834 ], [ 3.793301, 40.011415 ], [ 3.7943844, 40.0108001 ], [ 3.7956854, 40.0112492 ], [ 3.7941898, 40.0127932 ], [ 3.7951062, 40.0129039 ], [ 3.7911649, 40.0151674 ] ] ], [ [ [ 3.8257088, 39.988634 ], [ 3.8282914, 39.987102 ], [ 3.8257199, 39.9882093 ], [ 3.8250022, 39.9919539 ], [ 3.8257088, 39.988634 ] ] ], [ [ [ 4.2052689, 40.0139028 ], [ 4.2048294, 40.013622 ], [ 4.2045792, 40.0139597 ], [ 4.2052689, 40.0139028 ] ] ], [ [ [ 4.2037486, 40.0143136 ], [ 4.2045934, 40.0142132 ], [ 4.2041955, 40.0136868 ], [ 4.2037486, 40.0143136 ] ] ], [ [ [ 4.2090274, 40.0215358 ], [ 4.2107228, 40.0202249 ], [ 4.2093098, 40.0177898 ], [ 4.2083115, 40.0196592 ], [ 4.2090274, 40.0215358 ] ] ], [ [ [ 4.1371207, 40.0445359 ], [ 4.1376075, 40.0438496 ], [ 4.1376686, 40.043661 ], [ 4.1371207, 40.0445359 ] ] ], [ [ [ 4.1368048, 40.0479308 ], [ 4.1376267, 40.0463453 ], [ 4.1371636, 40.0451909 ], [ 4.1360475, 40.0464302 ], [ 4.1362415, 40.0476266 ], [ 4.1368048, 40.0479308 ] ] ], [ [ [ 3.9150716, 40.0511569 ], [ 3.9155745, 40.0506887 ], [ 3.9156054, 40.0505101 ], [ 3.9151119, 40.0505522 ], [ 3.9150716, 40.0511569 ] ] ], [ [ [ 4.0439543, 40.0553534 ], [ 4.0443219, 40.0561705 ], [ 4.0446317, 40.0554334 ], [ 4.0439543, 40.0553534 ] ] ], [ [ [ 4.1688817, 40.0573462 ], [ 4.1680075, 40.0568572 ], [ 4.1676371, 40.0573148 ], [ 4.1682045, 40.0576349 ], [ 4.1688817, 40.0573462 ] ] ], [ [ [ 4.0414771, 40.0576441 ], [ 4.0435964, 40.0578395 ], [ 4.0433403, 40.0585846 ], [ 4.0438472, 40.0579206 ], [ 4.0431574, 40.0574694 ], [ 4.0414771, 40.0576441 ] ] ], [ [ [ 4.041336, 40.0583153 ], [ 4.0418402, 40.058709 ], [ 4.0420497, 40.0583897 ], [ 4.041336, 40.0583153 ] ] ], [ [ [ 4.132062, 40.0637159 ], [ 4.1309799, 40.0640363 ], [ 4.1308047, 40.0643941 ], [ 4.1319136, 40.0645656 ], [ 4.132062, 40.0637159 ] ] ], [ [ [ 4.026794, 40.0653119 ], [ 4.0277722, 40.0651282 ], [ 4.028319, 40.0652655 ], [ 4.027323, 40.0643917 ], [ 4.026794, 40.0653119 ] ] ], [ [ [ 4.0336241, 40.0653919 ], [ 4.0349043, 40.0656754 ], [ 4.0350263, 40.0655089 ], [ 4.0336241, 40.0653919 ] ] ], [ [ [ 4.0310618, 40.0695718 ], [ 4.0332779, 40.0687926 ], [ 4.0314127, 40.0663893 ], [ 4.0306856, 40.067249 ], [ 4.0310618, 40.0695718 ] ] ], [ [ [ 4.0810829, 40.09053 ], [ 4.0813994, 40.0900991 ], [ 4.0828128, 40.0898968 ], [ 4.0811754, 40.0898 ], [ 4.0810829, 40.09053 ] ] ], [ [ [ 4.0729099, 40.0923497 ], [ 4.0755036, 40.0945867 ], [ 4.0768216, 40.0931949 ], [ 4.0770241, 40.0916259 ], [ 4.0761633, 40.0908209 ], [ 4.0749252, 40.0910702 ], [ 4.0729099, 40.0923497 ] ] ], [ [ [ 4.2825724, 39.8003936 ], [ 4.2822283, 39.8018723 ], [ 4.2875448, 39.8008622 ], [ 4.2889518, 39.8037063 ], [ 4.2898464, 39.8023768 ], [ 4.2918995, 39.8033289 ], [ 4.2946036, 39.8022982 ], [ 4.2961697, 39.8005095 ], [ 4.2944838, 39.7993213 ], [ 4.290451, 39.7992772 ], [ 4.2882773, 39.8000915 ], [ 4.2854634, 39.7993064 ], [ 4.2825724, 39.8003936 ] ] ], [ [ [ 4.2862181, 39.8879713 ], [ 4.2884889, 39.8870875 ], [ 4.2885565, 39.8860483 ], [ 4.2863639, 39.885774 ], [ 4.2862181, 39.8879713 ] ] ], [ [ [ 4.2926797, 39.9099235 ], [ 4.2926019, 39.9098659 ], [ 4.2924946, 39.9098618 ], [ 4.2926797, 39.9099235 ] ] ], [ [ [ 4.291926, 39.9109913 ], [ 4.2917436, 39.9109481 ], [ 4.2917678, 39.910979 ], [ 4.2918724, 39.9110016 ], [ 4.291926, 39.9109913 ] ] ], [ [ [ 4.2905178, 39.9116127 ], [ 4.2904936, 39.9116661 ], [ 4.2905668, 39.9116676 ], [ 4.2905178, 39.9116127 ] ] ], [ [ [ 4.2910818, 39.9118671 ], [ 4.2911508, 39.9117587 ], [ 4.2909684, 39.9117649 ], [ 4.2910818, 39.9118671 ] ] ], [ [ [ 4.2914815, 39.9118733 ], [ 4.2916577, 39.9120756 ], [ 4.291875, 39.9120056 ], [ 4.2914815, 39.9118733 ] ] ], [ [ [ 4.2896156, 39.9120882 ], [ 4.2894994, 39.9126445 ], [ 4.2903896, 39.9126871 ], [ 4.2899047, 39.9124854 ], [ 4.2897878, 39.9119457 ], [ 4.2903716, 39.9119567 ], [ 4.2902787, 39.9112672 ], [ 4.2896156, 39.9120882 ] ] ], [ [ [ 4.2903246, 39.91245 ], [ 4.2901476, 39.9124747 ], [ 4.290422, 39.9124823 ], [ 4.2903246, 39.91245 ] ] ], [ [ [ 4.2903389, 39.9125152 ], [ 4.2906446, 39.9126119 ], [ 4.2908101, 39.9125405 ], [ 4.2903389, 39.9125152 ] ] ], [ [ [ 4.2896656, 39.9129102 ], [ 4.2900189, 39.9128141 ], [ 4.2894851, 39.9128388 ], [ 4.2896656, 39.9129102 ] ] ], [ [ [ 4.2894663, 39.9161962 ], [ 4.2895227, 39.916227 ], [ 4.2895825, 39.9162183 ], [ 4.2894663, 39.9161962 ] ] ], [ [ [ 4.2901557, 39.9162908 ], [ 4.2901423, 39.9167537 ], [ 4.2908538, 39.9166585 ], [ 4.2901557, 39.9162908 ] ] ], [ [ [ 4.2898848, 39.9167105 ], [ 4.2899625, 39.9167475 ], [ 4.2899545, 39.9167228 ], [ 4.2898848, 39.9167105 ] ] ], [ [ [ 4.2903917, 39.9168236 ], [ 4.2904293, 39.9167886 ], [ 4.290389, 39.9167866 ], [ 4.2903917, 39.9168236 ] ] ], [ [ [ 4.2908209, 39.9167886 ], [ 4.290658, 39.9168498 ], [ 4.290819, 39.9168169 ], [ 4.2908209, 39.9167886 ] ] ], [ [ [ 4.2806746, 39.9509177 ], [ 4.2800813, 39.9501506 ], [ 4.2793894, 39.9506454 ], [ 4.2800387, 39.9513751 ], [ 4.2806746, 39.9509177 ] ] ], [ [ [ 4.2744871, 39.9574761 ], [ 4.2747656, 39.9582658 ], [ 4.2733748, 39.9590295 ], [ 4.2749714, 39.9610058 ], [ 4.2749287, 39.9620421 ], [ 4.2741505, 39.9621185 ], [ 4.2740128, 39.9624996 ], [ 4.274828, 39.9633729 ], [ 4.2734692, 39.9641419 ], [ 4.2763178, 39.9663564 ], [ 4.2781084, 39.9667126 ], [ 4.2773204, 39.9648388 ], [ 4.2792995, 39.9637875 ], [ 4.2788183, 39.9631661 ], [ 4.2796618, 39.9613848 ], [ 4.2819109, 39.9616485 ], [ 4.2842607, 39.9607755 ], [ 4.2833337, 39.9589506 ], [ 4.2813293, 39.9581503 ], [ 4.2819377, 39.9574649 ], [ 4.2797941, 39.9562834 ], [ 4.2769262, 39.95599 ], [ 4.272577, 39.9570157 ], [ 4.2744871, 39.9574761 ] ] ], [ [ [ 4.2121058, 40.0143144 ], [ 4.2127364, 40.014691 ], [ 4.2134269, 40.0150746 ], [ 4.2121058, 40.0143144 ] ] ], [ [ [ 4.2087608, 40.0167286 ], [ 4.2115375, 40.0186143 ], [ 4.2128293, 40.0181318 ], [ 4.2113807, 40.0172063 ], [ 4.2121881, 40.0169077 ], [ 4.2119948, 40.016237 ], [ 4.210011, 40.0159923 ], [ 4.2104809, 40.0149092 ], [ 4.2082869, 40.0139956 ], [ 4.2087608, 40.0167286 ] ] ], [ [ [ 4.2955241, 39.8029961 ], [ 4.2954572, 39.8028107 ], [ 4.2952496, 39.8029584 ], [ 4.2955241, 39.8029961 ] ] ], [ [ [ 4.3013901, 39.8816416 ], [ 4.3046038, 39.8809448 ], [ 4.305918, 39.8788155 ], [ 4.305717, 39.8757007 ], [ 4.3071608, 39.8713966 ], [ 4.3030761, 39.8754873 ], [ 4.3016847, 39.8759882 ], [ 4.300915, 39.8799735 ], [ 4.3013901, 39.8816416 ] ] ], [ [ [ 4.2978179, 39.882757 ], [ 4.2993, 39.8815126 ], [ 4.2992876, 39.8812954 ], [ 4.298329, 39.8814981 ], [ 4.2978179, 39.882757 ] ] ], [ [ [ 4.3106344, 39.887238 ], [ 4.3106417, 39.8871592 ], [ 4.3105368, 39.8871504 ], [ 4.3106344, 39.887238 ] ] ], [ [ [ 4.310773, 39.8885456 ], [ 4.3115783, 39.8890015 ], [ 4.3113578, 39.888375 ], [ 4.310773, 39.8885456 ] ] ], [ [ [ 4.3114005, 39.8892643 ], [ 4.3122107, 39.8892018 ], [ 4.3114105, 39.8891533 ], [ 4.3114005, 39.8892643 ] ] ], [ [ [ 4.309017, 39.8920939 ], [ 4.3088293, 39.8914354 ], [ 4.3083591, 39.8917846 ], [ 4.309017, 39.8920939 ] ] ], [ [ [ 4.2945278, 39.9087611 ], [ 4.294391, 39.9086253 ], [ 4.2943588, 39.9086233 ], [ 4.2945278, 39.9087611 ] ] ], [ [ [ 4.2940906, 39.90915 ], [ 4.2939109, 39.9090121 ], [ 4.2938867, 39.9090491 ], [ 4.2940906, 39.90915 ] ] ], [ [ [ 4.2943454, 39.90908 ], [ 4.2943132, 39.9091314 ], [ 4.2943817, 39.9091591 ], [ 4.2943454, 39.90908 ] ] ], [ [ [ 4.2926984, 39.9105696 ], [ 4.2926179, 39.9104358 ], [ 4.2925938, 39.9105037 ], [ 4.2926984, 39.9105696 ] ] ], [ [ [ 4.2930203, 39.9107012 ], [ 4.2928387, 39.9105628 ], [ 4.2927743, 39.9106739 ], [ 4.2930203, 39.9107012 ] ] ], [ [ [ 4.2941441, 39.9158835 ], [ 4.2942407, 39.9159102 ], [ 4.2942514, 39.9158938 ], [ 4.2941441, 39.9158835 ] ] ], [ [ [ 4.2948021, 39.9159838 ], [ 4.2948308, 39.9159596 ], [ 4.2947932, 39.9159452 ], [ 4.2948021, 39.9159838 ] ] ], [ [ [ 4.2942039, 39.9160372 ], [ 4.2943193, 39.9159714 ], [ 4.2941315, 39.9159488 ], [ 4.2942039, 39.9160372 ] ] ], [ [ [ 4.2945017, 39.9160393 ], [ 4.2944472, 39.9159658 ], [ 4.2943533, 39.9159596 ], [ 4.2945017, 39.9160393 ] ] ], [ [ [ 4.2938464, 39.9160172 ], [ 4.2940583, 39.9160172 ], [ 4.294002, 39.9159699 ], [ 4.2938464, 39.9160172 ] ] ], [ [ [ 4.294069, 39.9164122 ], [ 4.2940449, 39.9163854 ], [ 4.2940395, 39.9164081 ], [ 4.294069, 39.9164122 ] ] ] ] } }
]
}
