{
"type": "FeatureCollection",
"name": "mykonos",
"crs": { "type": "name", "properties": { "name": "urn:ogc:def:crs:OGC:1.3:CRS84" } },
"features": [
{ "type": "Feature", "properties": { }, "geometry": { "type": "MultiPolygon", "coordinates": [ [ [ [ 25.3494568, 37.4034587 ], [ 25.3495095, 37.4033974 ], [ 25.3494964, 37.4033815 ], [ 25.3494568, 37.4034587 ] ] ], [ [ [ 25.3089672, 37.4042449 ], [ 25.3090044, 37.4042119 ], [ 25.3089645, 37.4042007 ], [ 25.3089672, 37.4042449 ] ] ], [ [ [ 25.349437, 37.4043568 ], [ 25.3494496, 37.4043195 ], [ 25.3494253, 37.4043206 ], [ 25.349437, 37.4043568 ] ] ], [ [ [ 25.3495373, 37.4043592 ], [ 25.3495477, 37.4043243 ], [ 25.349531, 37.4043336 ], [ 25.3495373, 37.4043592 ] ] ], [ [ [ 25.3478314, 37.4051957 ], [ 25.3478978, 37.4049417 ], [ 25.3477717, 37.4052117 ], [ 25.3478314, 37.4051957 ] ] ], [ [ [ 25.3474431, 37.4056629 ], [ 25.3475846, 37.4055931 ], [ 25.3475042, 37.4055425 ], [ 25.3474431, 37.4056629 ] ] ], [ [ [ 25.3172234, 37.4061321 ], [ 25.3172535, 37.4059713 ], [ 25.3170779, 37.4061087 ], [ 25.3172234, 37.4061321 ] ] ], [ [ [ 25.3468826, 37.4065822 ], [ 25.3469865, 37.4065247 ], [ 25.3469852, 37.4065007 ], [ 25.3468826, 37.4065822 ] ] ], [ [ [ 25.3097628, 37.4066621 ], [ 25.3098406, 37.4065876 ], [ 25.3097226, 37.406635 ], [ 25.3097628, 37.4066621 ] ] ], [ [ [ 25.3466579, 37.4071767 ], [ 25.3468057, 37.4070012 ], [ 25.3468041, 37.4069193 ], [ 25.3466579, 37.4071767 ] ] ], [ [ [ 25.3195368, 37.4168744 ], [ 25.3195656, 37.4168201 ], [ 25.3195163, 37.4168334 ], [ 25.3195368, 37.4168744 ] ] ], [ [ [ 25.319341, 37.4168776 ], [ 25.3193725, 37.4168225 ], [ 25.3193061, 37.416835 ], [ 25.319341, 37.4168776 ] ] ], [ [ [ 25.3003643, 37.4288218 ], [ 25.3006688, 37.4290258 ], [ 25.3007452, 37.4289816 ], [ 25.3003643, 37.4288218 ] ] ], [ [ [ 25.3100029, 37.4712851 ], [ 25.3102322, 37.4710913 ], [ 25.3102262, 37.4710578 ], [ 25.3100029, 37.4712851 ] ] ], [ [ [ 25.3337605, 37.4979387 ], [ 25.3337874, 37.497761 ], [ 25.3336734, 37.4978621 ], [ 25.3337605, 37.4979387 ] ] ], [ [ [ 25.3495708, 37.4035498 ], [ 25.3496171, 37.4034614 ], [ 25.3495986, 37.4034371 ], [ 25.3495708, 37.4035498 ] ] ], [ [ [ 25.3636001, 37.4062829 ], [ 25.3635887, 37.4062296 ], [ 25.3635693, 37.4062669 ], [ 25.3636001, 37.4062829 ] ] ], [ [ [ 25.3633889, 37.4064307 ], [ 25.3635257, 37.4063572 ], [ 25.3633647, 37.4064003 ], [ 25.3633889, 37.4064307 ] ] ], [ [ [ 25.3498276, 37.4074526 ], [ 25.3499342, 37.4074442 ], [ 25.3499359, 37.4073524 ], [ 25.3498276, 37.4074526 ] ] ], [ [ [ 25.3691784, 37.408374 ], [ 25.3691865, 37.4082702 ], [ 25.3691409, 37.4083607 ], [ 25.3691784, 37.408374 ] ] ], [ [ [ 25.370596, 37.4108215 ], [ 25.3705624, 37.41079 ], [ 25.3705685, 37.4108209 ], [ 25.370596, 37.4108215 ] ] ], [ [ [ 25.3704746, 37.4109633 ], [ 25.370541, 37.4109221 ], [ 25.3705007, 37.4109087 ], [ 25.3704746, 37.4109633 ] ] ], [ [ [ 25.3759711, 37.4123317 ], [ 25.3759456, 37.4122808 ], [ 25.3759332, 37.4123189 ], [ 25.3759711, 37.4123317 ] ] ], [ [ [ 25.4304408, 37.442848 ], [ 25.4304528, 37.4427713 ], [ 25.4304106, 37.4428325 ], [ 25.4304408, 37.442848 ] ] ], [ [ [ 25.4315579, 37.4429081 ], [ 25.4316035, 37.4428181 ], [ 25.4315311, 37.4429023 ], [ 25.4315579, 37.4429081 ] ] ], [ [ [ 25.4305383, 37.4428693 ], [ 25.4306208, 37.4428964 ], [ 25.4306292, 37.4428613 ], [ 25.4305383, 37.4428693 ] ] ], [ [ [ 25.4500625, 37.4445596 ], [ 25.450279, 37.4444707 ], [ 25.4502355, 37.444385 ], [ 25.4500625, 37.4445596 ] ] ], [ [ [ 25.3012905, 37.4324795 ], [ 25.3027525, 37.4347515 ], [ 25.3044233, 37.4354857 ], [ 25.303712, 37.4365157 ], [ 25.3046137, 37.4377881 ], [ 25.3040982, 37.4387054 ], [ 25.3070973, 37.439988 ], [ 25.307596, 37.4386952 ], [ 25.3107121, 37.4377864 ], [ 25.3126115, 37.4382007 ], [ 25.3140554, 37.4363841 ], [ 25.3172283, 37.4346807 ], [ 25.3194295, 37.4320004 ], [ 25.3187134, 37.4300107 ], [ 25.3196353, 37.4270045 ], [ 25.323897, 37.4271997 ], [ 25.3236906, 37.4314647 ], [ 25.3246279, 37.4347953 ], [ 25.3231773, 37.4374799 ], [ 25.3258562, 37.4384248 ], [ 25.3274557, 37.4401804 ], [ 25.3266645, 37.4428668 ], [ 25.3244901, 37.4445582 ], [ 25.3261495, 37.4457296 ], [ 25.3253138, 37.4474578 ], [ 25.3265596, 37.4479072 ], [ 25.3264624, 37.4488489 ], [ 25.3266671, 37.4493738 ], [ 25.3267657, 37.4477894 ], [ 25.3279376, 37.4479565 ], [ 25.327234, 37.4475506 ], [ 25.3278521, 37.4473612 ], [ 25.329969, 37.4490683 ], [ 25.3281166, 37.4511721 ], [ 25.3255016, 37.4507068 ], [ 25.3270825, 37.4518326 ], [ 25.3271314, 37.4558276 ], [ 25.3286694, 37.4582247 ], [ 25.3281015, 37.4599987 ], [ 25.328477, 37.4633869 ], [ 25.3273083, 37.4630671 ], [ 25.3280938, 37.4637084 ], [ 25.3266602, 37.4652606 ], [ 25.3229829, 37.465842 ], [ 25.3263431, 37.4642772 ], [ 25.3258908, 37.4625339 ], [ 25.3254381, 37.4637368 ], [ 25.3197087, 37.4659811 ], [ 25.3195093, 37.4666015 ], [ 25.3224707, 37.4657948 ], [ 25.3202281, 37.466626 ], [ 25.3179333, 37.4694786 ], [ 25.31628, 37.469576 ], [ 25.3144126, 37.468399 ], [ 25.3142753, 37.4695208 ], [ 25.312107, 37.4698731 ], [ 25.3109532, 37.4710916 ], [ 25.3093196, 37.4717073 ], [ 25.3133066, 37.4748078 ], [ 25.3122218, 37.4782887 ], [ 25.3085733, 37.479568 ], [ 25.3076903, 37.483169 ], [ 25.311511, 37.4892753 ], [ 25.3117943, 37.4926132 ], [ 25.3142645, 37.4920805 ], [ 25.3166723, 37.4934409 ], [ 25.3176445, 37.4928969 ], [ 25.3186811, 37.4939482 ], [ 25.323925, 37.4927329 ], [ 25.3269592, 37.4947157 ], [ 25.3275011, 37.4958764 ], [ 25.3279875, 37.4953987 ], [ 25.3287654, 37.4967913 ], [ 25.3298666, 37.496932 ], [ 25.3298277, 37.4979356 ], [ 25.330884, 37.496878 ], [ 25.3310079, 37.4976362 ], [ 25.3324933, 37.4975547 ], [ 25.3321768, 37.4984867 ], [ 25.3344063, 37.4974119 ], [ 25.3355586, 37.4976091 ], [ 25.3355258, 37.4983688 ], [ 25.3364147, 37.4977887 ], [ 25.3368956, 37.4983082 ], [ 25.3382013, 37.4969567 ], [ 25.3387753, 37.4972648 ], [ 25.3382046, 37.4999895 ], [ 25.3399922, 37.4991629 ], [ 25.340133, 37.4997398 ], [ 25.3410103, 37.4992695 ], [ 25.3411941, 37.4999689 ], [ 25.3419712, 37.4998273 ], [ 25.3419235, 37.5003998 ], [ 25.344151, 37.4996098 ], [ 25.3456925, 37.5005521 ], [ 25.3467883, 37.4989663 ], [ 25.3507637, 37.5000067 ], [ 25.3530568, 37.4983944 ], [ 25.3536976, 37.4994288 ], [ 25.3575355, 37.4963247 ], [ 25.3572874, 37.4979249 ], [ 25.3593411, 37.4973539 ], [ 25.3603584, 37.4959257 ], [ 25.3594683, 37.4935568 ], [ 25.3605538, 37.4929748 ], [ 25.3598786, 37.4930702 ], [ 25.360597, 37.4907148 ], [ 25.3618612, 37.4913829 ], [ 25.3633379, 37.4907584 ], [ 25.3629606, 37.4899674 ], [ 25.361632, 37.4901965 ], [ 25.3606422, 37.4877577 ], [ 25.3637414, 37.4865248 ], [ 25.3630826, 37.4857591 ], [ 25.3610427, 37.4857314 ], [ 25.3598077, 37.48453 ], [ 25.3598324, 37.4831675 ], [ 25.3617163, 37.4813513 ], [ 25.3606919, 37.4806613 ], [ 25.3627616, 37.4782242 ], [ 25.3607475, 37.4776241 ], [ 25.3602524, 37.4761903 ], [ 25.3624085, 37.4740735 ], [ 25.3666125, 37.4721366 ], [ 25.3673509, 37.470068 ], [ 25.3668523, 37.4685439 ], [ 25.3683448, 37.4686812 ], [ 25.3687474, 37.4673736 ], [ 25.3700704, 37.4686966 ], [ 25.3710517, 37.468088 ], [ 25.371074, 37.467061 ], [ 25.3726715, 37.4663778 ], [ 25.373406, 37.4650327 ], [ 25.3730227, 37.4624107 ], [ 25.3758587, 37.4613627 ], [ 25.3785509, 37.461869 ], [ 25.3795765, 37.4633638 ], [ 25.3787589, 37.4641338 ], [ 25.3801488, 37.4647027 ], [ 25.3795006, 37.4653588 ], [ 25.3820711, 37.468024 ], [ 25.3835666, 37.4681316 ], [ 25.3842852, 37.4710029 ], [ 25.3830359, 37.4767787 ], [ 25.3835554, 37.4786509 ], [ 25.3825036, 37.4789874 ], [ 25.3830214, 37.4789022 ], [ 25.3820572, 37.4797721 ], [ 25.3824179, 37.4814581 ], [ 25.3811296, 37.4823938 ], [ 25.3818558, 37.4837425 ], [ 25.3810768, 37.4839733 ], [ 25.3814541, 37.486544 ], [ 25.3791849, 37.4893722 ], [ 25.3800169, 37.4904473 ], [ 25.379253, 37.4920575 ], [ 25.3802109, 37.4919299 ], [ 25.3799432, 37.4927046 ], [ 25.380726, 37.4929933 ], [ 25.3818121, 37.4922683 ], [ 25.3816775, 37.4940696 ], [ 25.3824847, 37.4934067 ], [ 25.3838736, 37.4937089 ], [ 25.3847529, 37.4957155 ], [ 25.3867777, 37.4965047 ], [ 25.3891725, 37.4946646 ], [ 25.3894212, 37.4951538 ], [ 25.3911357, 37.4945029 ], [ 25.3913803, 37.4956386 ], [ 25.3941381, 37.4968032 ], [ 25.3983162, 37.4958931 ], [ 25.4009526, 37.4966645 ], [ 25.4039839, 37.4955083 ], [ 25.4043001, 37.4943015 ], [ 25.403125, 37.4931906 ], [ 25.4055457, 37.4939412 ], [ 25.4056576, 37.4921092 ], [ 25.4072108, 37.4916832 ], [ 25.4061064, 37.4890484 ], [ 25.4073596, 37.4883616 ], [ 25.4076143, 37.4871768 ], [ 25.4058946, 37.4872032 ], [ 25.4066125, 37.4861666 ], [ 25.4053595, 37.485699 ], [ 25.4051557, 37.4838706 ], [ 25.4087512, 37.4830444 ], [ 25.4092469, 37.4838437 ], [ 25.4112984, 37.484145 ], [ 25.4114672, 37.4824729 ], [ 25.4101924, 37.4815263 ], [ 25.4111635, 37.4804362 ], [ 25.4148607, 37.4823427 ], [ 25.4148472, 37.4836351 ], [ 25.4162941, 37.4838452 ], [ 25.419326, 37.4828598 ], [ 25.4203135, 37.4805367 ], [ 25.4215404, 37.4827414 ], [ 25.4209736, 37.4838629 ], [ 25.4226293, 37.4835522 ], [ 25.4225324, 37.4849519 ], [ 25.4232521, 37.4852449 ], [ 25.4239569, 37.4835404 ], [ 25.4228419, 37.4825698 ], [ 25.4239268, 37.4799878 ], [ 25.4247443, 37.4814233 ], [ 25.4257309, 37.4812696 ], [ 25.4287319, 37.4830008 ], [ 25.4299584, 37.4826902 ], [ 25.4291024, 37.480549 ], [ 25.4309395, 37.479642 ], [ 25.4303237, 37.4795508 ], [ 25.4307203, 37.4790455 ], [ 25.4295049, 37.476151 ], [ 25.4303846, 37.4746825 ], [ 25.4289026, 37.4739847 ], [ 25.4293196, 37.4728718 ], [ 25.42843, 37.4718422 ], [ 25.4289904, 37.4711713 ], [ 25.4307559, 37.4711455 ], [ 25.4319806, 37.47288 ], [ 25.4315774, 37.4716098 ], [ 25.4322059, 37.4707421 ], [ 25.43344, 37.4721462 ], [ 25.4363178, 37.4733898 ], [ 25.4377556, 37.4722238 ], [ 25.4381794, 37.4735996 ], [ 25.4399437, 37.4736131 ], [ 25.4402279, 37.4744054 ], [ 25.4412344, 37.4741565 ], [ 25.4416441, 37.4725722 ], [ 25.4438048, 37.4732651 ], [ 25.444846, 37.4710089 ], [ 25.4455271, 37.4712574 ], [ 25.4453541, 37.4735324 ], [ 25.4466223, 37.4737188 ], [ 25.4475815, 37.4727148 ], [ 25.4477131, 37.4739259 ], [ 25.450519, 37.4750755 ], [ 25.4517886, 37.4750345 ], [ 25.4516778, 37.4748324 ], [ 25.4525155, 37.4730717 ], [ 25.4569994, 37.4745888 ], [ 25.4584128, 37.474252 ], [ 25.4611806, 37.4752185 ], [ 25.4616013, 37.4746445 ], [ 25.4604019, 37.470503 ], [ 25.4591325, 37.4692027 ], [ 25.4614144, 37.4683845 ], [ 25.4602695, 37.4646698 ], [ 25.4620262, 37.4622707 ], [ 25.4605988, 37.4615014 ], [ 25.4618016, 37.4609318 ], [ 25.4616596, 37.4596414 ], [ 25.4607776, 37.4588578 ], [ 25.4609798, 37.4571535 ], [ 25.4592527, 37.4560432 ], [ 25.4600978, 37.4548069 ], [ 25.4570005, 37.451028 ], [ 25.4570997, 37.449756 ], [ 25.4600378, 37.4488286 ], [ 25.4588351, 37.4454825 ], [ 25.4573418, 37.4455061 ], [ 25.4566347, 37.4442413 ], [ 25.4541668, 37.4443361 ], [ 25.4525233, 37.4460171 ], [ 25.4513955, 37.446127 ], [ 25.4501008, 37.445507 ], [ 25.4499722, 37.444231 ], [ 25.4478707, 37.444906 ], [ 25.4466761, 37.4440572 ], [ 25.4428553, 37.4438477 ], [ 25.4412007, 37.4451557 ], [ 25.4404133, 37.4432955 ], [ 25.4370332, 37.4449818 ], [ 25.4335028, 37.4425537 ], [ 25.4313832, 37.4431442 ], [ 25.4288597, 37.4427253 ], [ 25.4260501, 37.443955 ], [ 25.4261503, 37.4421635 ], [ 25.4226775, 37.4424213 ], [ 25.4202102, 37.4387969 ], [ 25.422568, 37.4350556 ], [ 25.4248003, 37.4357206 ], [ 25.4260651, 37.4346033 ], [ 25.4259113, 37.433692 ], [ 25.4244138, 37.4341833 ], [ 25.4233359, 37.4321152 ], [ 25.4222578, 37.4325243 ], [ 25.4225305, 37.4341512 ], [ 25.4216492, 37.4348608 ], [ 25.4193977, 37.434903 ], [ 25.4190302, 37.433774 ], [ 25.4184603, 37.4339919 ], [ 25.418594, 37.4324823 ], [ 25.420256, 37.430536 ], [ 25.4191388, 37.4297241 ], [ 25.4167869, 37.4307435 ], [ 25.4158951, 37.4299923 ], [ 25.4138673, 37.4300722 ], [ 25.4133563, 37.431283 ], [ 25.4115307, 37.4313831 ], [ 25.4086834, 37.4342509 ], [ 25.4049867, 37.4330496 ], [ 25.403635, 37.4318574 ], [ 25.4049876, 37.4278509 ], [ 25.4038376, 37.4265476 ], [ 25.4041028, 37.4251138 ], [ 25.4018942, 37.4232843 ], [ 25.4016358, 37.4218433 ], [ 25.4024741, 37.4200445 ], [ 25.4018277, 37.4195291 ], [ 25.4017702, 37.4156983 ], [ 25.401401, 37.4147121 ], [ 25.400081, 37.4146261 ], [ 25.3999549, 37.4136411 ], [ 25.3968899, 37.4154914 ], [ 25.3963638, 37.4170486 ], [ 25.3934407, 37.4192134 ], [ 25.3926338, 37.4214714 ], [ 25.3889345, 37.422716 ], [ 25.3860136, 37.4225185 ], [ 25.3846268, 37.4210378 ], [ 25.382051, 37.4205514 ], [ 25.3818135, 37.4186063 ], [ 25.3781368, 37.4184748 ], [ 25.3790269, 37.416644 ], [ 25.377648, 37.4127035 ], [ 25.3769323, 37.4129476 ], [ 25.3756976, 37.4125361 ], [ 25.3757738, 37.4121962 ], [ 25.3700184, 37.4151494 ], [ 25.3682947, 37.4142583 ], [ 25.3680531, 37.4132459 ], [ 25.3704766, 37.4104021 ], [ 25.3693101, 37.410863 ], [ 25.3687966, 37.4102188 ], [ 25.3692972, 37.4086853 ], [ 25.3687972, 37.4078499 ], [ 25.3678759, 37.4081274 ], [ 25.3676721, 37.4072548 ], [ 25.3658061, 37.4075425 ], [ 25.3628495, 37.4064476 ], [ 25.3598605, 37.4079184 ], [ 25.3588654, 37.4098955 ], [ 25.3552682, 37.4100123 ], [ 25.3537378, 37.4092511 ], [ 25.3529105, 37.407753 ], [ 25.3531998, 37.4055458 ], [ 25.3507937, 37.4078631 ], [ 25.3485021, 37.407242 ], [ 25.3482027, 37.4062362 ], [ 25.3494629, 37.4040817 ], [ 25.3489898, 37.4031199 ], [ 25.3465855, 37.4081333 ], [ 25.3482021, 37.4094894 ], [ 25.3456991, 37.4132937 ], [ 25.3432024, 37.4141403 ], [ 25.3419976, 37.4131385 ], [ 25.3400877, 37.4152527 ], [ 25.3384367, 37.4157362 ], [ 25.3363994, 37.4147738 ], [ 25.3368652, 37.4094036 ], [ 25.3331958, 37.4111699 ], [ 25.3309336, 37.4110079 ], [ 25.330676, 37.4125726 ], [ 25.3282536, 37.4145762 ], [ 25.3279342, 37.4163663 ], [ 25.3267549, 37.4173493 ], [ 25.3253087, 37.4171776 ], [ 25.3249171, 37.4185894 ], [ 25.3260422, 37.4193316 ], [ 25.326135, 37.4209368 ], [ 25.3249479, 37.4223382 ], [ 25.3229803, 37.422544 ], [ 25.3217034, 37.4222126 ], [ 25.3207733, 37.4200034 ], [ 25.3214753, 37.4176362 ], [ 25.3191232, 37.4169461 ], [ 25.3180315, 37.416131 ], [ 25.3177362, 37.4134807 ], [ 25.3190201, 37.411682 ], [ 25.3187519, 37.4107595 ], [ 25.3163188, 37.4112563 ], [ 25.3147119, 37.408766 ], [ 25.3145874, 37.4074453 ], [ 25.3172372, 37.4057809 ], [ 25.3132571, 37.405056 ], [ 25.3132811, 37.407421 ], [ 25.3121266, 37.4076327 ], [ 25.3091725, 37.4065937 ], [ 25.3086488, 37.404419 ], [ 25.3091154, 37.4038663 ], [ 25.3073733, 37.4023909 ], [ 25.3061623, 37.4023663 ], [ 25.3048288, 37.4034761 ], [ 25.3069993, 37.4066613 ], [ 25.3067289, 37.409895 ], [ 25.3108616, 37.4121097 ], [ 25.3106889, 37.4136287 ], [ 25.3124124, 37.415093 ], [ 25.3126488, 37.4193836 ], [ 25.310153, 37.422268 ], [ 25.3077374, 37.4230086 ], [ 25.3062987, 37.4224769 ], [ 25.3035111, 37.4236842 ], [ 25.3045432, 37.425833 ], [ 25.3021673, 37.4268032 ], [ 25.3021746, 37.4288443 ], [ 25.3005655, 37.4292281 ], [ 25.2996906, 37.4315886 ], [ 25.3012905, 37.4324795 ] ] ], [ [ [ 25.4056955, 37.4850301 ], [ 25.4061406, 37.4850026 ], [ 25.4061943, 37.4848898 ], [ 25.4056955, 37.4850301 ] ] ] ] } }
]
}
