{
"type": "FeatureCollection",
"name": "naxos",
"crs": { "type": "name", "properties": { "name": "urn:ogc:def:crs:OGC:1.3:CRS84" } },
"features": [
{ "type": "Feature", "properties": { }, "geometry": { "type": "Polygon", "coordinates": [ [ [ 25.33292, 37.0762058 ], [ 25.3355192, 37.0761334 ], [ 25.3374505, 37.0772187 ], [ 25.3385331, 37.0768521 ], [ 25.3415732, 37.0777528 ], [ 25.3519458, 37.0732395 ], [ 25.3522469, 37.0714288 ], [ 25.3558953, 37.0671782 ], [ 25.355186, 37.0654869 ], [ 25.3531996, 37.0650997 ], [ 25.3529848, 37.0638566 ], [ 25.3606644, 37.0566601 ], [ 25.3731101, 37.0477123 ], [ 25.3782171, 37.0399179 ], [ 25.3783704, 37.0370475 ], [ 25.377077, 37.0355564 ], [ 25.3738066, 37.0345118 ], [ 25.3726515, 37.0303203 ], [ 25.3706309, 37.0274758 ], [ 25.3678906, 37.0261954 ], [ 25.3672495, 37.0270448 ], [ 25.3662615, 37.0268709 ], [ 25.3658787, 37.0259919 ], [ 25.3639786, 37.0258415 ], [ 25.3631869, 37.0250141 ], [ 25.3679012, 37.0214719 ], [ 25.3713564, 37.0218932 ], [ 25.3763603, 37.0171714 ], [ 25.3824384, 37.0103567 ], [ 25.3847959, 37.0060215 ], [ 25.3840293, 37.0047939 ], [ 25.3871814, 37.0019051 ], [ 25.3908238, 36.9957753 ], [ 25.39178, 36.9899447 ], [ 25.3909368, 36.9875175 ], [ 25.3883922, 36.9860083 ], [ 25.38582, 36.986931 ], [ 25.3847257, 36.9865066 ], [ 25.3862785, 36.9835742 ], [ 25.3853405, 36.9822549 ], [ 25.3870021, 36.9800029 ], [ 25.385218, 36.9776386 ], [ 25.3854003, 36.9760024 ], [ 25.3865462, 36.9767924 ], [ 25.3878412, 36.9762978 ], [ 25.3891591, 36.9784089 ], [ 25.3912383, 36.9782703 ], [ 25.3920372, 36.9765753 ], [ 25.3936594, 36.9785612 ], [ 25.3957928, 36.978643 ], [ 25.4028562, 36.9758054 ], [ 25.4037618, 36.9742663 ], [ 25.4058516, 36.9732622 ], [ 25.4063813, 36.9705234 ], [ 25.4112535, 36.9715092 ], [ 25.4126215, 36.9703044 ], [ 25.4126156, 36.9680516 ], [ 25.4163287, 36.9692417 ], [ 25.4197371, 36.9679839 ], [ 25.423582, 36.9683126 ], [ 25.4273787, 36.9622418 ], [ 25.4256987, 36.9567999 ], [ 25.4267709, 36.9561302 ], [ 25.4263415, 36.9547564 ], [ 25.4269683, 36.9540134 ], [ 25.4251651, 36.9530931 ], [ 25.4246326, 36.9500883 ], [ 25.4261149, 36.9502547 ], [ 25.4255152, 36.94932 ], [ 25.4268303, 36.9492879 ], [ 25.4253589, 36.947114 ], [ 25.4259942, 36.9471109 ], [ 25.4256604, 36.9458094 ], [ 25.4244281, 36.9445776 ], [ 25.4254424, 36.940304 ], [ 25.4224455, 36.9381371 ], [ 25.4238526, 36.9372177 ], [ 25.4224816, 36.9368758 ], [ 25.4238288, 36.9321273 ], [ 25.4248991, 36.9312595 ], [ 25.428432, 36.9322469 ], [ 25.4325719, 36.9295742 ], [ 25.4320838, 36.9288799 ], [ 25.4338598, 36.9277201 ], [ 25.4351978, 36.924801 ], [ 25.430959, 36.9245971 ], [ 25.4309486, 36.9221191 ], [ 25.432434, 36.9225423 ], [ 25.4339488, 36.9219003 ], [ 25.4333669, 36.9210418 ], [ 25.4346064, 36.9212034 ], [ 25.4345939, 36.9202483 ], [ 25.4362972, 36.9192371 ], [ 25.4395489, 36.9208246 ], [ 25.439252, 36.9193767 ], [ 25.4399997, 36.9186658 ], [ 25.4413879, 36.9193062 ], [ 25.4411689, 36.9183396 ], [ 25.4433997, 36.91929 ], [ 25.443545, 36.9210747 ], [ 25.445236, 36.9212283 ], [ 25.4476069, 36.9171044 ], [ 25.4492328, 36.9163849 ], [ 25.4493783, 36.9185016 ], [ 25.4506179, 36.919546 ], [ 25.4533486, 36.9199607 ], [ 25.4541136, 36.9209331 ], [ 25.4537318, 36.9216581 ], [ 25.456447, 36.9215899 ], [ 25.4569917, 36.9226128 ], [ 25.4595656, 36.9238575 ], [ 25.4597471, 36.9254309 ], [ 25.4584262, 36.9263857 ], [ 25.4604605, 36.9271492 ], [ 25.4604936, 36.9285066 ], [ 25.4621862, 36.9288198 ], [ 25.4615209, 36.9304558 ], [ 25.4640878, 36.9324141 ], [ 25.4641251, 36.9332356 ], [ 25.4658064, 36.9333781 ], [ 25.4682252, 36.9350181 ], [ 25.4698393, 36.9347704 ], [ 25.4691705, 36.9357351 ], [ 25.4702828, 36.9365603 ], [ 25.4742955, 36.9357932 ], [ 25.4745122, 36.9342655 ], [ 25.4732836, 36.9353778 ], [ 25.4727358, 36.9353824 ], [ 25.4769618, 36.9312765 ], [ 25.4796002, 36.9313227 ], [ 25.4810844, 36.9302494 ], [ 25.4818828, 36.9316015 ], [ 25.4850562, 36.9314799 ], [ 25.4852946, 36.9325006 ], [ 25.4821276, 36.9343996 ], [ 25.4844588, 36.9364571 ], [ 25.4867725, 36.9370939 ], [ 25.4873811, 36.9382691 ], [ 25.4859261, 36.9396515 ], [ 25.4873417, 36.9399924 ], [ 25.4899389, 36.9427757 ], [ 25.4920282, 36.943159 ], [ 25.4917693, 36.9450778 ], [ 25.4898161, 36.9473051 ], [ 25.4902929, 36.9478318 ], [ 25.4922742, 36.9467491 ], [ 25.4929484, 36.9474377 ], [ 25.4952675, 36.9461029 ], [ 25.4971688, 36.9465789 ], [ 25.4987518, 36.948327 ], [ 25.4974201, 36.9497545 ], [ 25.4986737, 36.9499838 ], [ 25.4998935, 36.9519449 ], [ 25.5016958, 36.950287 ], [ 25.5043083, 36.9517365 ], [ 25.5072901, 36.9504567 ], [ 25.5091195, 36.9524241 ], [ 25.5075819, 36.9542435 ], [ 25.5080841, 36.9551045 ], [ 25.511488, 36.9542538 ], [ 25.5111918, 36.954686 ], [ 25.517377, 36.9543121 ], [ 25.5184203, 36.9549388 ], [ 25.5193504, 36.9572508 ], [ 25.520695, 36.957749 ], [ 25.5241589, 36.9557219 ], [ 25.5273181, 36.9567234 ], [ 25.5274039, 36.9549982 ], [ 25.5284555, 36.956552 ], [ 25.5316705, 36.9559997 ], [ 25.5337171, 36.9583392 ], [ 25.534791, 36.9573683 ], [ 25.5383888, 36.9590616 ], [ 25.5389335, 36.9579976 ], [ 25.5366936, 36.9568334 ], [ 25.5361837, 36.9546554 ], [ 25.540445, 36.9545244 ], [ 25.5410217, 36.953564 ], [ 25.5500482, 36.9581285 ], [ 25.550121, 36.9595255 ], [ 25.5516568, 36.960093 ], [ 25.5512683, 36.9608739 ], [ 25.5521882, 36.9620078 ], [ 25.5515657, 36.9628723 ], [ 25.5527495, 36.9631681 ], [ 25.555115, 36.9657619 ], [ 25.5530894, 36.9671744 ], [ 25.5546238, 36.9675541 ], [ 25.5546331, 36.9691018 ], [ 25.5561522, 36.9690629 ], [ 25.5569269, 36.9700599 ], [ 25.5577329, 36.9728253 ], [ 25.5565906, 36.9730011 ], [ 25.5565729, 36.9736769 ], [ 25.557844, 36.9740767 ], [ 25.5582751, 36.975309 ], [ 25.5571442, 36.9758882 ], [ 25.5581682, 36.9761337 ], [ 25.5585601, 36.9775406 ], [ 25.5567129, 36.9788557 ], [ 25.5580831, 36.9806433 ], [ 25.5596724, 36.9812215 ], [ 25.5579108, 36.9820379 ], [ 25.5580768, 36.9834062 ], [ 25.5621945, 36.9845323 ], [ 25.5623547, 36.9851096 ], [ 25.5613783, 36.9851984 ], [ 25.5620543, 36.9869941 ], [ 25.5600699, 36.9868005 ], [ 25.5594811, 36.9895585 ], [ 25.5613366, 36.9911198 ], [ 25.5634633, 36.9905939 ], [ 25.5640795, 36.9942533 ], [ 25.5633151, 36.994206 ], [ 25.5628958, 36.9957531 ], [ 25.5636307, 36.9960438 ], [ 25.5633428, 36.9969068 ], [ 25.5648075, 37.0002143 ], [ 25.566319, 37.0015085 ], [ 25.5658167, 37.0023567 ], [ 25.5686131, 37.0061559 ], [ 25.5674206, 37.0071617 ], [ 25.5675949, 37.0079784 ], [ 25.5696055, 37.0092757 ], [ 25.569955, 37.0106368 ], [ 25.5686884, 37.0123838 ], [ 25.5692418, 37.0128482 ], [ 25.5686164, 37.0135578 ], [ 25.5689054, 37.0154251 ], [ 25.5699905, 37.0165921 ], [ 25.5751572, 37.0176965 ], [ 25.574251, 37.0183672 ], [ 25.5780941, 37.0227975 ], [ 25.5781627, 37.025129 ], [ 25.5773485, 37.0258594 ], [ 25.5781003, 37.0281145 ], [ 25.5767414, 37.0297771 ], [ 25.5795964, 37.031522 ], [ 25.5787345, 37.0338309 ], [ 25.5797678, 37.0344475 ], [ 25.5783897, 37.0353319 ], [ 25.5802774, 37.0357359 ], [ 25.5809658, 37.0390997 ], [ 25.5803848, 37.0395958 ], [ 25.5819931, 37.0432084 ], [ 25.5822904, 37.0478955 ], [ 25.583376, 37.04951 ], [ 25.5827835, 37.0502627 ], [ 25.5832554, 37.052874 ], [ 25.5817775, 37.0545706 ], [ 25.5817228, 37.0559336 ], [ 25.5831772, 37.0564404 ], [ 25.5826722, 37.0575733 ], [ 25.5842086, 37.0575978 ], [ 25.5835688, 37.0590679 ], [ 25.5844786, 37.0596812 ], [ 25.5840059, 37.0623348 ], [ 25.5849787, 37.0634022 ], [ 25.5850643, 37.0667589 ], [ 25.5857534, 37.0678945 ], [ 25.5886584, 37.068527 ], [ 25.5858171, 37.0698121 ], [ 25.5869068, 37.07146 ], [ 25.5853468, 37.0719414 ], [ 25.5865108, 37.0730819 ], [ 25.5849101, 37.0732746 ], [ 25.5847973, 37.0749642 ], [ 25.5866239, 37.0756165 ], [ 25.5862391, 37.0769714 ], [ 25.5871116, 37.0780281 ], [ 25.5888486, 37.0783735 ], [ 25.5895249, 37.0796352 ], [ 25.5908659, 37.0791918 ], [ 25.5925591, 37.0799076 ], [ 25.5950162, 37.078974 ], [ 25.5970654, 37.0808525 ], [ 25.6009266, 37.0803845 ], [ 25.6022527, 37.0824295 ], [ 25.6042496, 37.0815299 ], [ 25.604605, 37.0823685 ], [ 25.603433, 37.0831981 ], [ 25.604447, 37.0833726 ], [ 25.605268, 37.0851661 ], [ 25.6064953, 37.0858063 ], [ 25.6059177, 37.0866088 ], [ 25.6051057, 37.0851964 ], [ 25.6010408, 37.0856381 ], [ 25.6006961, 37.0841955 ], [ 25.5988659, 37.0840949 ], [ 25.5977769, 37.0847187 ], [ 25.5980613, 37.0863916 ], [ 25.5935105, 37.0863518 ], [ 25.5909991, 37.0888583 ], [ 25.5915859, 37.0899822 ], [ 25.5926448, 37.0901705 ], [ 25.5910808, 37.0919252 ], [ 25.5924407, 37.0932018 ], [ 25.5919852, 37.0948434 ], [ 25.5902938, 37.0958298 ], [ 25.5911954, 37.0969856 ], [ 25.5898828, 37.0972622 ], [ 25.5898206, 37.099065 ], [ 25.5906578, 37.0994692 ], [ 25.5905089, 37.100302 ], [ 25.5918028, 37.100042 ], [ 25.5926539, 37.1012281 ], [ 25.5919933, 37.1016864 ], [ 25.5923747, 37.1025381 ], [ 25.594001, 37.1030302 ], [ 25.5965735, 37.1065515 ], [ 25.5960209, 37.1069524 ], [ 25.5982415, 37.1084936 ], [ 25.5981116, 37.1108173 ], [ 25.5957189, 37.1116977 ], [ 25.5966768, 37.1121875 ], [ 25.5960888, 37.1137087 ], [ 25.5971447, 37.1137867 ], [ 25.5990802, 37.1158121 ], [ 25.5986672, 37.1174798 ], [ 25.5939954, 37.1190141 ], [ 25.5937981, 37.1198688 ], [ 25.5962085, 37.1221628 ], [ 25.5954646, 37.1248157 ], [ 25.5932408, 37.1264587 ], [ 25.5913011, 37.1255537 ], [ 25.5905266, 37.1270617 ], [ 25.5918606, 37.128067 ], [ 25.592012, 37.1332869 ], [ 25.5911087, 37.1345769 ], [ 25.5921281, 37.1368771 ], [ 25.5911716, 37.138659 ], [ 25.5884622, 37.1384248 ], [ 25.5872548, 37.1372986 ], [ 25.5859499, 37.1379487 ], [ 25.5867305, 37.1394281 ], [ 25.5860332, 37.1413889 ], [ 25.588486, 37.145593 ], [ 25.5848851, 37.1466903 ], [ 25.5858422, 37.1486481 ], [ 25.5852482, 37.1496148 ], [ 25.5814577, 37.1520956 ], [ 25.5806645, 37.1533849 ], [ 25.5814625, 37.1536726 ], [ 25.5807253, 37.1542977 ], [ 25.5793905, 37.1540295 ], [ 25.5771057, 37.1556146 ], [ 25.5784593, 37.1597692 ], [ 25.5768856, 37.163136 ], [ 25.576078, 37.1633198 ], [ 25.5759218, 37.1649649 ], [ 25.5737716, 37.1634089 ], [ 25.5731562, 37.1637422 ], [ 25.573585, 37.1648163 ], [ 25.572974, 37.1654233 ], [ 25.5740453, 37.166553 ], [ 25.5724403, 37.1666829 ], [ 25.5723996, 37.1677508 ], [ 25.571312, 37.1678839 ], [ 25.5730391, 37.1686889 ], [ 25.5712894, 37.1709099 ], [ 25.5687353, 37.1696634 ], [ 25.5663268, 37.1709521 ], [ 25.5649276, 37.1702387 ], [ 25.5640658, 37.171307 ], [ 25.5638089, 37.1740882 ], [ 25.5619249, 37.1750768 ], [ 25.5611039, 37.1766219 ], [ 25.5620175, 37.1792812 ], [ 25.5601999, 37.1815809 ], [ 25.5586293, 37.1813866 ], [ 25.5556004, 37.1782065 ], [ 25.5518678, 37.1799782 ], [ 25.5515679, 37.1818594 ], [ 25.5532623, 37.182069 ], [ 25.5521874, 37.183509 ], [ 25.5511783, 37.1827501 ], [ 25.5482161, 37.1828259 ], [ 25.5475826, 37.1842082 ], [ 25.5485878, 37.1866786 ], [ 25.5478999, 37.1876715 ], [ 25.548493, 37.1876827 ], [ 25.5479485, 37.1884326 ], [ 25.5472252, 37.188017 ], [ 25.5463857, 37.1898271 ], [ 25.5445481, 37.1902969 ], [ 25.5467299, 37.1928945 ], [ 25.5465864, 37.1937702 ], [ 25.5441385, 37.1944588 ], [ 25.5459524, 37.1955429 ], [ 25.5454117, 37.1966972 ], [ 25.5438559, 37.1983862 ], [ 25.5429884, 37.1982578 ], [ 25.5421507, 37.2005016 ], [ 25.539771, 37.1993433 ], [ 25.5381026, 37.1997579 ], [ 25.5394222, 37.201898 ], [ 25.5388237, 37.2026755 ], [ 25.5346335, 37.203626 ], [ 25.5286323, 37.2012915 ], [ 25.5278063, 37.200816 ], [ 25.5282251, 37.2002266 ], [ 25.525096, 37.2002126 ], [ 25.5189536, 37.1964683 ], [ 25.5169813, 37.194326 ], [ 25.5147852, 37.1937501 ], [ 25.5128656, 37.195577 ], [ 25.5114855, 37.1936406 ], [ 25.5111369, 37.1952569 ], [ 25.5101698, 37.1951223 ], [ 25.5075398, 37.1935281 ], [ 25.5030394, 37.1923642 ], [ 25.5047764, 37.1916913 ], [ 25.5040642, 37.1905375 ], [ 25.5030897, 37.190933 ], [ 25.5018694, 37.1899611 ], [ 25.4986172, 37.190452 ], [ 25.4975668, 37.1895224 ], [ 25.4939185, 37.1887564 ], [ 25.4923377, 37.1873126 ], [ 25.4931271, 37.1866055 ], [ 25.4928532, 37.1858263 ], [ 25.4899065, 37.1847963 ], [ 25.4897412, 37.1830586 ], [ 25.4872698, 37.1835247 ], [ 25.4828701, 37.1781924 ], [ 25.4805681, 37.177431 ], [ 25.4796034, 37.1750747 ], [ 25.4805732, 37.1742129 ], [ 25.4803168, 37.173305 ], [ 25.4796718, 37.1725146 ], [ 25.4784584, 37.1727185 ], [ 25.4786879, 37.17177 ], [ 25.477049, 37.1702352 ], [ 25.4781669, 37.1688941 ], [ 25.4747726, 37.1659497 ], [ 25.4762561, 37.1654425 ], [ 25.4761222, 37.1643328 ], [ 25.4743247, 37.1627571 ], [ 25.4732896, 37.162995 ], [ 25.4691503, 37.1608887 ], [ 25.4705662, 37.1604379 ], [ 25.4698693, 37.1595622 ], [ 25.4681798, 37.1597004 ], [ 25.4696919, 37.1582389 ], [ 25.4693019, 37.1565509 ], [ 25.4651509, 37.1532014 ], [ 25.4625311, 37.1487629 ], [ 25.460203, 37.1492068 ], [ 25.4577492, 37.1463257 ], [ 25.4519801, 37.1426667 ], [ 25.449635, 37.1402084 ], [ 25.4454932, 37.1409076 ], [ 25.4457041, 37.1395379 ], [ 25.4448526, 37.1389555 ], [ 25.4433006, 37.1409285 ], [ 25.4419844, 37.1409377 ], [ 25.4415467, 37.1389543 ], [ 25.4399849, 37.1385639 ], [ 25.4396563, 37.1374098 ], [ 25.4382337, 37.1367149 ], [ 25.4318471, 37.1361717 ], [ 25.4304945, 37.1374537 ], [ 25.4259414, 37.1380675 ], [ 25.4228826, 37.1362773 ], [ 25.4195312, 37.136096 ], [ 25.4183786, 37.1373644 ], [ 25.4166617, 37.1358238 ], [ 25.4130563, 37.1357438 ], [ 25.412478, 37.1346723 ], [ 25.4106912, 37.1340204 ], [ 25.4101292, 37.1311957 ], [ 25.4084358, 37.1300048 ], [ 25.4092432, 37.1294724 ], [ 25.4082534, 37.1284757 ], [ 25.4085282, 37.1277811 ], [ 25.40663, 37.1265538 ], [ 25.4071726, 37.1256957 ], [ 25.4018854, 37.1241986 ], [ 25.399732, 37.1215826 ], [ 25.3946598, 37.1185866 ], [ 25.3943104, 37.116715 ], [ 25.3931317, 37.1169036 ], [ 25.3906389, 37.1156462 ], [ 25.389062, 37.1138594 ], [ 25.3874044, 37.1149757 ], [ 25.3869419, 37.1134301 ], [ 25.3824858, 37.1115748 ], [ 25.3789143, 37.1087636 ], [ 25.374544, 37.1085859 ], [ 25.3731885, 37.1096174 ], [ 25.3736968, 37.1100218 ], [ 25.373678, 37.1106694 ], [ 25.3716239, 37.1105105 ], [ 25.3719274, 37.1098183 ], [ 25.368632, 37.1068812 ], [ 25.3720843, 37.109702 ], [ 25.3729859, 37.1095503 ], [ 25.3740496, 37.1078316 ], [ 25.3713419, 37.1063165 ], [ 25.3732469, 37.1061038 ], [ 25.3727242, 37.1069071 ], [ 25.3735841, 37.1074247 ], [ 25.3746705, 37.1063191 ], [ 25.3735503, 37.1057582 ], [ 25.3741244, 37.1047644 ], [ 25.3736284, 37.1040127 ], [ 25.374305, 37.1049545 ], [ 25.3737381, 37.105689 ], [ 25.3747706, 37.1062157 ], [ 25.3753813, 37.1047535 ], [ 25.3750938, 37.1038266 ], [ 25.373653, 37.1034742 ], [ 25.3737058, 37.1020031 ], [ 25.3712033, 37.1015927 ], [ 25.3727399, 37.100658 ], [ 25.3718657, 37.0997174 ], [ 25.3740822, 37.1000133 ], [ 25.3753631, 37.0976435 ], [ 25.3738558, 37.0948158 ], [ 25.3715191, 37.0935382 ], [ 25.373238, 37.092766 ], [ 25.3724351, 37.0906296 ], [ 25.365897, 37.0881113 ], [ 25.3631037, 37.0880112 ], [ 25.3611994, 37.0867096 ], [ 25.3608495, 37.0872144 ], [ 25.3631213, 37.0902805 ], [ 25.3611553, 37.0898354 ], [ 25.3611553, 37.0879547 ], [ 25.3590798, 37.0869566 ], [ 25.3563752, 37.0892623 ], [ 25.3495834, 37.0888498 ], [ 25.3454957, 37.0929247 ], [ 25.3438877, 37.0931861 ], [ 25.3439597, 37.0922899 ], [ 25.3423258, 37.0919255 ], [ 25.3394732, 37.0872657 ], [ 25.3413586, 37.0824365 ], [ 25.3368815, 37.0805156 ], [ 25.3377829, 37.0798651 ], [ 25.33292, 37.0762058 ] ] ] } }
]
}
