{
"type": "FeatureCollection",
"name": "oland",
"crs": { "type": "name", "properties": { "name": "urn:ogc:def:crs:OGC:1.3:CRS84" } },
"features": [
{ "type": "Feature", "properties": { }, "geometry": { "type": "Polygon", "coordinates": [ [ [ 16.3692226, 56.5231117 ], [ 16.3704104, 56.5223573 ], [ 16.3739902, 56.521751 ], [ 16.3748294, 56.5207374 ], [ 16.3770989, 56.5204408 ], [ 16.3772061, 56.5196197 ], [ 16.376167, 56.5192461 ], [ 16.3768414, 56.5186483 ], [ 16.3799179, 56.518652 ], [ 16.3776034, 56.5169578 ], [ 16.3786849, 56.5156713 ], [ 16.37588, 56.51483 ], [ 16.3755459, 56.5128259 ], [ 16.3728913, 56.5113993 ], [ 16.37411, 56.51075 ], [ 16.3727626, 56.5093905 ], [ 16.3738601, 56.5089441 ], [ 16.3741729, 56.5076976 ], [ 16.3727079, 56.5066481 ], [ 16.3701716, 56.5068086 ], [ 16.3732446, 56.5052787 ], [ 16.373406, 56.5032195 ], [ 16.3759531, 56.5052377 ], [ 16.3765965, 56.5043886 ], [ 16.3758587, 56.5035433 ], [ 16.3788002, 56.5047516 ], [ 16.3771029, 56.5029599 ], [ 16.3776716, 56.5001311 ], [ 16.3769884, 56.4983837 ], [ 16.3751055, 56.496701 ], [ 16.3763533, 56.4937735 ], [ 16.3758801, 56.492257 ], [ 16.3770362, 56.4904514 ], [ 16.3755435, 56.4897636 ], [ 16.3742923, 56.4876254 ], [ 16.3750776, 56.4855559 ], [ 16.3735136, 56.4851221 ], [ 16.3747847, 56.4834532 ], [ 16.3731815, 56.482132 ], [ 16.371079, 56.482807 ], [ 16.3728146, 56.4817126 ], [ 16.3743808, 56.4783384 ], [ 16.3730735, 56.4732329 ], [ 16.3711455, 56.4726614 ], [ 16.3724085, 56.4722507 ], [ 16.3728527, 56.4692629 ], [ 16.3716809, 56.4675418 ], [ 16.372699, 56.4648366 ], [ 16.3710108, 56.4629274 ], [ 16.3706117, 56.461546 ], [ 16.3711807, 56.4612547 ], [ 16.3700471, 56.4610309 ], [ 16.3710513, 56.4610042 ], [ 16.3701252, 56.4605782 ], [ 16.3713072, 56.4592516 ], [ 16.3701327, 56.4589692 ], [ 16.3713812, 56.4589641 ], [ 16.3732794, 56.4568768 ], [ 16.37405, 56.4549776 ], [ 16.3724673, 56.4545448 ], [ 16.3738309, 56.4545716 ], [ 16.3746442, 56.4533722 ], [ 16.3768513, 56.447395 ], [ 16.375713, 56.4466671 ], [ 16.3759555, 56.4454018 ], [ 16.3748177, 56.4449525 ], [ 16.3763911, 56.4447177 ], [ 16.3771912, 56.4426413 ], [ 16.3759541, 56.4417271 ], [ 16.376096, 56.4395368 ], [ 16.3749135, 56.4392772 ], [ 16.3760668, 56.4392499 ], [ 16.37882, 56.43618 ], [ 16.3766834, 56.4312794 ], [ 16.3789472, 56.4320448 ], [ 16.3801971, 56.4313146 ], [ 16.3784033, 56.4294543 ], [ 16.3790395, 56.4285658 ], [ 16.3771185, 56.4282346 ], [ 16.3790408, 56.4271798 ], [ 16.3778666, 56.4248522 ], [ 16.3769026, 56.424568 ], [ 16.3830896, 56.424113 ], [ 16.3862568, 56.4215971 ], [ 16.3868423, 56.4228937 ], [ 16.3868536, 56.4217581 ], [ 16.3886048, 56.4210643 ], [ 16.3883465, 56.4205246 ], [ 16.3931677, 56.4188825 ], [ 16.3962266, 56.420392 ], [ 16.4024969, 56.4205884 ], [ 16.4036681, 56.4212347 ], [ 16.4026719, 56.420466 ], [ 16.4045795, 56.4190723 ], [ 16.4047426, 56.4165822 ], [ 16.403388, 56.4161728 ], [ 16.4066807, 56.4135498 ], [ 16.4060815, 56.4130136 ], [ 16.4071522, 56.4114285 ], [ 16.4063041, 56.4105613 ], [ 16.4065624, 56.4082417 ], [ 16.4056282, 56.407709 ], [ 16.405092, 56.405409 ], [ 16.407196, 56.400421 ], [ 16.4045864, 56.3962767 ], [ 16.402619, 56.3960724 ], [ 16.403005, 56.392315 ], [ 16.4021014, 56.389451 ], [ 16.4020507, 56.3830758 ], [ 16.4009671, 56.3819148 ], [ 16.4009944, 56.3794336 ], [ 16.4001184, 56.3788615 ], [ 16.4021505, 56.3779342 ], [ 16.4050505, 56.3746711 ], [ 16.4033698, 56.371198 ], [ 16.4050354, 56.3698156 ], [ 16.4049169, 56.3682243 ], [ 16.4066829, 56.3642455 ], [ 16.405816, 56.356627 ], [ 16.4070688, 56.3563327 ], [ 16.4078815, 56.3573311 ], [ 16.4085542, 56.3558214 ], [ 16.4080484, 56.3540351 ], [ 16.4069371, 56.3545816 ], [ 16.405699, 56.3535034 ], [ 16.4074411, 56.3527086 ], [ 16.4078274, 56.3511392 ], [ 16.4054532, 56.3510614 ], [ 16.4068191, 56.3500479 ], [ 16.4071147, 56.3484804 ], [ 16.4056942, 56.3437474 ], [ 16.4061073, 56.3428558 ], [ 16.4053621, 56.3410861 ], [ 16.4046693, 56.3410518 ], [ 16.4054439, 56.340453 ], [ 16.404481, 56.3373332 ], [ 16.404952, 56.3354625 ], [ 16.4031933, 56.3324524 ], [ 16.4027416, 56.3298609 ], [ 16.401694, 56.329002 ], [ 16.403469, 56.3203816 ], [ 16.4016592, 56.3191543 ], [ 16.4019026, 56.3159334 ], [ 16.3995568, 56.3105384 ], [ 16.3994205, 56.3082933 ], [ 16.3978294, 56.3075948 ], [ 16.3982344, 56.305137 ], [ 16.397175, 56.2990592 ], [ 16.3959074, 56.2977841 ], [ 16.39659, 56.2975242 ], [ 16.395784, 56.2975363 ], [ 16.3964446, 56.2971548 ], [ 16.3960018, 56.2942132 ], [ 16.3944112, 56.2920775 ], [ 16.3941457, 56.288111 ], [ 16.3930299, 56.2868084 ], [ 16.3960406, 56.2856945 ], [ 16.3955525, 56.285492 ], [ 16.3969821, 56.2837189 ], [ 16.3984063, 56.2788947 ], [ 16.3966253, 56.2757825 ], [ 16.3924465, 56.2732129 ], [ 16.391047, 56.2715144 ], [ 16.3916398, 56.2714347 ], [ 16.3915607, 56.2705418 ], [ 16.3905555, 56.2705493 ], [ 16.391454, 56.2691716 ], [ 16.3961828, 56.2670268 ], [ 16.3962049, 56.2650073 ], [ 16.3969606, 56.2648427 ], [ 16.3966186, 56.265824 ], [ 16.397316, 56.2661234 ], [ 16.3973026, 56.2654523 ], [ 16.3980992, 56.2674394 ], [ 16.3987282, 56.2673455 ], [ 16.3983627, 56.2666946 ], [ 16.3994222, 56.2669646 ], [ 16.3996039, 56.2646495 ], [ 16.3993531, 56.2650435 ], [ 16.3983889, 56.2652185 ], [ 16.3990138, 56.2646182 ], [ 16.3965134, 56.2643624 ], [ 16.3998467, 56.2642585 ], [ 16.40383, 56.26176 ], [ 16.4053568, 56.2584455 ], [ 16.4070546, 56.2573814 ], [ 16.4098591, 56.2534649 ], [ 16.409857, 56.2522282 ], [ 16.4075192, 56.2500923 ], [ 16.4067837, 56.2483151 ], [ 16.4086269, 56.2451432 ], [ 16.40087, 56.23132 ], [ 16.397779, 56.2212255 ], [ 16.3980048, 56.2191588 ], [ 16.40074, 56.21518 ], [ 16.400789, 56.2132001 ], [ 16.4001291, 56.2127156 ], [ 16.4009678, 56.2110569 ], [ 16.3980845, 56.2104677 ], [ 16.3966047, 56.2057152 ], [ 16.4010454, 56.2101885 ], [ 16.40311, 56.21068 ], [ 16.40377, 56.21003 ], [ 16.4027481, 56.2072035 ], [ 16.3990584, 56.2020402 ], [ 16.397438, 56.1966611 ], [ 16.3962498, 56.1960329 ], [ 16.3957268, 56.1968984 ], [ 16.3957214, 56.1956687 ], [ 16.3980751, 56.1945264 ], [ 16.4017832, 56.1945615 ], [ 16.4021963, 56.1950062 ], [ 16.4010161, 56.195997 ], [ 16.4026898, 56.1979056 ], [ 16.4089065, 56.2010794 ], [ 16.4177083, 56.2022997 ], [ 16.4111783, 56.2018884 ], [ 16.410718, 56.2024022 ], [ 16.41296, 56.20365 ], [ 16.4163024, 56.2040846 ], [ 16.4170287, 56.2065331 ], [ 16.41902, 56.2079682 ], [ 16.4274593, 56.2079533 ], [ 16.428529, 56.2085572 ], [ 16.4302295, 56.2113121 ], [ 16.4405142, 56.2205706 ], [ 16.4491106, 56.2215662 ], [ 16.4580402, 56.2246091 ], [ 16.4633789, 56.2252855 ], [ 16.4734581, 56.2317215 ], [ 16.4766392, 56.2347532 ], [ 16.4820546, 56.2422876 ], [ 16.4830846, 56.2467268 ], [ 16.4849638, 56.2489216 ], [ 16.4873214, 56.2555508 ], [ 16.4924398, 56.2634474 ], [ 16.4943651, 56.2681793 ], [ 16.4969234, 56.2715496 ], [ 16.4978257, 56.2717023 ], [ 16.4979276, 56.2730721 ], [ 16.5003626, 56.2739309 ], [ 16.499987, 56.2734806 ], [ 16.5005948, 56.2733588 ], [ 16.5007437, 56.2739342 ], [ 16.4996418, 56.2750386 ], [ 16.5012431, 56.2757047 ], [ 16.5005924, 56.2763867 ], [ 16.5021266, 56.2772833 ], [ 16.5017334, 56.277764 ], [ 16.50475, 56.28337 ], [ 16.51107, 56.29174 ], [ 16.5127924, 56.2924298 ], [ 16.5126792, 56.2937831 ], [ 16.5169874, 56.2998144 ], [ 16.5168946, 56.3007713 ], [ 16.5196245, 56.3025339 ], [ 16.5195038, 56.3033958 ], [ 16.5207135, 56.3035396 ], [ 16.520206, 56.30448 ], [ 16.5233855, 56.3066424 ], [ 16.5238844, 56.3084654 ], [ 16.5256163, 56.3084975 ], [ 16.5246748, 56.3091578 ], [ 16.5265848, 56.3124339 ], [ 16.529281, 56.313727 ], [ 16.5293802, 56.3152511 ], [ 16.5307551, 56.3161468 ], [ 16.5317454, 56.316632 ], [ 16.5331158, 56.3162793 ], [ 16.5337335, 56.316416 ], [ 16.5317671, 56.3167586 ], [ 16.5331167, 56.3166248 ], [ 16.5321748, 56.3171878 ], [ 16.5339083, 56.3165417 ], [ 16.5322578, 56.3174844 ], [ 16.532107, 56.3185364 ], [ 16.5363315, 56.3230851 ], [ 16.5382769, 56.3239116 ], [ 16.5404655, 56.3272397 ], [ 16.541988, 56.3279568 ], [ 16.5554089, 56.3516115 ], [ 16.558608, 56.3545438 ], [ 16.559193, 56.3567488 ], [ 16.5604593, 56.3570256 ], [ 16.5605995, 56.3589252 ], [ 16.5632753, 56.3607257 ], [ 16.566373, 56.3651757 ], [ 16.5680872, 56.3698726 ], [ 16.5677954, 56.3717548 ], [ 16.5684581, 56.3722175 ], [ 16.5647323, 56.376542 ], [ 16.5644625, 56.3797649 ], [ 16.562734, 56.3814341 ], [ 16.5602771, 56.3818059 ], [ 16.5595905, 56.3828573 ], [ 16.5611816, 56.3851863 ], [ 16.5643198, 56.3850752 ], [ 16.5653186, 56.3839354 ], [ 16.5679978, 56.3872312 ], [ 16.5679497, 56.3891124 ], [ 16.5707716, 56.3922308 ], [ 16.5698687, 56.3929562 ], [ 16.571323, 56.3940183 ], [ 16.5706798, 56.3950209 ], [ 16.5716513, 56.395911 ], [ 16.570278, 56.3983479 ], [ 16.5713777, 56.4003228 ], [ 16.5700909, 56.4004015 ], [ 16.570123, 56.3992437 ], [ 16.5653395, 56.3948931 ], [ 16.5671954, 56.4033304 ], [ 16.5688009, 56.4044685 ], [ 16.5686419, 56.4052583 ], [ 16.5702434, 56.4044875 ], [ 16.5723347, 56.4048171 ], [ 16.572357, 56.4057879 ], [ 16.5695715, 56.4064443 ], [ 16.5714448, 56.4103372 ], [ 16.5719426, 56.4101455 ], [ 16.5717426, 56.4110618 ], [ 16.5722486, 56.4101719 ], [ 16.5705302, 56.4072464 ], [ 16.5753002, 56.4088519 ], [ 16.5741911, 56.4097921 ], [ 16.5771308, 56.4124823 ], [ 16.5789515, 56.4181324 ], [ 16.5806139, 56.4199026 ], [ 16.5800489, 56.4215659 ], [ 16.5813904, 56.4220828 ], [ 16.5801859, 56.422463 ], [ 16.5809371, 56.4230822 ], [ 16.5801824, 56.4234994 ], [ 16.5825132, 56.4240561 ], [ 16.5809892, 56.4244867 ], [ 16.5826237, 56.4242425 ], [ 16.5811092, 56.4252727 ], [ 16.5833295, 56.4266 ], [ 16.5826653, 56.4268065 ], [ 16.5834086, 56.4270561 ], [ 16.582864, 56.4278061 ], [ 16.583931, 56.4290383 ], [ 16.5841303, 56.4313677 ], [ 16.5859014, 56.4317821 ], [ 16.5895017, 56.4390612 ], [ 16.5928295, 56.4415801 ], [ 16.5939233, 56.4453123 ], [ 16.6013538, 56.4493201 ], [ 16.604069, 56.4527676 ], [ 16.6041557, 56.4547712 ], [ 16.6053513, 56.4554168 ], [ 16.6049652, 56.4560822 ], [ 16.605861, 56.4577359 ], [ 16.6101228, 56.4587111 ], [ 16.6079282, 56.458775 ], [ 16.6073781, 56.4608029 ], [ 16.6111396, 56.4658785 ], [ 16.6121669, 56.4703229 ], [ 16.6143977, 56.4726986 ], [ 16.6161897, 56.4775552 ], [ 16.6153936, 56.47943 ], [ 16.6160631, 56.4793949 ], [ 16.6154376, 56.4795267 ], [ 16.6175782, 56.4819351 ], [ 16.61897, 56.4823002 ], [ 16.6183872, 56.4830976 ], [ 16.6190079, 56.4837068 ], [ 16.6219124, 56.484475 ], [ 16.6209157, 56.4855545 ], [ 16.6215273, 56.486054 ], [ 16.6210611, 56.4870683 ], [ 16.6220334, 56.4878504 ], [ 16.6213355, 56.4904288 ], [ 16.6190274, 56.490431 ], [ 16.6184261, 56.4917547 ], [ 16.6166012, 56.4913088 ], [ 16.6164126, 56.4902169 ], [ 16.6153293, 56.4916147 ], [ 16.6163058, 56.4933207 ], [ 16.617612, 56.4936196 ], [ 16.6197849, 56.4958142 ], [ 16.6192707, 56.4981297 ], [ 16.6214642, 56.4994743 ], [ 16.6216037, 56.5007776 ], [ 16.6242518, 56.5026315 ], [ 16.6249841, 56.5024254 ], [ 16.6244823, 56.5031161 ], [ 16.6252711, 56.5041928 ], [ 16.6246989, 56.5043452 ], [ 16.6256863, 56.5058033 ], [ 16.6285066, 56.5071236 ], [ 16.6312596, 56.5066259 ], [ 16.629366, 56.5072902 ], [ 16.6298928, 56.5081126 ], [ 16.6323009, 56.5077038 ], [ 16.6314667, 56.5090607 ], [ 16.6333389, 56.5103051 ], [ 16.6341564, 56.5138795 ], [ 16.6360844, 56.5155504 ], [ 16.6370495, 56.518233 ], [ 16.6399228, 56.5217026 ], [ 16.6375419, 56.5298631 ], [ 16.6330261, 56.5346878 ], [ 16.6338976, 56.535048 ], [ 16.6331358, 56.5350493 ], [ 16.6339105, 56.5352056 ], [ 16.6331458, 56.5352663 ], [ 16.6328845, 56.5367842 ], [ 16.6343613, 56.5381339 ], [ 16.6350694, 56.5421081 ], [ 16.6374335, 56.5447997 ], [ 16.6370419, 56.5471424 ], [ 16.6379394, 56.5474511 ], [ 16.6375977, 56.5481191 ], [ 16.6398508, 56.5511837 ], [ 16.6411532, 56.5515296 ], [ 16.6413201, 56.5528693 ], [ 16.6458149, 56.5579628 ], [ 16.648208, 56.5590598 ], [ 16.6482997, 56.5598166 ], [ 16.6501655, 56.5597108 ], [ 16.6488919, 56.5608433 ], [ 16.6497165, 56.5624638 ], [ 16.6517667, 56.5625016 ], [ 16.6585712, 56.56583 ], [ 16.6607063, 56.5658174 ], [ 16.6652333, 56.5674028 ], [ 16.6656053, 56.5683968 ], [ 16.6672179, 56.5691392 ], [ 16.669838, 56.5693789 ], [ 16.670501, 56.5706228 ], [ 16.6723911, 56.5709535 ], [ 16.6727938, 56.5720764 ], [ 16.6760528, 56.5741991 ], [ 16.68108, 56.57625 ], [ 16.6837985, 56.5751169 ], [ 16.6832154, 56.576857 ], [ 16.6849263, 56.5762562 ], [ 16.6867148, 56.5782068 ], [ 16.685642, 56.5787144 ], [ 16.6858834, 56.5804151 ], [ 16.6878113, 56.5820793 ], [ 16.6918545, 56.5835648 ], [ 16.6923389, 56.5848948 ], [ 16.694125, 56.5859085 ], [ 16.6941481, 56.5891502 ], [ 16.6970612, 56.589527 ], [ 16.6978431, 56.5900911 ], [ 16.6969536, 56.5905199 ], [ 16.6974769, 56.5913748 ], [ 16.6999494, 56.5912006 ], [ 16.6979707, 56.5925609 ], [ 16.6993419, 56.5931473 ], [ 16.6987437, 56.5948107 ], [ 16.699961, 56.5974052 ], [ 16.70177, 56.59786 ], [ 16.7020732, 56.5991254 ], [ 16.7031879, 56.5994443 ], [ 16.7017293, 56.6021093 ], [ 16.6993942, 56.6041128 ], [ 16.7019047, 56.6043902 ], [ 16.7028529, 56.6054164 ], [ 16.7011717, 56.6060053 ], [ 16.7001626, 56.6095111 ], [ 16.7009941, 56.6107587 ], [ 16.698242, 56.6125041 ], [ 16.6973271, 56.6167612 ], [ 16.6981371, 56.618812 ], [ 16.7032179, 56.620484 ], [ 16.7013759, 56.6206692 ], [ 16.7028625, 56.6211854 ], [ 16.7008347, 56.6208194 ], [ 16.7027333, 56.6214057 ], [ 16.6997118, 56.6207167 ], [ 16.7008997, 56.6225765 ], [ 16.7056405, 56.6218782 ], [ 16.705029, 56.6228872 ], [ 16.7016156, 56.6227464 ], [ 16.7010325, 56.6237277 ], [ 16.7026332, 56.6247202 ], [ 16.7011526, 56.6264869 ], [ 16.70216, 56.62731 ], [ 16.7013678, 56.6294517 ], [ 16.7032955, 56.6310352 ], [ 16.7092995, 56.6299649 ], [ 16.7095802, 56.6315569 ], [ 16.7073528, 56.6325362 ], [ 16.7081478, 56.6334018 ], [ 16.7054249, 56.6348153 ], [ 16.7092899, 56.635401 ], [ 16.7081489, 56.6377425 ], [ 16.7097497, 56.6375876 ], [ 16.7118252, 56.6386856 ], [ 16.7094852, 56.6397267 ], [ 16.7094675, 56.6405568 ], [ 16.7112705, 56.6413771 ], [ 16.7092631, 56.6418128 ], [ 16.7087857, 56.6431708 ], [ 16.7107544, 56.6436366 ], [ 16.710712, 56.6446037 ], [ 16.71527, 56.64492 ], [ 16.7161666, 56.6461687 ], [ 16.7127323, 56.6508388 ], [ 16.7133411, 56.6522463 ], [ 16.7152498, 56.6528795 ], [ 16.714922, 56.6540501 ], [ 16.71642, 56.65477 ], [ 16.7152793, 56.6553476 ], [ 16.715607, 56.6563567 ], [ 16.7145186, 56.6570274 ], [ 16.7145256, 56.6583271 ], [ 16.716158, 56.6614382 ], [ 16.7166746, 56.6651896 ], [ 16.7208492, 56.6683119 ], [ 16.7217289, 56.6682126 ], [ 16.7213609, 56.6687402 ], [ 16.7225454, 56.6683844 ], [ 16.72576, 56.6709 ], [ 16.728641, 56.6704551 ], [ 16.7276014, 56.6723568 ], [ 16.7280885, 56.6739996 ], [ 16.7292756, 56.6745643 ], [ 16.7283384, 56.6754926 ], [ 16.7290251, 56.6770808 ], [ 16.732748, 56.6804667 ], [ 16.7355235, 56.6856001 ], [ 16.7367557, 56.6864159 ], [ 16.7394422, 56.6862688 ], [ 16.7393567, 56.6871547 ], [ 16.7411774, 56.6878236 ], [ 16.7400854, 56.6890321 ], [ 16.7400189, 56.6917412 ], [ 16.7376607, 56.6919103 ], [ 16.7354456, 56.6933622 ], [ 16.7371638, 56.69562 ], [ 16.7388332, 56.6961761 ], [ 16.7385618, 56.6982317 ], [ 16.7366123, 56.7012303 ], [ 16.7371981, 56.7057934 ], [ 16.7400547, 56.7080996 ], [ 16.740839, 56.7097759 ], [ 16.7424145, 56.7105179 ], [ 16.7430212, 56.7119689 ], [ 16.7424896, 56.7138614 ], [ 16.7443945, 56.7168575 ], [ 16.7507755, 56.7202334 ], [ 16.7504391, 56.7214864 ], [ 16.7511236, 56.7220207 ], [ 16.754772, 56.7228569 ], [ 16.7545864, 56.7241505 ], [ 16.7586129, 56.7244775 ], [ 16.7575974, 56.7275675 ], [ 16.7578377, 56.7293795 ], [ 16.7593242, 56.729964 ], [ 16.7583474, 56.7308041 ], [ 16.7598424, 56.7313347 ], [ 16.7585142, 56.7317543 ], [ 16.7586891, 56.7338286 ], [ 16.7636292, 56.7333763 ], [ 16.7597212, 56.734217 ], [ 16.7603231, 56.7350747 ], [ 16.7626818, 56.7351027 ], [ 16.7620311, 56.735871 ], [ 16.763715, 56.7364824 ], [ 16.7619217, 56.7378238 ], [ 16.7632622, 56.7383975 ], [ 16.7629651, 56.7393805 ], [ 16.763612, 56.7395888 ], [ 16.7609794, 56.7421304 ], [ 16.7640819, 56.7431629 ], [ 16.7655904, 56.7446332 ], [ 16.7624996, 56.7462204 ], [ 16.7639446, 56.7467065 ], [ 16.7628755, 56.7490002 ], [ 16.7635047, 56.7505976 ], [ 16.7625434, 56.7530402 ], [ 16.7644682, 56.7583102 ], [ 16.7684714, 56.7625875 ], [ 16.7682764, 56.763336 ], [ 16.7700356, 56.7647806 ], [ 16.7727227, 56.7655171 ], [ 16.7717166, 56.7662665 ], [ 16.7740965, 56.7663913 ], [ 16.7734096, 56.7677622 ], [ 16.7738728, 56.7681569 ], [ 16.7711396, 56.7696392 ], [ 16.7707604, 56.7717454 ], [ 16.7711482, 56.7738244 ], [ 16.7732401, 56.7745156 ], [ 16.7718059, 56.7746868 ], [ 16.7719086, 56.7757751 ], [ 16.7734233, 56.7768226 ], [ 16.7750605, 56.7763002 ], [ 16.7758119, 56.7769663 ], [ 16.7737553, 56.7772514 ], [ 16.7733642, 56.7782099 ], [ 16.7742488, 56.7785955 ], [ 16.7736641, 56.7794319 ], [ 16.7744165, 56.7797442 ], [ 16.7729279, 56.7806136 ], [ 16.7737668, 56.7828442 ], [ 16.7765502, 56.7841619 ], [ 16.7758405, 56.7843392 ], [ 16.7758957, 56.786024 ], [ 16.7742671, 56.7865957 ], [ 16.7744033, 56.7873689 ], [ 16.7768146, 56.7874703 ], [ 16.7775611, 56.7884937 ], [ 16.7811279, 56.7874693 ], [ 16.7805099, 56.7883443 ], [ 16.78324, 56.78981 ], [ 16.7799381, 56.7908194 ], [ 16.781284, 56.7928046 ], [ 16.7808806, 56.794565 ], [ 16.7844246, 56.794783 ], [ 16.7852301, 56.7954205 ], [ 16.784456, 56.7959313 ], [ 16.7848012, 56.7964391 ], [ 16.7867616, 56.7961456 ], [ 16.787039, 56.7975123 ], [ 16.7860034, 56.7981391 ], [ 16.7893655, 56.799391 ], [ 16.7876985, 56.7999896 ], [ 16.7875848, 56.8010186 ], [ 16.7928886, 56.8017583 ], [ 16.792611, 56.8040882 ], [ 16.7948774, 56.8040449 ], [ 16.795335, 56.8031921 ], [ 16.7957972, 56.8038381 ], [ 16.7938587, 56.8043515 ], [ 16.7940009, 56.8052163 ], [ 16.7950126, 56.8065804 ], [ 16.7987286, 56.8070931 ], [ 16.7990105, 56.8104975 ], [ 16.8037526, 56.8089428 ], [ 16.803538, 56.8063602 ], [ 16.8025334, 56.8055484 ], [ 16.8048761, 56.80463 ], [ 16.8063255, 56.8048943 ], [ 16.8089194, 56.8028114 ], [ 16.8100936, 56.8031595 ], [ 16.8096626, 56.8056524 ], [ 16.8130381, 56.8060544 ], [ 16.8112738, 56.8085139 ], [ 16.81828, 56.81005 ], [ 16.8163568, 56.8105562 ], [ 16.8166366, 56.8121074 ], [ 16.8159314, 56.8121323 ], [ 16.8171907, 56.8131953 ], [ 16.8163098, 56.8147139 ], [ 16.8115763, 56.8155486 ], [ 16.8111769, 56.8173916 ], [ 16.8125357, 56.8171783 ], [ 16.8170134, 56.8187846 ], [ 16.8196283, 56.81778 ], [ 16.8204367, 56.8161505 ], [ 16.8222303, 56.8164176 ], [ 16.8272009, 56.815116 ], [ 16.8274252, 56.8137835 ], [ 16.8285573, 56.8140811 ], [ 16.8295814, 56.8157139 ], [ 16.8315885, 56.8149212 ], [ 16.8338477, 56.8161438 ], [ 16.8322153, 56.8172824 ], [ 16.8336589, 56.8179991 ], [ 16.8295996, 56.818115 ], [ 16.8291292, 56.8193237 ], [ 16.8273627, 56.8204162 ], [ 16.8271964, 56.8214774 ], [ 16.8294307, 56.8229598 ], [ 16.8305218, 56.8221545 ], [ 16.8303177, 56.8206563 ], [ 16.8370503, 56.8195467 ], [ 16.8402668, 56.8172544 ], [ 16.8420276, 56.8171841 ], [ 16.8428108, 56.8179349 ], [ 16.8450706, 56.8173229 ], [ 16.8452597, 56.8189071 ], [ 16.8480087, 56.8209314 ], [ 16.8478663, 56.823199 ], [ 16.8462841, 56.8238623 ], [ 16.84735, 56.8246368 ], [ 16.845282, 56.8257238 ], [ 16.8462393, 56.8284108 ], [ 16.8481021, 56.8286173 ], [ 16.8495853, 56.8309979 ], [ 16.8546622, 56.8322871 ], [ 16.8534297, 56.8329026 ], [ 16.8540743, 56.8334712 ], [ 16.8571285, 56.8322213 ], [ 16.8585739, 56.8336359 ], [ 16.8581096, 56.8351705 ], [ 16.8591159, 56.8359453 ], [ 16.8576332, 56.8378638 ], [ 16.8582168, 56.8405478 ], [ 16.8625293, 56.8414753 ], [ 16.8629874, 56.8426997 ], [ 16.8650383, 56.8431543 ], [ 16.8650297, 56.8440191 ], [ 16.8663831, 56.8444216 ], [ 16.8659395, 56.8446719 ], [ 16.8668884, 56.8444847 ], [ 16.8657801, 56.8448142 ], [ 16.8669008, 56.8459695 ], [ 16.8695424, 56.8459412 ], [ 16.868928, 56.8472103 ], [ 16.8663644, 56.846815 ], [ 16.8617951, 56.8493304 ], [ 16.86174, 56.8532 ], [ 16.8594378, 56.853683 ], [ 16.8594735, 56.8546034 ], [ 16.861553, 56.8545903 ], [ 16.8626822, 56.8567805 ], [ 16.8622219, 56.8582177 ], [ 16.8614114, 56.8590565 ], [ 16.8588869, 56.8592791 ], [ 16.8568511, 56.8629618 ], [ 16.8580838, 56.8642637 ], [ 16.8570823, 56.8666292 ], [ 16.8583971, 56.8680119 ], [ 16.8587369, 56.870627 ], [ 16.8580928, 56.871148 ], [ 16.8586598, 56.8720674 ], [ 16.86059, 56.87243 ], [ 16.8609441, 56.8740791 ], [ 16.8617021, 56.8741277 ], [ 16.860656, 56.8743296 ], [ 16.8613751, 56.874793 ], [ 16.8604105, 56.8750182 ], [ 16.8612197, 56.8750767 ], [ 16.8607784, 56.875555 ], [ 16.8645058, 56.8766891 ], [ 16.8637291, 56.8768974 ], [ 16.86463, 56.8778036 ], [ 16.8636089, 56.8790252 ], [ 16.8608245, 56.8794882 ], [ 16.8587426, 56.8807811 ], [ 16.8591596, 56.8815097 ], [ 16.8622217, 56.8818194 ], [ 16.8610868, 56.883053 ], [ 16.8621195, 56.8841926 ], [ 16.859397, 56.8834759 ], [ 16.8575452, 56.8838357 ], [ 16.8582415, 56.885873 ], [ 16.8594705, 56.8861363 ], [ 16.8581267, 56.8871653 ], [ 16.8585798, 56.8881469 ], [ 16.8639423, 56.8910601 ], [ 16.8632961, 56.8921378 ], [ 16.8652171, 56.8946196 ], [ 16.8676057, 56.8945722 ], [ 16.8683363, 56.8934115 ], [ 16.8722223, 56.8926565 ], [ 16.8727512, 56.8933882 ], [ 16.8718081, 56.8943206 ], [ 16.872067, 56.8952237 ], [ 16.8735607, 56.896377 ], [ 16.8720745, 56.8969775 ], [ 16.8728378, 56.8972166 ], [ 16.8719216, 56.9000656 ], [ 16.872306, 56.9011589 ], [ 16.8743085, 56.9021984 ], [ 16.87918, 56.90274 ], [ 16.8818573, 56.901109 ], [ 16.8839087, 56.9015665 ], [ 16.883641, 56.9026111 ], [ 16.8847407, 56.9027699 ], [ 16.8844078, 56.9046468 ], [ 16.8835147, 56.9049529 ], [ 16.8838831, 56.9080386 ], [ 16.8872966, 56.910107 ], [ 16.88806, 56.91171 ], [ 16.890016, 56.9116263 ], [ 16.8905864, 56.9138778 ], [ 16.8920913, 56.9141763 ], [ 16.8917171, 56.9160903 ], [ 16.8926586, 56.9163295 ], [ 16.8935544, 56.9182343 ], [ 16.8954979, 56.9180876 ], [ 16.8961503, 56.9189652 ], [ 16.8960199, 56.9216463 ], [ 16.89707, 56.9218837 ], [ 16.8979068, 56.9233949 ], [ 16.8959072, 56.9244569 ], [ 16.8965003, 56.9246584 ], [ 16.8949414, 56.924724 ], [ 16.8954397, 56.9251437 ], [ 16.8941912, 56.925824 ], [ 16.8951552, 56.926158 ], [ 16.8948993, 56.9270038 ], [ 16.8934933, 56.9267289 ], [ 16.8947665, 56.9274263 ], [ 16.893213, 56.9305348 ], [ 16.8891534, 56.9338064 ], [ 16.8907746, 56.934904 ], [ 16.8904339, 56.9373686 ], [ 16.891569, 56.938272 ], [ 16.8930362, 56.9376876 ], [ 16.892393, 56.9385134 ], [ 16.8931092, 56.9391052 ], [ 16.8959325, 56.9390458 ], [ 16.8958606, 56.9397618 ], [ 16.8974409, 56.9399898 ], [ 16.8964705, 56.9409856 ], [ 16.8974284, 56.9423793 ], [ 16.9002914, 56.9429889 ], [ 16.9029339, 56.9421247 ], [ 16.9025978, 56.9428245 ], [ 16.903617, 56.9433063 ], [ 16.9033217, 56.9451204 ], [ 16.9018087, 56.9466925 ], [ 16.8997764, 56.9474061 ], [ 16.8968069, 56.94673 ], [ 16.8897294, 56.9485973 ], [ 16.8894636, 56.9491146 ], [ 16.8906486, 56.9496329 ], [ 16.8891583, 56.9509052 ], [ 16.8890645, 56.9532456 ], [ 16.8903591, 56.9553485 ], [ 16.888969, 56.9560984 ], [ 16.8894481, 56.9573847 ], [ 16.8885946, 56.9561175 ], [ 16.8877639, 56.9562859 ], [ 16.8889752, 56.957144 ], [ 16.8879542, 56.9571796 ], [ 16.8885903, 56.9578919 ], [ 16.8873195, 56.9577118 ], [ 16.8875319, 56.9568195 ], [ 16.885465, 56.9568438 ], [ 16.8828869, 56.9587421 ], [ 16.8816919, 56.9607938 ], [ 16.8826865, 56.962103 ], [ 16.8876097, 56.9620947 ], [ 16.8880488, 56.9633881 ], [ 16.8873208, 56.9650808 ], [ 16.8858604, 56.9676274 ], [ 16.8799691, 56.9691161 ], [ 16.8778094, 56.9711329 ], [ 16.8781434, 56.9720053 ], [ 16.8773658, 56.9727568 ], [ 16.877921, 56.9737854 ], [ 16.8819052, 56.9740367 ], [ 16.884019, 56.9755825 ], [ 16.8833246, 56.9783523 ], [ 16.8844226, 56.9799522 ], [ 16.8860323, 56.9803374 ], [ 16.8855087, 56.9828407 ], [ 16.8872516, 56.9842294 ], [ 16.8896264, 56.9834502 ], [ 16.8893926, 56.9826139 ], [ 16.8908098, 56.9815359 ], [ 16.8907455, 56.9806659 ], [ 16.8937458, 56.9780531 ], [ 16.8941744, 56.9772193 ], [ 16.8929229, 56.9767352 ], [ 16.8937994, 56.9757842 ], [ 16.8930999, 56.9752389 ], [ 16.8936937, 56.9736751 ], [ 16.8929695, 56.9725459 ], [ 16.8946679, 56.9723623 ], [ 16.8960342, 56.9750109 ], [ 16.9013316, 56.975328 ], [ 16.896782, 56.9793134 ], [ 16.8968987, 56.9806428 ], [ 16.8939483, 56.9844633 ], [ 16.8946481, 56.985572 ], [ 16.9003413, 56.9848036 ], [ 16.9003236, 56.9835306 ], [ 16.9007415, 56.9846852 ], [ 16.9046506, 56.9859788 ], [ 16.9073301, 56.9895722 ], [ 16.9084926, 56.9899057 ], [ 16.9133774, 56.9898747 ], [ 16.9134809, 56.9882264 ], [ 16.9145029, 56.9875688 ], [ 16.9176217, 56.987721 ], [ 16.9180471, 56.988706 ], [ 16.9197954, 56.9884897 ], [ 16.9213795, 56.9871906 ], [ 16.92424, 56.98709 ], [ 16.9247645, 56.9890818 ], [ 16.9173165, 56.9958241 ], [ 16.9162077, 56.9972159 ], [ 16.9169372, 56.997401 ], [ 16.9159395, 56.9973059 ], [ 16.9166921, 56.9975242 ], [ 16.9142089, 56.9988556 ], [ 16.9149607, 57.0019098 ], [ 16.9171151, 57.0020654 ], [ 16.9181743, 57.0008766 ], [ 16.9230688, 56.998857 ], [ 16.9227034, 57.0018563 ], [ 16.9218484, 57.00292 ], [ 16.9230921, 57.004014 ], [ 16.9282143, 57.0033098 ], [ 16.9306385, 57.0050027 ], [ 16.9328808, 57.0050751 ], [ 16.9373998, 57.0028441 ], [ 16.9419462, 57.0050003 ], [ 16.9377844, 57.007698 ], [ 16.9358972, 57.010657 ], [ 16.9334554, 57.0111871 ], [ 16.9300978, 57.0144325 ], [ 16.9302257, 57.0152861 ], [ 16.9293096, 57.0151457 ], [ 16.9285315, 57.0167965 ], [ 16.9297615, 57.017778 ], [ 16.9285041, 57.0191304 ], [ 16.9295378, 57.0196922 ], [ 16.9366628, 57.0189566 ], [ 16.9359993, 57.0204812 ], [ 16.9373559, 57.0207604 ], [ 16.9360095, 57.021931 ], [ 16.9367868, 57.0224306 ], [ 16.9357922, 57.0234017 ], [ 16.9273781, 57.0240935 ], [ 16.9263235, 57.022922 ], [ 16.9264833, 57.0216962 ], [ 16.925006, 57.0208658 ], [ 16.9255982, 57.0202152 ], [ 16.9238505, 57.0194986 ], [ 16.9177804, 57.0190999 ], [ 16.9169234, 57.0199508 ], [ 16.9172672, 57.021545 ], [ 16.9158494, 57.0220928 ], [ 16.9144928, 57.0211182 ], [ 16.9152867, 57.0202421 ], [ 16.9103048, 57.0208848 ], [ 16.9101471, 57.0225896 ], [ 16.9074901, 57.023981 ], [ 16.9078135, 57.0246228 ], [ 16.9106384, 57.0244678 ], [ 16.9113465, 57.0226995 ], [ 16.9138877, 57.0213105 ], [ 16.916469, 57.0238339 ], [ 16.9150013, 57.024838 ], [ 16.9184286, 57.0245554 ], [ 16.9160243, 57.0289975 ], [ 16.9176959, 57.0325625 ], [ 16.9147047, 57.0334102 ], [ 16.9151789, 57.035083 ], [ 16.91433, 57.03602 ], [ 16.911751, 57.0381872 ], [ 16.9098654, 57.0380045 ], [ 16.9082813, 57.0389942 ], [ 16.9080882, 57.0405871 ], [ 16.909484, 57.0417116 ], [ 16.9146848, 57.0411572 ], [ 16.9170596, 57.0374625 ], [ 16.9194868, 57.0355661 ], [ 16.9190067, 57.0345019 ], [ 16.9202979, 57.0331621 ], [ 16.9219777, 57.0333498 ], [ 16.9207935, 57.0340118 ], [ 16.9210728, 57.0358361 ], [ 16.9222953, 57.0351567 ], [ 16.9241375, 57.0367296 ], [ 16.9263922, 57.0368832 ], [ 16.925087, 57.0373054 ], [ 16.9248244, 57.0375347 ], [ 16.926316, 57.0370007 ], [ 16.9266928, 57.0380103 ], [ 16.9292941, 57.0379292 ], [ 16.9296497, 57.0386939 ], [ 16.9314833, 57.0387776 ], [ 16.9340823, 57.0367891 ], [ 16.9359148, 57.0368729 ], [ 16.9357697, 57.0352397 ], [ 16.9370076, 57.0358059 ], [ 16.9361109, 57.0350464 ], [ 16.9389127, 57.0355115 ], [ 16.9390071, 57.0363199 ], [ 16.9403469, 57.036281 ], [ 16.9389715, 57.0368898 ], [ 16.9404011, 57.0377109 ], [ 16.9406307, 57.0390485 ], [ 16.9397852, 57.0394822 ], [ 16.94113, 57.04112 ], [ 16.9474531, 57.0377179 ], [ 16.9511881, 57.038634 ], [ 16.9542198, 57.037097 ], [ 16.9539489, 57.0391106 ], [ 16.9518844, 57.0412776 ], [ 16.9526687, 57.0419273 ], [ 16.952136, 57.0427727 ], [ 16.9534565, 57.0437142 ], [ 16.9529611, 57.0450129 ], [ 16.9538946, 57.0452905 ], [ 16.9533197, 57.0474088 ], [ 16.951646, 57.0476689 ], [ 16.9514569, 57.0469051 ], [ 16.9502904, 57.047456 ], [ 16.9507456, 57.0483458 ], [ 16.9493505, 57.0480479 ], [ 16.94656, 57.0498705 ], [ 16.9489077, 57.0505873 ], [ 16.9533505, 57.0478901 ], [ 16.9548131, 57.0483632 ], [ 16.9560764, 57.0469331 ], [ 16.9594855, 57.0466148 ], [ 16.9627155, 57.0453087 ], [ 16.9572483, 57.0493639 ], [ 16.9579693, 57.0502039 ], [ 16.9570957, 57.0514384 ], [ 16.9578247, 57.0519605 ], [ 16.9558839, 57.0537928 ], [ 16.9579282, 57.0541652 ], [ 16.9560947, 57.0560758 ], [ 16.958307, 57.0573416 ], [ 16.9571005, 57.0581966 ], [ 16.95877, 57.05915 ], [ 16.9564107, 57.0596542 ], [ 16.9570828, 57.0608166 ], [ 16.9649872, 57.0603503 ], [ 16.9705201, 57.0581561 ], [ 16.9706971, 57.0565867 ], [ 16.971627, 57.0564833 ], [ 16.9710965, 57.0560463 ], [ 16.9720897, 57.0563176 ], [ 16.9735426, 57.0551359 ], [ 16.9745074, 57.056072 ], [ 16.9770231, 57.0550509 ], [ 16.9748647, 57.0576526 ], [ 16.9755782, 57.0581114 ], [ 16.9751163, 57.0587209 ], [ 16.9691524, 57.0622005 ], [ 16.9679561, 57.0645774 ], [ 16.969596, 57.0675021 ], [ 16.9732822, 57.0691189 ], [ 16.9771572, 57.0694219 ], [ 16.980176, 57.0674725 ], [ 16.9822923, 57.067728 ], [ 16.9818299, 57.0699233 ], [ 16.9758279, 57.0738928 ], [ 16.9775099, 57.0748322 ], [ 16.9767873, 57.0753387 ], [ 16.9726712, 57.0747744 ], [ 16.9707429, 57.0759071 ], [ 16.9748666, 57.0762976 ], [ 16.9731717, 57.0772759 ], [ 16.9737814, 57.0780808 ], [ 16.9750128, 57.0779205 ], [ 16.9730936, 57.0789548 ], [ 16.9743677, 57.0812215 ], [ 16.9756503, 57.0815455 ], [ 16.9749728, 57.0826038 ], [ 16.976687, 57.0842134 ], [ 16.9760175, 57.0850629 ], [ 16.9783958, 57.0860781 ], [ 16.9751321, 57.0858411 ], [ 16.9758206, 57.088024 ], [ 16.9777379, 57.088857 ], [ 16.9808216, 57.0885826 ], [ 16.9855238, 57.0864371 ], [ 16.9852602, 57.087724 ], [ 16.9861831, 57.0886317 ], [ 16.9911723, 57.0891708 ], [ 16.9891563, 57.0916428 ], [ 16.9887602, 57.0929786 ], [ 16.9898015, 57.0933292 ], [ 16.9883338, 57.0950495 ], [ 16.98994, 57.09733 ], [ 16.9889695, 57.0982393 ], [ 16.9892973, 57.1001712 ], [ 16.9885286, 57.1012667 ], [ 16.9902902, 57.1036058 ], [ 16.9903208, 57.1054078 ], [ 16.9913621, 57.1061373 ], [ 16.99368, 57.1057967 ], [ 16.9946102, 57.1068857 ], [ 16.9959411, 57.1055374 ], [ 16.9973235, 57.1057102 ], [ 16.9961428, 57.107408 ], [ 16.9964663, 57.1087207 ], [ 17.0034749, 57.1067161 ], [ 16.9982843, 57.1088782 ], [ 16.9949793, 57.1090776 ], [ 16.9971739, 57.1092519 ], [ 16.9944573, 57.1105122 ], [ 16.9960082, 57.1110494 ], [ 16.9951526, 57.1124735 ], [ 16.9969089, 57.1128536 ], [ 16.99719, 57.11399 ], [ 17.0011575, 57.1135443 ], [ 17.0020925, 57.1127965 ], [ 17.0018758, 57.1118668 ], [ 17.0039802, 57.1116425 ], [ 17.0064688, 57.1096847 ], [ 17.0059989, 57.1118705 ], [ 17.0037812, 57.1147568 ], [ 17.0056663, 57.1163739 ], [ 17.0080331, 57.1167703 ], [ 17.009026, 57.1175721 ], [ 17.0091515, 57.1190178 ], [ 17.009983, 57.11894 ], [ 17.0087401, 57.1208301 ], [ 17.0094643, 57.1211093 ], [ 17.0083431, 57.1213741 ], [ 17.0073008, 57.1239104 ], [ 17.0079875, 57.1244343 ], [ 17.0115838, 57.1236227 ], [ 17.0102716, 57.1258646 ], [ 17.0121728, 57.1263657 ], [ 17.0128482, 57.1277368 ], [ 17.0178896, 57.1267268 ], [ 17.01855, 57.1269393 ], [ 17.0180034, 57.1273615 ], [ 17.0195751, 57.1274052 ], [ 17.0238737, 57.124715 ], [ 17.0251579, 57.1212593 ], [ 17.0246569, 57.1206603 ], [ 17.0245877, 57.1196465 ], [ 17.0253124, 57.1210456 ], [ 17.0267801, 57.1204917 ], [ 17.0237508, 57.1265653 ], [ 17.0268084, 57.1275797 ], [ 17.0260033, 57.1278052 ], [ 17.0261852, 57.1297851 ], [ 17.0268815, 57.1298288 ], [ 17.0260822, 57.1321224 ], [ 17.0245067, 57.1330263 ], [ 17.0245123, 57.1347755 ], [ 17.0258429, 57.1349321 ], [ 17.0236003, 57.1352143 ], [ 17.0210702, 57.1380001 ], [ 17.0214586, 57.1386335 ], [ 17.0244729, 57.1384916 ], [ 17.0252019, 57.1393629 ], [ 17.0244613, 57.1403125 ], [ 17.0270542, 57.1424832 ], [ 17.0293341, 57.1420736 ], [ 17.033429, 57.1395979 ], [ 17.0332584, 57.1405477 ], [ 17.0342876, 57.1408475 ], [ 17.032486, 57.1411362 ], [ 17.0312355, 57.1429931 ], [ 17.0292271, 57.1440084 ], [ 17.0304064, 57.1443115 ], [ 17.0305038, 57.1455557 ], [ 17.0322352, 57.1465258 ], [ 17.038643, 57.1447661 ], [ 17.036837, 57.1459788 ], [ 17.0378217, 57.1470371 ], [ 17.036344, 57.1487876 ], [ 17.0390195, 57.1502894 ], [ 17.0434763, 57.1493222 ], [ 17.0463742, 57.1468543 ], [ 17.0457168, 57.1465594 ], [ 17.0477534, 57.1461684 ], [ 17.0478907, 57.1469294 ], [ 17.0451731, 57.1486414 ], [ 17.0461574, 57.1488457 ], [ 17.0452584, 57.149661 ], [ 17.0346084, 57.150998 ], [ 17.0320871, 57.1523756 ], [ 17.0319734, 57.1537565 ], [ 17.0335183, 57.1535092 ], [ 17.0348224, 57.154591 ], [ 17.0434087, 57.1543739 ], [ 17.0424453, 57.1558874 ], [ 17.0409057, 57.1556995 ], [ 17.03776, 57.15853 ], [ 17.0334245, 57.160256 ], [ 17.0324063, 57.1622416 ], [ 17.0355531, 57.1634907 ], [ 17.0354286, 57.1644954 ], [ 17.0390533, 57.1642249 ], [ 17.0391971, 57.1649361 ], [ 17.0447353, 57.1621075 ], [ 17.0480634, 57.1594298 ], [ 17.0404194, 57.1672817 ], [ 17.0420963, 57.1693495 ], [ 17.0446562, 57.1695317 ], [ 17.0430994, 57.1717768 ], [ 17.0442313, 57.1732934 ], [ 17.0492899, 57.1756328 ], [ 17.0593024, 57.1771216 ], [ 17.0617051, 57.1767648 ], [ 17.0708499, 57.1726657 ], [ 17.0700897, 57.1736359 ], [ 17.0710505, 57.1741875 ], [ 17.0697384, 57.1752353 ], [ 17.0732027, 57.1757183 ], [ 17.0716331, 57.1774876 ], [ 17.074069, 57.1785466 ], [ 17.0741903, 57.1805685 ], [ 17.0727462, 57.1816379 ], [ 17.0711771, 57.1846097 ], [ 17.069497, 57.1904489 ], [ 17.0714469, 57.191667 ], [ 17.0697292, 57.1922882 ], [ 17.0703381, 57.1946072 ], [ 17.0676698, 57.1956835 ], [ 17.0673576, 57.197807 ], [ 17.0685913, 57.2029066 ], [ 17.0769515, 57.2037807 ], [ 17.0760175, 57.2043996 ], [ 17.0739509, 57.2040137 ], [ 17.0720648, 57.2058409 ], [ 17.0699831, 57.205646 ], [ 17.0694738, 57.2067202 ], [ 17.0708385, 57.2089421 ], [ 17.0732243, 57.2089377 ], [ 17.0729869, 57.209836 ], [ 17.0739211, 57.2103496 ], [ 17.0758904, 57.2100728 ], [ 17.0738189, 57.2107245 ], [ 17.0745, 57.21274 ], [ 17.0790425, 57.2142712 ], [ 17.07678, 57.21552 ], [ 17.0773442, 57.2188848 ], [ 17.0766371, 57.2200102 ], [ 17.0775212, 57.2207558 ], [ 17.0766548, 57.221984 ], [ 17.0781569, 57.2240462 ], [ 17.0777658, 57.2254753 ], [ 17.0805585, 57.2264678 ], [ 17.0813439, 57.2275655 ], [ 17.0801943, 57.2279598 ], [ 17.0799395, 57.2295269 ], [ 17.0813696, 57.2301872 ], [ 17.0810183, 57.2308257 ], [ 17.0819726, 57.2318637 ], [ 17.0809652, 57.2336803 ], [ 17.0791568, 57.23364 ], [ 17.080131, 57.2346315 ], [ 17.0761447, 57.2357474 ], [ 17.0745209, 57.237494 ], [ 17.0747634, 57.2395355 ], [ 17.0783257, 57.239948 ], [ 17.078846, 57.2408506 ], [ 17.078305, 57.240076 ], [ 17.0754238, 57.2397806 ], [ 17.0768145, 57.240507 ], [ 17.0753525, 57.240153 ], [ 17.0751558, 57.2410105 ], [ 17.0782173, 57.2409842 ], [ 17.074433, 57.241163 ], [ 17.0738053, 57.2418452 ], [ 17.0755649, 57.2433226 ], [ 17.0815569, 57.2427653 ], [ 17.080763, 57.2435693 ], [ 17.0757741, 57.243681 ], [ 17.075759, 57.2477613 ], [ 17.072653, 57.2474261 ], [ 17.0710592, 57.2463184 ], [ 17.0690718, 57.2465983 ], [ 17.0660109, 57.2499549 ], [ 17.0580869, 57.2551029 ], [ 17.0550613, 57.2593854 ], [ 17.0543526, 57.2633153 ], [ 17.0561551, 57.2693682 ], [ 17.0563695, 57.2754377 ], [ 17.057755, 57.2780293 ], [ 17.0630902, 57.2829898 ], [ 17.0666426, 57.2848694 ], [ 17.0694052, 57.2885077 ], [ 17.0826478, 57.2974277 ], [ 17.0928527, 57.3026469 ], [ 17.1006773, 57.3043859 ], [ 17.1127493, 57.3087189 ], [ 17.1258573, 57.3112372 ], [ 17.1363893, 57.3111635 ], [ 17.1460518, 57.3086429 ], [ 17.1505261, 57.309046 ], [ 17.1463869, 57.3123703 ], [ 17.1414168, 57.3179656 ], [ 17.1385699, 57.3274454 ], [ 17.1347976, 57.3321603 ], [ 17.1335053, 57.3352401 ], [ 17.1280749, 57.3394722 ], [ 17.1281157, 57.3431397 ], [ 17.1268738, 57.3455618 ], [ 17.1286006, 57.3491983 ], [ 17.1257478, 57.3557276 ], [ 17.1178616, 57.3616829 ], [ 17.1164197, 57.361619 ], [ 17.1166723, 57.3609819 ], [ 17.114261, 57.3571895 ], [ 17.1141087, 57.355253 ], [ 17.117727, 57.3545776 ], [ 17.1192848, 57.3525525 ], [ 17.1179474, 57.3476522 ], [ 17.11895, 57.34593 ], [ 17.1108589, 57.3432074 ], [ 17.113628, 57.3425202 ], [ 17.110853, 57.3387945 ], [ 17.1130808, 57.3373823 ], [ 17.1134322, 57.3360464 ], [ 17.1087469, 57.33373 ], [ 17.1006558, 57.3335944 ], [ 17.0987311, 57.3343821 ], [ 17.0992916, 57.3353514 ], [ 17.0974793, 57.3346913 ], [ 17.09919, 57.3359154 ], [ 17.0983381, 57.336286 ], [ 17.0987667, 57.3366358 ], [ 17.0973143, 57.3364796 ], [ 17.0978148, 57.3378116 ], [ 17.094462, 57.3395435 ], [ 17.0921715, 57.3392822 ], [ 17.0915718, 57.3400716 ], [ 17.092547, 57.3405128 ], [ 17.0910096, 57.3409051 ], [ 17.0900566, 57.3426581 ], [ 17.0883418, 57.3430237 ], [ 17.0873449, 57.3448536 ], [ 17.0857559, 57.3451335 ], [ 17.084977, 57.3462584 ], [ 17.0876105, 57.346941 ], [ 17.0876474, 57.3481558 ], [ 17.0884349, 57.348547 ], [ 17.0929413, 57.3480176 ], [ 17.0877614, 57.3495235 ], [ 17.087803, 57.3502375 ], [ 17.0850899, 57.3521407 ], [ 17.08398, 57.352163 ], [ 17.0839695, 57.3541991 ], [ 17.0814099, 57.3527486 ], [ 17.0807056, 57.3539108 ], [ 17.0764347, 57.3552956 ], [ 17.0772193, 57.3567164 ], [ 17.0747074, 57.3577818 ], [ 17.0755786, 57.3606071 ], [ 17.078029, 57.3614642 ], [ 17.0787125, 57.362731 ], [ 17.0806629, 57.3614068 ], [ 17.0834522, 57.3621965 ], [ 17.0841997, 57.3607144 ], [ 17.0854408, 57.3615954 ], [ 17.0883712, 57.3616315 ], [ 17.0858365, 57.3620307 ], [ 17.0860554, 57.3645596 ], [ 17.0931736, 57.3666779 ], [ 17.0921491, 57.3670208 ], [ 17.0924922, 57.3676356 ], [ 17.0889074, 57.3686545 ], [ 17.0819581, 57.3687957 ], [ 17.0690944, 57.3659402 ], [ 17.0681034, 57.3649141 ], [ 17.0664195, 57.3650327 ], [ 17.0668111, 57.3656522 ], [ 17.0660485, 57.3661718 ], [ 17.0636444, 57.3626103 ], [ 17.0646102, 57.3617396 ], [ 17.0631536, 57.3629531 ], [ 17.0475724, 57.3550934 ], [ 17.0335507, 57.3508423 ], [ 17.0196918, 57.3437657 ], [ 17.0079462, 57.3328613 ], [ 17.0062143, 57.3292218 ], [ 17.0033544, 57.3275319 ], [ 17.0047063, 57.327196 ], [ 17.0046607, 57.3276912 ], [ 17.0068182, 57.3285943 ], [ 17.0070402, 57.3281375 ], [ 17.0058202, 57.3280048 ], [ 17.0070228, 57.3276519 ], [ 17.0056858, 57.3276138 ], [ 17.0066544, 57.3273553 ], [ 17.0066965, 57.3256597 ], [ 17.0035636, 57.3265936 ], [ 17.0064765, 57.3254439 ], [ 17.0053396, 57.3236437 ], [ 17.0003128, 57.322095 ], [ 16.9964553, 57.3220586 ], [ 16.995757, 57.3212485 ], [ 16.9961048, 57.3203536 ], [ 16.9952516, 57.3202766 ], [ 16.9954517, 57.3191282 ], [ 16.9915057, 57.3161155 ], [ 16.9847478, 57.3125886 ], [ 16.9786749, 57.306295 ], [ 16.9786464, 57.3053972 ], [ 16.9764394, 57.3040319 ], [ 16.9746286, 57.3008556 ], [ 16.95976, 57.29192 ], [ 16.957279, 57.2876206 ], [ 16.9560897, 57.2833135 ], [ 16.9580386, 57.2772939 ], [ 16.9568611, 57.2699962 ], [ 16.956315, 57.268662 ], [ 16.9543441, 57.2674377 ], [ 16.9558869, 57.2662261 ], [ 16.9563215, 57.2628686 ], [ 16.9557056, 57.260765 ], [ 16.9535915, 57.2583285 ], [ 16.952804, 57.2548462 ], [ 16.9546875, 57.2500692 ], [ 16.9584136, 57.2460686 ], [ 16.9604778, 57.2386808 ], [ 16.95979, 57.22994 ], [ 16.9592016, 57.2285987 ], [ 16.957258, 57.228142 ], [ 16.9583724, 57.2281362 ], [ 16.9506363, 57.2225382 ], [ 16.94147, 57.2141 ], [ 16.9306367, 57.2068463 ], [ 16.9194668, 57.2041723 ], [ 16.9155126, 57.2037894 ], [ 16.9127773, 57.2045924 ], [ 16.90835, 57.20334 ], [ 16.9069181, 57.20079 ], [ 16.9051233, 57.199876 ], [ 16.9045607, 57.1980433 ], [ 16.9013877, 57.1963477 ], [ 16.901241, 57.19469 ], [ 16.9031132, 57.1921888 ], [ 16.9092748, 57.18867 ], [ 16.909967, 57.182138 ], [ 16.9193117, 57.1714907 ], [ 16.9190337, 57.1703138 ], [ 16.9197509, 57.1702513 ], [ 16.9207451, 57.166599 ], [ 16.9209198, 57.1618689 ], [ 16.9194017, 57.1564343 ], [ 16.9171124, 57.1527363 ], [ 16.9074894, 57.1440063 ], [ 16.9049931, 57.1406294 ], [ 16.9011267, 57.1329617 ], [ 16.9012756, 57.1294122 ], [ 16.897499, 57.1212378 ], [ 16.8964251, 57.1152095 ], [ 16.8968971, 57.1127293 ], [ 16.8952679, 57.1114453 ], [ 16.8933518, 57.1115837 ], [ 16.8935191, 57.1106742 ], [ 16.8914909, 57.1107611 ], [ 16.8904582, 57.1099603 ], [ 16.8913514, 57.1093426 ], [ 16.8882529, 57.1078218 ], [ 16.8860352, 57.0976547 ], [ 16.8844458, 57.0963798 ], [ 16.8766438, 57.0940138 ], [ 16.8668698, 57.0874097 ], [ 16.8570089, 57.0765765 ], [ 16.8551236, 57.0725905 ], [ 16.8530049, 57.0719509 ], [ 16.8534203, 57.0708443 ], [ 16.8553004, 57.0714804 ], [ 16.855431, 57.0706198 ], [ 16.8545194, 57.0705363 ], [ 16.8554314, 57.0705859 ], [ 16.8549501, 57.0701147 ], [ 16.8555275, 57.0697531 ], [ 16.8546952, 57.0694785 ], [ 16.8534367, 57.0706218 ], [ 16.8542822, 57.0693901 ], [ 16.8528735, 57.0685188 ], [ 16.8433972, 57.0663507 ], [ 16.8411925, 57.0623911 ], [ 16.8374808, 57.0589935 ], [ 16.8351039, 57.050099 ], [ 16.8277889, 57.0443693 ], [ 16.824559, 57.0402477 ], [ 16.8236868, 57.0363825 ], [ 16.8241696, 57.0328371 ], [ 16.8228285, 57.0291183 ], [ 16.8229111, 57.0281278 ], [ 16.8244414, 57.0274275 ], [ 16.8251612, 57.024173 ], [ 16.8246116, 57.0221322 ], [ 16.8254313, 57.0189803 ], [ 16.8247865, 57.0180706 ], [ 16.8221794, 57.0163152 ], [ 16.8166787, 57.0146044 ], [ 16.81279, 57.0114612 ], [ 16.8114167, 57.0093795 ], [ 16.7994203, 57.0053671 ], [ 16.7960048, 57.0030411 ], [ 16.7890648, 56.9959732 ], [ 16.7817295, 56.9914526 ], [ 16.7817681, 56.9898216 ], [ 16.7770335, 56.9868309 ], [ 16.7727822, 56.9823946 ], [ 16.7734495, 56.9817346 ], [ 16.7715843, 56.9792344 ], [ 16.7709856, 56.9712485 ], [ 16.7682456, 56.96972 ], [ 16.7651095, 56.9641418 ], [ 16.7626654, 56.9625883 ], [ 16.7633934, 56.9624132 ], [ 16.7615209, 56.9611321 ], [ 16.7570183, 56.954984 ], [ 16.7497474, 56.949618 ], [ 16.7465137, 56.9440223 ], [ 16.7381447, 56.9379552 ], [ 16.73725, 56.93541 ], [ 16.7356454, 56.9347921 ], [ 16.7328645, 56.9317829 ], [ 16.7318, 56.92908 ], [ 16.7317948, 56.9261049 ], [ 16.7312203, 56.9259246 ], [ 16.7318871, 56.9259756 ], [ 16.7319032, 56.9246292 ], [ 16.7311489, 56.9240082 ], [ 16.7324552, 56.923293 ], [ 16.73243, 56.9224 ], [ 16.7308898, 56.9213452 ], [ 16.7307514, 56.9200727 ], [ 16.7295782, 56.9197941 ], [ 16.7301485, 56.9192029 ], [ 16.7288396, 56.9175309 ], [ 16.7294672, 56.9171079 ], [ 16.7271283, 56.9154034 ], [ 16.7276744, 56.9153061 ], [ 16.726498, 56.91382 ], [ 16.7275129, 56.9119074 ], [ 16.7265908, 56.9109157 ], [ 16.7274048, 56.9100629 ], [ 16.7272227, 56.9083132 ], [ 16.7265181, 56.9077764 ], [ 16.7266254, 56.9064289 ], [ 16.7253288, 56.9059654 ], [ 16.7256799, 56.9048664 ], [ 16.7239813, 56.9020824 ], [ 16.7248203, 56.9012508 ], [ 16.7239142, 56.9000269 ], [ 16.7246035, 56.899635 ], [ 16.7241639, 56.8980161 ], [ 16.7223813, 56.896211 ], [ 16.7231356, 56.8902253 ], [ 16.7212363, 56.8894561 ], [ 16.7199187, 56.8878401 ], [ 16.7214054, 56.8884374 ], [ 16.7201578, 56.8877355 ], [ 16.7211757, 56.8875059 ], [ 16.7206612, 56.8854797 ], [ 16.7212556, 56.8840964 ], [ 16.7158687, 56.8815709 ], [ 16.7079336, 56.8806865 ], [ 16.7048493, 56.8824723 ], [ 16.7023681, 56.8821776 ], [ 16.6986607, 56.8839041 ], [ 16.6980704, 56.8831613 ], [ 16.6971897, 56.8831827 ], [ 16.6981656, 56.8835242 ], [ 16.69489, 56.8848736 ], [ 16.6925705, 56.8840264 ], [ 16.6902336, 56.8843832 ], [ 16.6911897, 56.8839607 ], [ 16.6902668, 56.8839779 ], [ 16.6910416, 56.8836188 ], [ 16.6901421, 56.883158 ], [ 16.6865852, 56.8842313 ], [ 16.6824373, 56.8832881 ], [ 16.6799146, 56.8852246 ], [ 16.6763716, 56.8839743 ], [ 16.6715158, 56.8858029 ], [ 16.6696513, 56.8853427 ], [ 16.6703394, 56.8832879 ], [ 16.6693828, 56.8829576 ], [ 16.6663974, 56.8831293 ], [ 16.6655518, 56.8839028 ], [ 16.6633757, 56.8832865 ], [ 16.6604566, 56.884356 ], [ 16.6563035, 56.8840678 ], [ 16.6558181, 56.8844128 ], [ 16.65776, 56.88578 ], [ 16.6569313, 56.8863505 ], [ 16.6584503, 56.8867569 ], [ 16.6547791, 56.8871022 ], [ 16.6512, 56.88561 ], [ 16.6506372, 56.8850646 ], [ 16.6516868, 56.8847492 ], [ 16.6514053, 56.8840598 ], [ 16.6472906, 56.8841982 ], [ 16.6434377, 56.881485 ], [ 16.6460594, 56.8826246 ], [ 16.6461182, 56.8818863 ], [ 16.6478165, 56.8815863 ], [ 16.6474002, 56.881135 ], [ 16.6474441, 56.8809119 ], [ 16.6496032, 56.8813943 ], [ 16.650548, 56.8801959 ], [ 16.6492135, 56.8790256 ], [ 16.6487989, 56.8797305 ], [ 16.6474533, 56.8792328 ], [ 16.6484928, 56.88011 ], [ 16.6471433, 56.879403 ], [ 16.645493, 56.8809274 ], [ 16.6470703, 56.8793531 ], [ 16.6462498, 56.878602 ], [ 16.6413454, 56.8790996 ], [ 16.6384687, 56.8764963 ], [ 16.6374417, 56.8774876 ], [ 16.6357202, 56.8764568 ], [ 16.6324434, 56.8770984 ], [ 16.6317047, 56.8756669 ], [ 16.6322017, 56.8751562 ], [ 16.6306442, 56.8752512 ], [ 16.6324944, 56.8747921 ], [ 16.6332137, 56.8737145 ], [ 16.6318702, 56.8737868 ], [ 16.6312477, 56.8725224 ], [ 16.6255828, 56.8697902 ], [ 16.6261426, 56.8689008 ], [ 16.6238311, 56.8686386 ], [ 16.6224106, 56.8675584 ], [ 16.6234296, 56.8676162 ], [ 16.6234167, 56.8663388 ], [ 16.6193285, 56.8654581 ], [ 16.6209477, 56.8647764 ], [ 16.618284, 56.861749 ], [ 16.6180997, 56.8605698 ], [ 16.6191353, 56.8602679 ], [ 16.6147258, 56.8587337 ], [ 16.6152735, 56.8577956 ], [ 16.6146673, 56.8566167 ], [ 16.6139125, 56.856655 ], [ 16.6133345, 56.8552386 ], [ 16.6109138, 56.853679 ], [ 16.6114736, 56.8535545 ], [ 16.6113564, 56.853381 ], [ 16.6098501, 56.8530675 ], [ 16.6103838, 56.8523375 ], [ 16.6086726, 56.8508842 ], [ 16.6091637, 56.8506743 ], [ 16.6070785, 56.8503966 ], [ 16.6069758, 56.8492394 ], [ 16.6039615, 56.846729 ], [ 16.6050856, 56.8453349 ], [ 16.6024557, 56.8445289 ], [ 16.6037544, 56.8438858 ], [ 16.6018996, 56.8426271 ], [ 16.6027614, 56.8417768 ], [ 16.6010818, 56.8417256 ], [ 16.6029725, 56.840571 ], [ 16.6011639, 56.8399193 ], [ 16.6022341, 56.8396869 ], [ 16.6013055, 56.8396428 ], [ 16.600241, 56.8382682 ], [ 16.6006658, 56.8377551 ], [ 16.5997177, 56.8368161 ], [ 16.6009617, 56.8368142 ], [ 16.5999301, 56.8359462 ], [ 16.6006816, 56.8355645 ], [ 16.5982628, 56.8346114 ], [ 16.5983135, 56.8340503 ], [ 16.5968174, 56.8342566 ], [ 16.5965376, 56.8337891 ], [ 16.5980128, 56.83298 ], [ 16.59562, 56.8316823 ], [ 16.5962034, 56.8308339 ], [ 16.5952016, 56.8308928 ], [ 16.5958132, 56.8304674 ], [ 16.5937108, 56.8299945 ], [ 16.5942481, 56.8281815 ], [ 16.5917652, 56.8282909 ], [ 16.5932254, 56.8276167 ], [ 16.5913607, 56.8277289 ], [ 16.592388, 56.827078 ], [ 16.5896773, 56.8254606 ], [ 16.5902307, 56.8245621 ], [ 16.588344, 56.8242176 ], [ 16.5885948, 56.8228442 ], [ 16.585267, 56.821244 ], [ 16.5868074, 56.8202782 ], [ 16.5853727, 56.8193619 ], [ 16.5859159, 56.818591 ], [ 16.5839781, 56.8176416 ], [ 16.5833997, 56.8164776 ], [ 16.5821723, 56.8165701 ], [ 16.5833215, 56.8159792 ], [ 16.5807236, 56.8143543 ], [ 16.5812737, 56.8140309 ], [ 16.5808169, 56.8135121 ], [ 16.5797117, 56.8136683 ], [ 16.5794787, 56.8125939 ], [ 16.5778599, 56.8120983 ], [ 16.5784536, 56.8114264 ], [ 16.576562, 56.8098871 ], [ 16.5767614, 56.8085101 ], [ 16.5740196, 56.8067724 ], [ 16.5743812, 56.8053891 ], [ 16.5731933, 56.8048478 ], [ 16.57474, 56.8040215 ], [ 16.573866, 56.8030818 ], [ 16.5743461, 56.8026839 ], [ 16.5702021, 56.8014589 ], [ 16.5710722, 56.8005773 ], [ 16.5702512, 56.7986443 ], [ 16.5654262, 56.7990101 ], [ 16.5684124, 56.7969592 ], [ 16.5665425, 56.7950958 ], [ 16.5646266, 56.7954526 ], [ 16.5651331, 56.794592 ], [ 16.5610048, 56.7944326 ], [ 16.5606557, 56.7973801 ], [ 16.5617877, 56.7977836 ], [ 16.5609297, 56.7978789 ], [ 16.5608637, 56.7989161 ], [ 16.55959, 56.79742 ], [ 16.5589348, 56.7901862 ], [ 16.554586, 56.7862992 ], [ 16.5494742, 56.7793483 ], [ 16.5488016, 56.7757937 ], [ 16.54435, 56.77315 ], [ 16.543987, 56.7721547 ], [ 16.5418734, 56.7723943 ], [ 16.54154, 56.7713806 ], [ 16.5426896, 56.7712133 ], [ 16.5430976, 56.7700429 ], [ 16.5427677, 56.7687021 ], [ 16.5410309, 56.7679532 ], [ 16.5417444, 56.7672457 ], [ 16.5411771, 56.76556 ], [ 16.5381856, 56.7640768 ], [ 16.5378171, 56.7621385 ], [ 16.5352813, 56.7613124 ], [ 16.535136, 56.7604756 ], [ 16.5316217, 56.7589265 ], [ 16.5295339, 56.7591053 ], [ 16.5262177, 56.7574205 ], [ 16.5260228, 56.7565981 ], [ 16.5286356, 56.7557667 ], [ 16.5270946, 56.7546826 ], [ 16.5275761, 56.7537405 ], [ 16.5252078, 56.7527626 ], [ 16.5261099, 56.7518258 ], [ 16.5244903, 56.7509038 ], [ 16.5231559, 56.7467418 ], [ 16.5199426, 56.746252 ], [ 16.5194882, 56.7450208 ], [ 16.5153965, 56.7450634 ], [ 16.5128988, 56.7437723 ], [ 16.5179315, 56.7429327 ], [ 16.5196695, 56.7415648 ], [ 16.519499, 56.7406548 ], [ 16.5156503, 56.7395737 ], [ 16.5150636, 56.7384104 ], [ 16.5140229, 56.7390731 ], [ 16.5131298, 56.7387311 ], [ 16.5162921, 56.7378102 ], [ 16.5158031, 56.7373075 ], [ 16.5167883, 56.7356634 ], [ 16.516191, 56.7344871 ], [ 16.5145945, 56.7343144 ], [ 16.51499, 56.73318 ], [ 16.5136736, 56.7324826 ], [ 16.5102391, 56.7327169 ], [ 16.5105009, 56.7317855 ], [ 16.5140046, 56.7313837 ], [ 16.5142291, 56.7294925 ], [ 16.5113991, 56.7286119 ], [ 16.5123497, 56.7272493 ], [ 16.5100113, 56.725342 ], [ 16.507364, 56.7247413 ], [ 16.506613, 56.7230501 ], [ 16.504924, 56.7233126 ], [ 16.5056198, 56.7193646 ], [ 16.5043066, 56.7191277 ], [ 16.5050195, 56.7179974 ], [ 16.5028544, 56.7177721 ], [ 16.5027525, 56.716905 ], [ 16.501653, 56.7166414 ], [ 16.5032117, 56.7148372 ], [ 16.5018534, 56.7142841 ], [ 16.5021211, 56.7137952 ], [ 16.4947908, 56.7128147 ], [ 16.496037, 56.7122541 ], [ 16.494149, 56.7115349 ], [ 16.4935252, 56.7104868 ], [ 16.4944856, 56.7099907 ], [ 16.4930362, 56.7091288 ], [ 16.4949711, 56.7087032 ], [ 16.4944543, 56.7066913 ], [ 16.4933492, 56.7064896 ], [ 16.4945809, 56.7058798 ], [ 16.485581, 56.7005695 ], [ 16.4845454, 56.6990737 ], [ 16.4849389, 56.6982505 ], [ 16.4826896, 56.6980625 ], [ 16.4844115, 56.6974924 ], [ 16.4848968, 56.6960322 ], [ 16.4788427, 56.6934217 ], [ 16.4803673, 56.6926298 ], [ 16.4811497, 56.6908326 ], [ 16.4796391, 56.6890871 ], [ 16.4774728, 56.6883876 ], [ 16.4776551, 56.6839073 ], [ 16.4748725, 56.6823215 ], [ 16.4750447, 56.6814564 ], [ 16.4742272, 56.6809684 ], [ 16.4756646, 56.6789095 ], [ 16.4719859, 56.6799373 ], [ 16.4752689, 56.6775635 ], [ 16.4745201, 56.6766267 ], [ 16.4713991, 56.6758727 ], [ 16.4754583, 56.6735179 ], [ 16.4737245, 56.6717006 ], [ 16.4747379, 56.6696789 ], [ 16.472487, 56.6681293 ], [ 16.4710654, 56.6682664 ], [ 16.4723416, 56.6680612 ], [ 16.47212, 56.66737 ], [ 16.46923, 56.6674879 ], [ 16.4698775, 56.6670537 ], [ 16.4691581, 56.6671869 ], [ 16.4690755, 56.6661813 ], [ 16.4718337, 56.6650755 ], [ 16.4721844, 56.6638879 ], [ 16.4681793, 56.6622117 ], [ 16.4709482, 56.6610545 ], [ 16.4693998, 56.6597354 ], [ 16.4710206, 56.6593488 ], [ 16.4705579, 56.658457 ], [ 16.4717917, 56.6580708 ], [ 16.4725991, 56.656534 ], [ 16.4716394, 56.6554172 ], [ 16.468465, 56.6545578 ], [ 16.4679438, 56.6537586 ], [ 16.4685106, 56.6531636 ], [ 16.4615259, 56.6520846 ], [ 16.4600618, 56.6508612 ], [ 16.4612329, 56.6509353 ], [ 16.4606903, 56.6511807 ], [ 16.4617252, 56.6519593 ], [ 16.4645388, 56.6519751 ], [ 16.4619069, 56.6509706 ], [ 16.4643185, 56.6505969 ], [ 16.4634688, 56.6496239 ], [ 16.4597824, 56.6503846 ], [ 16.4622174, 56.6490043 ], [ 16.4620607, 56.6479587 ], [ 16.4600842, 56.6467816 ], [ 16.4615444, 56.6464692 ], [ 16.4621414, 56.6454138 ], [ 16.4601098, 56.6434406 ], [ 16.458921, 56.6432462 ], [ 16.4593387, 56.6417192 ], [ 16.457898, 56.6393246 ], [ 16.4582789, 56.6385559 ], [ 16.4570054, 56.6374618 ], [ 16.4605001, 56.6369169 ], [ 16.4591056, 56.6366392 ], [ 16.45901, 56.635 ], [ 16.4540711, 56.6310177 ], [ 16.4541636, 56.6300765 ], [ 16.4527109, 56.6295753 ], [ 16.4519958, 56.6274597 ], [ 16.4489947, 56.6259604 ], [ 16.450614, 56.6252338 ], [ 16.4499096, 56.6244368 ], [ 16.4471896, 56.6239445 ], [ 16.4487222, 56.6233736 ], [ 16.4461049, 56.6223609 ], [ 16.4446656, 56.620717 ], [ 16.4462371, 56.6202277 ], [ 16.4438215, 56.6189269 ], [ 16.444318, 56.6175987 ], [ 16.4393165, 56.6146361 ], [ 16.4375084, 56.6149423 ], [ 16.4381664, 56.613752 ], [ 16.4374312, 56.6121957 ], [ 16.4348412, 56.612157 ], [ 16.4315078, 56.6101119 ], [ 16.4301313, 56.6107927 ], [ 16.4330029, 56.6088627 ], [ 16.4330873, 56.6072077 ], [ 16.4297048, 56.6042125 ], [ 16.4245633, 56.6020652 ], [ 16.419205, 56.600882 ], [ 16.4161449, 56.6013574 ], [ 16.4122871, 56.6006208 ], [ 16.4054448, 56.6019431 ], [ 16.4056009, 56.6024457 ], [ 16.4005294, 56.604644 ], [ 16.3974639, 56.6035042 ], [ 16.3946784, 56.6039356 ], [ 16.401455, 56.6016996 ], [ 16.4066193, 56.5989294 ], [ 16.4114661, 56.5947597 ], [ 16.4139729, 56.5913468 ], [ 16.4099903, 56.5875297 ], [ 16.4078818, 56.5843039 ], [ 16.4047517, 56.5764918 ], [ 16.3951386, 56.5605592 ], [ 16.3906679, 56.5516 ], [ 16.3892464, 56.5431314 ], [ 16.3904786, 56.5392087 ], [ 16.389785, 56.5389271 ], [ 16.3901594, 56.5380842 ], [ 16.3838007, 56.5341372 ], [ 16.3824539, 56.5312835 ], [ 16.3811892, 56.5306163 ], [ 16.3787316, 56.5307616 ], [ 16.3778244, 56.5300527 ], [ 16.3732499, 56.5307675 ], [ 16.3748887, 56.5304143 ], [ 16.3738946, 56.5285786 ], [ 16.3724747, 56.5287634 ], [ 16.3731614, 56.5299913 ], [ 16.3729843, 56.5300127 ], [ 16.3728623, 56.5304698 ], [ 16.3725693, 56.5306673 ], [ 16.3729148, 56.5300288 ], [ 16.3710487, 56.5282605 ], [ 16.3714743, 56.5245229 ], [ 16.3693687, 56.5232357 ], [ 16.3703572, 56.5227353 ], [ 16.3692226, 56.5231117 ] ] ] } }
]
}
