{
"type": "FeatureCollection",
"name": "orkney",
"crs": { "type": "name", "properties": { "name": "urn:ogc:def:crs:OGC:1.3:CRS84" } },
"features": [
{ "type": "Feature", "properties": { }, "geometry": { "type": "MultiPolygon", "coordinates": [ [ [ [ -3.3679832, 58.9986836 ], [ -3.3653906, 58.9992373 ], [ -3.3661617, 59.0003788 ], [ -3.3639591, 59.0006742 ], [ -3.3647174, 59.0036463 ], [ -3.3633876, 59.004315 ], [ -3.3638392, 59.005168 ], [ -3.3599662, 59.0059941 ], [ -3.3621244, 59.0064829 ], [ -3.3608169, 59.007731 ], [ -3.3619574, 59.0086956 ], [ -3.357198, 59.009379 ], [ -3.3620694, 59.0110333 ], [ -3.3660283, 59.014911 ], [ -3.3660819, 59.0154136 ], [ -3.3584859, 59.0168165 ], [ -3.3613934, 59.0184568 ], [ -3.3640435, 59.0184789 ], [ -3.3607782, 59.021161 ], [ -3.3636976, 59.0211036 ], [ -3.3629498, 59.0216529 ], [ -3.3605388, 59.02182 ], [ -3.3588944, 59.0209853 ], [ -3.3581956, 59.0213884 ], [ -3.3590648, 59.0216944 ], [ -3.3577407, 59.0217334 ], [ -3.3597948, 59.022952 ], [ -3.3604278, 59.024824 ], [ -3.3597734, 59.0287608 ], [ -3.3610501, 59.0299312 ], [ -3.35781, 59.0312838 ], [ -3.3533146, 59.0296 ], [ -3.3536365, 59.0310851 ], [ -3.3524885, 59.0311789 ], [ -3.3535936, 59.0319684 ], [ -3.350005, 59.034334 ], [ -3.3504822, 59.0364509 ], [ -3.3498385, 59.0382227 ], [ -3.3573701, 59.0439074 ], [ -3.35781, 59.046766 ], [ -3.3555355, 59.047351 ], [ -3.3551171, 59.0476876 ], [ -3.3566942, 59.0477979 ], [ -3.3567049, 59.0483608 ], [ -3.3520915, 59.0510203 ], [ -3.3482453, 59.0509899 ], [ -3.3440477, 59.0489586 ], [ -3.3400323, 59.0494478 ], [ -3.3353438, 59.0519142 ], [ -3.3343515, 59.0546406 ], [ -3.335573, 59.056413 ], [ -3.3377791, 59.0575561 ], [ -3.3448174, 59.0579221 ], [ -3.3492698, 59.0618993 ], [ -3.3479502, 59.0630245 ], [ -3.3489802, 59.0665819 ], [ -3.3479931, 59.0674091 ], [ -3.3485617, 59.0690525 ], [ -3.3463301, 59.0703209 ], [ -3.3479824, 59.0700121 ], [ -3.3468559, 59.0711205 ], [ -3.3467164, 59.0770313 ], [ -3.3482828, 59.0774834 ], [ -3.3529928, 59.0834208 ], [ -3.35045, 59.086039 ], [ -3.3500503, 59.0898042 ], [ -3.3479502, 59.0902223 ], [ -3.349052, 59.0902934 ], [ -3.3484501, 59.0910729 ], [ -3.349443, 59.0913046 ], [ -3.3507712, 59.0946909 ], [ -3.3469952, 59.0970494 ], [ -3.3467891, 59.0982816 ], [ -3.3488955, 59.0999497 ], [ -3.3541484, 59.0999294 ], [ -3.3540216, 59.1005773 ], [ -3.3552633, 59.1005828 ], [ -3.3571234, 59.1027582 ], [ -3.3566507, 59.1038944 ], [ -3.3576249, 59.1028223 ], [ -3.3581849, 59.1036757 ], [ -3.3516087, 59.1070221 ], [ -3.349774, 59.109328 ], [ -3.3498063, 59.1112744 ], [ -3.3453538, 59.1125467 ], [ -3.3428755, 59.1152124 ], [ -3.3320286, 59.1174647 ], [ -3.327738, 59.120903 ], [ -3.3197119, 59.1230868 ], [ -3.3193257, 59.124656 ], [ -3.3208492, 59.1268087 ], [ -3.3171692, 59.1294236 ], [ -3.3178129, 59.1321155 ], [ -3.3197548, 59.1332494 ], [ -3.3228769, 59.1336677 ], [ -3.3254503, 59.1356832 ], [ -3.3203863, 59.1364845 ], [ -3.3171144, 59.1349465 ], [ -3.3117087, 59.1352396 ], [ -3.3129083, 59.1362086 ], [ -3.3123221, 59.137209 ], [ -3.3133393, 59.1377932 ], [ -3.3136795, 59.1389618 ], [ -3.3130493, 59.1390858 ], [ -3.3131482, 59.1382175 ], [ -3.307494, 59.139508 ], [ -3.27663, 59.141625 ], [ -3.269189, 59.14548 ], [ -3.250283, 59.148845 ], [ -3.244307, 59.14924 ], [ -3.244809, 59.149751 ], [ -3.242816, 59.149755 ], [ -3.242581, 59.151547 ], [ -3.241341, 59.152573 ], [ -3.237855, 59.152836 ], [ -3.237859, 59.153348 ], [ -3.229886, 59.153362 ], [ -3.229381, 59.152339 ], [ -3.227883, 59.15183 ], [ -3.22739, 59.152598 ], [ -3.22291, 59.153374 ], [ -3.22292, 59.15491 ], [ -3.210457, 59.153907 ], [ -3.210453, 59.153395 ], [ -3.197009, 59.154952 ], [ -3.196506, 59.154184 ], [ -3.193513, 59.153677 ], [ -3.19, 59.149075 ], [ -3.185009, 59.147547 ], [ -3.177515, 59.143462 ], [ -3.16007, 59.141309 ], [ -3.1597139, 59.1405619 ], [ -3.157576, 59.140544 ], [ -3.1537933, 59.1390728 ], [ -3.1517083, 59.1372392 ], [ -3.1520114, 59.1364485 ], [ -3.1495624, 59.1356032 ], [ -3.1469603, 59.1332526 ], [ -3.1433281, 59.1325367 ], [ -3.140112, 59.133014 ], [ -3.1370924, 59.1319836 ], [ -3.131644, 59.132255 ], [ -3.130145, 59.130977 ], [ -3.127654, 59.130724 ], [ -3.1174699, 59.125577 ], [ -3.1160324, 59.1241453 ], [ -3.0974423, 59.1196406 ], [ -3.0952265, 59.1182477 ], [ -3.0861347, 59.1199188 ], [ -3.0854865, 59.1233367 ], [ -3.0842973, 59.1240003 ], [ -3.0765908, 59.1242207 ], [ -3.0732715, 59.1235296 ], [ -3.0714649, 59.1213568 ], [ -3.0718999, 59.120016 ], [ -3.070411, 59.1182051 ], [ -3.0712588, 59.1158748 ], [ -3.0695487, 59.1135709 ], [ -3.0602872, 59.1111322 ], [ -3.0553087, 59.1118024 ], [ -3.0508133, 59.1113493 ], [ -3.0495709, 59.1102279 ], [ -3.0501397, 59.1092072 ], [ -3.0472278, 59.1074354 ], [ -3.0482268, 59.1072889 ], [ -3.0457034, 59.1050384 ], [ -3.04554, 59.1019647 ], [ -3.052151, 59.1002313 ], [ -3.0611841, 59.0997042 ], [ -3.0633084, 59.0986742 ], [ -3.0625442, 59.0981542 ], [ -3.0625818, 59.0968548 ], [ -3.0614757, 59.096738 ], [ -3.0617197, 59.0960621 ], [ -3.0596283, 59.0955353 ], [ -3.0602056, 59.0950073 ], [ -3.0579174, 59.0949009 ], [ -3.0571628, 59.0953261 ], [ -3.057499, 59.0962341 ], [ -3.0543263, 59.0969636 ], [ -3.0524221, 59.0952901 ], [ -3.0469422, 59.0953558 ], [ -3.0459092, 59.0946047 ], [ -3.0444371, 59.0906786 ], [ -3.0429881, 59.0903085 ], [ -3.0443985, 59.0894548 ], [ -3.0433525, 59.0890986 ], [ -3.04242, 59.089762 ], [ -3.0419905, 59.0896345 ], [ -3.043268, 59.088655 ], [ -3.0342372, 59.0865164 ], [ -3.0321668, 59.0837585 ], [ -3.0271867, 59.0809803 ], [ -3.0225726, 59.0807005 ], [ -3.0180568, 59.081427 ], [ -3.0124038, 59.0803539 ], [ -3.01255, 59.0797567 ], [ -3.0078408, 59.0775682 ], [ -3.0040745, 59.0720714 ], [ -3.0063473, 59.0708345 ], [ -3.0068164, 59.0697489 ], [ -3.0010527, 59.064631 ], [ -3.0017597, 59.0631626 ], [ -3.0041053, 59.0609237 ], [ -3.0065649, 59.0598327 ], [ -3.0071219, 59.0586777 ], [ -3.002988, 59.0562338 ], [ -3.002436, 59.0543695 ], [ -3.0039932, 59.0532204 ], [ -3.011885, 59.0514896 ], [ -3.0152605, 59.0468508 ], [ -3.0146763, 59.0451862 ], [ -3.0154727, 59.0427421 ], [ -3.0131533, 59.0415114 ], [ -3.0131847, 59.0399757 ], [ -3.0118058, 59.0388236 ], [ -3.0213253, 59.0380116 ], [ -3.0259971, 59.0420139 ], [ -3.0352537, 59.0473154 ], [ -3.0386658, 59.0482197 ], [ -3.0503467, 59.0493223 ], [ -3.0560876, 59.0487166 ], [ -3.059007, 59.0476421 ], [ -3.0619313, 59.0453423 ], [ -3.0620443, 59.0462746 ], [ -3.0597272, 59.0477648 ], [ -3.0617087, 59.0477168 ], [ -3.0634985, 59.0488955 ], [ -3.0630101, 59.0483567 ], [ -3.0654599, 59.0483642 ], [ -3.0655994, 59.0484956 ], [ -3.0651984, 59.0487898 ], [ -3.0651117, 59.0496004 ], [ -3.0657098, 59.0484995 ], [ -3.0656394, 59.048298 ], [ -3.0665096, 59.0481102 ], [ -3.0624875, 59.0479516 ], [ -3.0624372, 59.0474024 ], [ -3.0635613, 59.0476754 ], [ -3.0643031, 59.0459141 ], [ -3.0623921, 59.0453541 ], [ -3.0613501, 59.0428353 ], [ -3.0573071, 59.0406851 ], [ -3.0531738, 59.0360392 ], [ -3.063487, 59.0293501 ], [ -3.0637027, 59.0300863 ], [ -3.065849, 59.0297944 ], [ -3.0634482, 59.0291015 ], [ -3.0611469, 59.0235585 ], [ -3.0661634, 59.0223929 ], [ -3.0739894, 59.0244457 ], [ -3.0807383, 59.0238787 ], [ -3.086965, 59.0209094 ], [ -3.0883936, 59.0180913 ], [ -3.098063, 59.0158575 ], [ -3.0993905, 59.014244 ], [ -3.0987306, 59.0130941 ], [ -3.1014366, 59.0107641 ], [ -3.1013541, 59.0098511 ], [ -3.110879, 59.0097903 ], [ -3.113051, 59.0108377 ], [ -3.1128085, 59.0110156 ], [ -3.113053, 59.0120488 ], [ -3.1134118, 59.0124147 ], [ -3.1162135, 59.0126489 ], [ -3.124077, 59.0104499 ], [ -3.1189168, 59.0101457 ], [ -3.1170589, 59.0087097 ], [ -3.116347, 59.0091027 ], [ -3.1162429, 59.0107568 ], [ -3.1130724, 59.0106372 ], [ -3.1146817, 59.0068458 ], [ -3.1114081, 59.0043301 ], [ -3.1093275, 59.0057058 ], [ -3.1095418, 59.0046086 ], [ -3.1010601, 59.0019002 ], [ -3.0905514, 59.0018008 ], [ -3.0886201, 59.0012399 ], [ -3.0897394, 58.9994885 ], [ -3.0878126, 58.998444 ], [ -3.0737519, 58.9964303 ], [ -3.067894, 58.9957774 ], [ -3.062861, 58.9978268 ], [ -3.059292, 58.9948045 ], [ -3.053512, 58.9935041 ], [ -3.0519359, 58.9937865 ], [ -3.0513364, 58.9946856 ], [ -3.0535132, 58.9967855 ], [ -3.054715, 58.996192 ], [ -3.0508125, 58.9998121 ], [ -3.0473958, 59.0006988 ], [ -3.0405334, 59.0051009 ], [ -3.0400734, 59.0062308 ], [ -3.0406713, 59.0089168 ], [ -3.0355677, 59.010013 ], [ -3.0199577, 59.0085627 ], [ -3.0069385, 59.0101335 ], [ -3.0013409, 59.0090632 ], [ -3.0009002, 59.0081559 ], [ -3.0019671, 59.0065266 ], [ -3.0011544, 59.0053043 ], [ -2.9915146, 59.0008484 ], [ -2.9775129, 58.9999538 ], [ -2.9800977, 58.9990258 ], [ -2.9773325, 58.9969534 ], [ -2.9721925, 58.9963239 ], [ -2.9695525, 58.9950962 ], [ -2.970798, 58.9929719 ], [ -2.9687398, 58.9896645 ], [ -2.9694333, 58.9863353 ], [ -2.9648398, 58.9849057 ], [ -2.9605033, 58.9850096 ], [ -2.9604047, 58.9855055 ], [ -2.9600465, 58.9856261 ], [ -2.9604022, 58.9847289 ], [ -2.9589016, 58.9849132 ], [ -2.9610676, 58.9864588 ], [ -2.9618983, 58.9882521 ], [ -2.9586185, 58.9886769 ], [ -2.9614962, 58.9881653 ], [ -2.9612706, 58.9874396 ], [ -2.9592727, 58.9860557 ], [ -2.9569796, 58.9857233 ], [ -2.954748, 58.9869118 ], [ -2.9548445, 58.9878437 ], [ -2.9590002, 58.9880941 ], [ -2.9548268, 58.9880805 ], [ -2.9477528, 58.9903168 ], [ -2.9457274, 58.9935255 ], [ -2.947105, 58.9957415 ], [ -2.9439768, 59.0001884 ], [ -2.943891, 59.0067082 ], [ -2.9405865, 59.0079126 ], [ -2.939092, 59.0099976 ], [ -2.932447, 59.0143728 ], [ -2.9301198, 59.0151404 ], [ -2.9266105, 59.0134006 ], [ -2.9280138, 59.0123319 ], [ -2.9286836, 59.0103831 ], [ -2.930641, 59.0097486 ], [ -2.931417, 59.0082523 ], [ -2.9310308, 59.0073684 ], [ -2.9278551, 59.0060867 ], [ -2.9216752, 59.0067275 ], [ -2.9197654, 59.0077914 ], [ -2.9197644, 59.0085594 ], [ -2.9172814, 59.0090694 ], [ -2.9157894, 59.0107314 ], [ -2.9015909, 59.0097107 ], [ -2.8988872, 59.0087606 ], [ -2.8979364, 59.0070074 ], [ -2.900003, 59.006374 ], [ -2.9045949, 59.0081639 ], [ -2.9115844, 59.0059944 ], [ -2.9117189, 59.0041198 ], [ -2.908114, 59.0015118 ], [ -2.9076344, 58.9988244 ], [ -2.9113326, 58.9970027 ], [ -2.9156242, 58.9932446 ], [ -2.9125343, 58.9911001 ], [ -2.908629, 58.9897957 ], [ -2.8957562, 58.9903205 ], [ -2.8935341, 58.9916347 ], [ -2.8928748, 58.9943977 ], [ -2.8906198, 58.9955173 ], [ -2.8895988, 58.99521 ], [ -2.8894497, 58.9932988 ], [ -2.8879947, 58.9921316 ], [ -2.8880123, 58.9911282 ], [ -2.8901953, 58.9890516 ], [ -2.8933364, 58.9887625 ], [ -2.8997026, 58.9855947 ], [ -2.9071841, 58.9840552 ], [ -2.9164655, 58.9843686 ], [ -2.9189996, 58.9829998 ], [ -2.9206248, 58.9809686 ], [ -2.9205731, 58.9783641 ], [ -2.9139985, 58.973866 ], [ -2.915054, 58.9726405 ], [ -2.9148292, 58.9717275 ], [ -2.918953, 58.9695847 ], [ -2.9189315, 58.9651931 ], [ -2.9130521, 58.9622392 ], [ -2.9093614, 58.9619405 ], [ -2.9047051, 58.9633013 ], [ -2.9009273, 58.9620976 ], [ -2.8926244, 58.9629694 ], [ -2.8906411, 58.9610128 ], [ -2.8880232, 58.9603268 ], [ -2.883603, 58.9607472 ], [ -2.8805708, 58.9620505 ], [ -2.8806053, 58.9655329 ], [ -2.883324, 58.9682368 ], [ -2.8813284, 58.9697743 ], [ -2.8775519, 58.9713118 ], [ -2.8746551, 58.970449 ], [ -2.8713672, 58.9708027 ], [ -2.8733274, 58.9698988 ], [ -2.8723377, 58.9691217 ], [ -2.8703421, 58.9694535 ], [ -2.8712433, 58.9697743 ], [ -2.870149, 58.970449 ], [ -2.8710189, 58.9709786 ], [ -2.8674668, 58.9731146 ], [ -2.8713149, 58.9723298 ], [ -2.8772515, 58.9716657 ], [ -2.8680461, 58.9731036 ], [ -2.8657287, 58.97411 ], [ -2.8647846, 58.9761892 ], [ -2.8654927, 58.9777596 ], [ -2.8626388, 58.9790866 ], [ -2.8616303, 58.9818953 ], [ -2.8554569, 58.9861696 ], [ -2.8499208, 58.9856389 ], [ -2.8449148, 58.9815636 ], [ -2.8427905, 58.980878 ], [ -2.8373895, 58.98157 ], [ -2.8255814, 58.9807785 ], [ -2.8231996, 58.9814751 ], [ -2.8214024, 58.9833775 ], [ -2.8110824, 58.9848208 ], [ -2.8091969, 58.9863016 ], [ -2.8069347, 58.9901762 ], [ -2.8029007, 58.9923981 ], [ -2.7998118, 58.9925533 ], [ -2.7984375, 58.9912706 ], [ -2.7986091, 58.9898998 ], [ -2.79537, 58.9869387 ], [ -2.7951327, 58.9842258 ], [ -2.7960151, 58.9840049 ], [ -2.7965838, 58.9826145 ], [ -2.7933061, 58.980356 ], [ -2.7926509, 58.9809416 ], [ -2.7922225, 58.9797851 ], [ -2.7912925, 58.9799669 ], [ -2.7936025, 58.9785687 ], [ -2.7921784, 58.9784715 ], [ -2.7921742, 58.9778361 ], [ -2.7931049, 58.9780047 ], [ -2.7941215, 58.9768643 ], [ -2.793341, 58.9752731 ], [ -2.7926007, 58.9753741 ], [ -2.79351, 58.9749566 ], [ -2.792735, 58.9746178 ], [ -2.7938895, 58.9734248 ], [ -2.7922871, 58.972934 ], [ -2.7933573, 58.9723685 ], [ -2.7917048, 58.9711076 ], [ -2.7918069, 58.9702918 ], [ -2.7929415, 58.9698812 ], [ -2.7918928, 58.9699932 ], [ -2.7913401, 58.9689313 ], [ -2.7931988, 58.9676247 ], [ -2.7920002, 58.9654491 ], [ -2.7937597, 58.9651061 ], [ -2.7954183, 58.9672144 ], [ -2.7984224, 58.9686524 ], [ -2.8048734, 58.9688925 ], [ -2.8165477, 58.9665664 ], [ -2.8198737, 58.9669757 ], [ -2.831061, 58.9618758 ], [ -2.8311506, 58.9611311 ], [ -2.831236, 58.9618553 ], [ -2.8348297, 58.9625727 ], [ -2.8367609, 58.9614664 ], [ -2.8419107, 58.9562328 ], [ -2.843005, 58.9557237 ], [ -2.8436273, 58.9559782 ], [ -2.8409451, 58.9577266 ], [ -2.8422969, 58.9600059 ], [ -2.8460989, 58.9601903 ], [ -2.8483051, 58.9582577 ], [ -2.84726, 58.9566597 ], [ -2.847318, 58.9544511 ], [ -2.844256, 58.9516798 ], [ -2.8427968, 58.9509937 ], [ -2.8378187, 58.9510601 ], [ -2.8350721, 58.9489572 ], [ -2.8308664, 58.9482489 ], [ -2.828506, 58.94681 ], [ -2.8273902, 58.944884 ], [ -2.8276906, 58.9427808 ], [ -2.8309951, 58.9397696 ], [ -2.8313384, 58.9381089 ], [ -2.8291068, 58.9362047 ], [ -2.8247992, 58.9343626 ], [ -2.8279012, 58.9325697 ], [ -2.8287206, 58.9296937 ], [ -2.8309561, 58.9266612 ], [ -2.8303085, 58.9256847 ], [ -2.8308537, 58.9249376 ], [ -2.8337939, 58.9258002 ], [ -2.8331279, 58.9264058 ], [ -2.8338597, 58.9265498 ], [ -2.8418186, 58.9258206 ], [ -2.8372195, 58.9258326 ], [ -2.8257461, 58.9217389 ], [ -2.8261544, 58.9257957 ], [ -2.8215108, 58.9263049 ], [ -2.8207142, 58.9279024 ], [ -2.8187421, 58.9287034 ], [ -2.8100922, 58.9293384 ], [ -2.8010919, 58.9287625 ], [ -2.800575, 58.9281134 ], [ -2.8050739, 58.92564 ], [ -2.8060556, 58.9231951 ], [ -2.8001215, 58.9218894 ], [ -2.8004303, 58.9194313 ], [ -2.7988938, 58.9178109 ], [ -2.7915862, 58.9169573 ], [ -2.7886305, 58.9156864 ], [ -2.7852413, 58.9156714 ], [ -2.782638, 58.9167911 ], [ -2.7822786, 58.9194158 ], [ -2.7790562, 58.9223108 ], [ -2.7781131, 58.9250664 ], [ -2.7785816, 58.9271201 ], [ -2.7797321, 58.928366 ], [ -2.783235, 58.9287214 ], [ -2.7918729, 58.9269404 ], [ -2.792291, 58.9313343 ], [ -2.790571, 58.9332752 ], [ -2.7904626, 58.9348205 ], [ -2.786685, 58.9375355 ], [ -2.7860186, 58.9402631 ], [ -2.7888079, 58.942007 ], [ -2.7941455, 58.9419183 ], [ -2.7953736, 58.9434411 ], [ -2.8028998, 58.9461393 ], [ -2.8051481, 58.9460409 ], [ -2.8073618, 58.9449112 ], [ -2.8052847, 58.9478386 ], [ -2.7922431, 58.9514591 ], [ -2.7838166, 58.9504803 ], [ -2.77849, 58.9509555 ], [ -2.7771453, 58.9515469 ], [ -2.7768729, 58.9533721 ], [ -2.7750796, 58.9553171 ], [ -2.7606255, 58.9586302 ], [ -2.7556045, 58.9608293 ], [ -2.7512843, 58.9617379 ], [ -2.7462725, 58.9645235 ], [ -2.7363486, 58.9639745 ], [ -2.7296477, 58.9653455 ], [ -2.7259796, 58.9673354 ], [ -2.7239056, 58.9702221 ], [ -2.7200613, 58.9714439 ], [ -2.7185911, 58.9710863 ], [ -2.7177001, 58.9719533 ], [ -2.7168342, 58.9715586 ], [ -2.7167957, 58.9725127 ], [ -2.7152857, 58.9730473 ], [ -2.7135209, 58.9732478 ], [ -2.7125278, 58.9722132 ], [ -2.7102497, 58.9732307 ], [ -2.7079675, 58.9728896 ], [ -2.7074326, 58.9716379 ], [ -2.7081003, 58.9713305 ], [ -2.7080922, 58.9691794 ], [ -2.7092133, 58.967872 ], [ -2.7126958, 58.9667172 ], [ -2.7078284, 58.9657744 ], [ -2.7076588, 58.9636919 ], [ -2.7064132, 58.9634952 ], [ -2.7038663, 58.9647882 ], [ -2.7035337, 58.9642451 ], [ -2.70454, 58.9636895 ], [ -2.7033998, 58.9635448 ], [ -2.7056433, 58.9633837 ], [ -2.7040098, 58.9625203 ], [ -2.706324, 58.9589211 ], [ -2.705625, 58.9582 ], [ -2.7072977, 58.9563667 ], [ -2.7094095, 58.9557747 ], [ -2.7081894, 58.9554696 ], [ -2.709134, 58.953344 ], [ -2.707167, 58.951548 ], [ -2.7058205, 58.9487977 ], [ -2.7075666, 58.9476895 ], [ -2.7145975, 58.9476367 ], [ -2.7167159, 58.945425 ], [ -2.7154536, 58.9420341 ], [ -2.715677, 58.940817 ], [ -2.717173, 58.939541 ], [ -2.716946, 58.936981 ], [ -2.711771, 58.934154 ], [ -2.713273, 58.93211 ], [ -2.711542, 58.93185 ], [ -2.7123, 58.93006 ], [ -2.714034, 58.929808 ], [ -2.709868, 58.924935 ], [ -2.710127, 58.9234 ], [ -2.708644, 58.923141 ], [ -2.710892, 58.920842 ], [ -2.7152666, 58.9197624 ], [ -2.722133, 58.9195597 ], [ -2.7388915, 58.9217602 ], [ -2.7429083, 58.9234371 ], [ -2.746569, 58.9239389 ], [ -2.7519281, 58.9228219 ], [ -2.7528744, 58.9220908 ], [ -2.753487, 58.9191615 ], [ -2.757207, 58.915178 ], [ -2.76068, 58.913905 ], [ -2.7719055, 58.9143811 ], [ -2.7786779, 58.9163021 ], [ -2.7857878, 58.9147117 ], [ -2.7874604, 58.9136297 ], [ -2.7889476, 58.9103567 ], [ -2.7916213, 58.9086361 ], [ -2.796349, 58.9073551 ], [ -2.799094, 58.902837 ], [ -2.8009897, 58.9018306 ], [ -2.8002281, 58.9009417 ], [ -2.801798, 58.9002735 ], [ -2.801099, 58.898233 ], [ -2.8021349, 58.8982947 ], [ -2.801859, 58.894907 ], [ -2.8084984, 58.8927385 ], [ -2.8119937, 58.8926956 ], [ -2.8126271, 58.8919432 ], [ -2.8121738, 58.890725 ], [ -2.8140426, 58.8907967 ], [ -2.8134871, 58.8902914 ], [ -2.8189335, 58.8887452 ], [ -2.8216305, 58.8869118 ], [ -2.822265, 58.8857322 ], [ -2.8217935, 58.8838897 ], [ -2.8185223, 58.8829598 ], [ -2.8182239, 58.8823734 ], [ -2.8195434, 58.8819449 ], [ -2.8180216, 58.8815206 ], [ -2.823422, 58.8785438 ], [ -2.8212218, 58.8780723 ], [ -2.8210082, 58.8765972 ], [ -2.8267088, 58.8752422 ], [ -2.8250986, 58.875312 ], [ -2.8277124, 58.8744501 ], [ -2.8265318, 58.8743966 ], [ -2.8281242, 58.8738997 ], [ -2.8274859, 58.8733173 ], [ -2.8304133, 58.8725187 ], [ -2.8302372, 58.8731135 ], [ -2.8304151, 58.8733192 ], [ -2.8308899, 58.8722905 ], [ -2.8329473, 58.871832 ], [ -2.8341474, 58.8728579 ], [ -2.8366445, 58.8728744 ], [ -2.8383216, 58.875161 ], [ -2.8343123, 58.8764154 ], [ -2.8337935, 58.8776451 ], [ -2.8342968, 58.8780918 ], [ -2.8319815, 58.8794644 ], [ -2.8325692, 58.8809901 ], [ -2.8362313, 58.8821161 ], [ -2.839248, 58.8815271 ], [ -2.8413538, 58.8837967 ], [ -2.8456976, 58.8851483 ], [ -2.8458154, 58.8881141 ], [ -2.8472617, 58.8891182 ], [ -2.8523061, 58.8897449 ], [ -2.8557747, 58.8920178 ], [ -2.8654173, 58.8930518 ], [ -2.8681769, 58.895241 ], [ -2.8777547, 58.8976318 ], [ -2.8787687, 58.8989051 ], [ -2.883432, 58.9001707 ], [ -2.8892387, 58.8995599 ], [ -2.8918322, 58.8971566 ], [ -2.8972953, 58.895297 ], [ -2.9060142, 58.8952748 ], [ -2.9101751, 58.8963475 ], [ -2.9116781, 58.8959443 ], [ -2.9104396, 58.8946128 ], [ -2.9119188, 58.8959423 ], [ -2.9181746, 58.8949912 ], [ -2.9201239, 58.8930772 ], [ -2.9183845, 58.8919978 ], [ -2.917231, 58.8921645 ], [ -2.9179632, 58.8916173 ], [ -2.9165523, 58.8904948 ], [ -2.9168423, 58.8897177 ], [ -2.9207513, 58.8916702 ], [ -2.9251295, 58.8920099 ], [ -2.9286761, 58.8903733 ], [ -2.931289, 58.8906683 ], [ -2.9308006, 58.8917159 ], [ -2.9320009, 58.8917999 ], [ -2.9322193, 58.893037 ], [ -2.9351832, 58.8949826 ], [ -2.9337356, 58.8963842 ], [ -2.9340512, 58.898047 ], [ -2.9325496, 58.901256 ], [ -2.9327399, 58.9025856 ], [ -2.9386852, 58.904864 ], [ -2.9397622, 58.9081541 ], [ -2.9443797, 58.9127937 ], [ -2.9467989, 58.9146722 ], [ -2.9493236, 58.9147836 ], [ -2.9516123, 58.9176955 ], [ -2.9507792, 58.9185935 ], [ -2.9545869, 58.9237978 ], [ -2.9594415, 58.9272301 ], [ -2.9614925, 58.9276541 ], [ -2.9643084, 58.9314175 ], [ -2.965791, 58.9321132 ], [ -2.9679075, 58.9356839 ], [ -2.9728675, 58.9401208 ], [ -2.9724258, 58.941152 ], [ -2.9736442, 58.9433256 ], [ -2.9736122, 58.9451011 ], [ -2.9715654, 58.9486867 ], [ -2.971917, 58.9505593 ], [ -2.9699634, 58.9554841 ], [ -2.9701977, 58.9562667 ], [ -2.9737563, 58.9570134 ], [ -2.9700091, 58.9563977 ], [ -2.9685817, 58.9594819 ], [ -2.9743423, 58.9619812 ], [ -2.9831088, 58.9627147 ], [ -2.987096, 58.9612965 ], [ -2.9887426, 58.9597814 ], [ -2.9882655, 58.9588647 ], [ -2.9888534, 58.9583342 ], [ -2.9932739, 58.9566796 ], [ -2.9932848, 58.9540832 ], [ -2.9982305, 58.9509 ], [ -3.0039156, 58.9497617 ], [ -3.0037214, 58.9478017 ], [ -3.0067762, 58.9460933 ], [ -3.0143926, 58.9429526 ], [ -3.0214797, 58.9423211 ], [ -3.0311483, 58.9392267 ], [ -3.0368238, 58.9395334 ], [ -3.0435744, 58.9375437 ], [ -3.0469562, 58.9385393 ], [ -3.0517121, 58.9383927 ], [ -3.0573862, 58.9367014 ], [ -3.0660375, 58.9360153 ], [ -3.0687021, 58.9365613 ], [ -3.0693444, 58.9385452 ], [ -3.079042, 58.9421585 ], [ -3.0826063, 58.941907 ], [ -3.0856984, 58.940302 ], [ -3.0860823, 58.9419677 ], [ -3.0870039, 58.9422087 ], [ -3.0864212, 58.9423546 ], [ -3.0908097, 58.9430434 ], [ -3.0898581, 58.9427846 ], [ -3.0910695, 58.9425902 ], [ -3.0889993, 58.9411737 ], [ -3.0820248, 58.9390316 ], [ -3.0791439, 58.9364179 ], [ -3.079008, 58.9344 ], [ -3.0769873, 58.9325505 ], [ -3.0784107, 58.9298415 ], [ -3.0859169, 58.9281168 ], [ -3.0978763, 58.9322915 ], [ -3.1132565, 58.9313119 ], [ -3.128079, 58.9263747 ], [ -3.1282915, 58.9240904 ], [ -3.1243928, 58.9238944 ], [ -3.1208135, 58.9223735 ], [ -3.1197938, 58.9230385 ], [ -3.1207343, 58.9222989 ], [ -3.119555, 58.9203861 ], [ -3.130048, 58.9170457 ], [ -3.1374019, 58.9162475 ], [ -3.1494395, 58.9180882 ], [ -3.1543022, 58.9202954 ], [ -3.1570837, 58.9205874 ], [ -3.1606947, 58.9198047 ], [ -3.1616362, 58.9188416 ], [ -3.1616259, 58.9170961 ], [ -3.1643649, 58.9164761 ], [ -3.1680063, 58.9168349 ], [ -3.1706665, 58.9180477 ], [ -3.1738812, 58.9179442 ], [ -3.1746247, 58.9171776 ], [ -3.173167, 58.9159656 ], [ -3.175551, 58.9137076 ], [ -3.1808593, 58.9120631 ], [ -3.1824362, 58.9126955 ], [ -3.1808835, 58.9151727 ], [ -3.1816866, 58.9164997 ], [ -3.1826788, 58.9165205 ], [ -3.1821195, 58.9167714 ], [ -3.1833009, 58.9175397 ], [ -3.1839745, 58.9170985 ], [ -3.1834224, 58.9175814 ], [ -3.1847867, 58.9182064 ], [ -3.1875579, 58.9186406 ], [ -3.1913067, 58.9177075 ], [ -3.1931378, 58.9144182 ], [ -3.1996025, 58.9120919 ], [ -3.2025679, 58.9121865 ], [ -3.2082351, 58.9158152 ], [ -3.2116889, 58.9204147 ], [ -3.2146114, 58.9213176 ], [ -3.2225116, 58.9259399 ], [ -3.2286779, 58.9322193 ], [ -3.2307581, 58.9363849 ], [ -3.2306644, 58.9377302 ], [ -3.2331165, 58.9395821 ], [ -3.2336553, 58.9403062 ], [ -3.2328816, 58.9411327 ], [ -3.2352026, 58.94319 ], [ -3.2337128, 58.9462243 ], [ -3.2343994, 58.9474621 ], [ -3.2331281, 58.9485618 ], [ -3.2334692, 58.9511524 ], [ -3.2321814, 58.9530082 ], [ -3.2340042, 58.9587635 ], [ -3.2339227, 58.9610752 ], [ -3.2309189, 58.9632704 ], [ -3.229779, 58.9656998 ], [ -3.2304449, 58.9671206 ], [ -3.2371801, 58.9706544 ], [ -3.2420962, 58.9724372 ], [ -3.2446832, 58.9717281 ], [ -3.2461269, 58.9721384 ], [ -3.2527021, 58.976345 ], [ -3.251198, 58.9772716 ], [ -3.2511415, 58.9761589 ], [ -3.2489811, 58.9748069 ], [ -3.2470172, 58.9755403 ], [ -3.2480386, 58.977498 ], [ -3.2504953, 58.9785171 ], [ -3.248218, 58.979839 ], [ -3.2465412, 58.9795993 ], [ -3.2478989, 58.981898 ], [ -3.2518663, 58.9823911 ], [ -3.253252, 58.9810717 ], [ -3.2516561, 58.980104 ], [ -3.2518349, 58.979562 ], [ -3.2531893, 58.9790098 ], [ -3.2541644, 58.9773688 ], [ -3.2621446, 58.9746869 ], [ -3.262116, 58.9724283 ], [ -3.2651457, 58.9704205 ], [ -3.2667572, 58.9673441 ], [ -3.2661338, 58.9656943 ], [ -3.2632746, 58.964217 ], [ -3.2635899, 58.9624876 ], [ -3.2680437, 58.9638532 ], [ -3.2744829, 58.9641627 ], [ -3.2786758, 58.9629252 ], [ -3.2794873, 58.9607791 ], [ -3.2916825, 58.9615645 ], [ -3.2904133, 58.9618786 ], [ -3.2918616, 58.9624609 ], [ -3.2907916, 58.9627033 ], [ -3.2895363, 58.9644762 ], [ -3.2893582, 58.9671104 ], [ -3.2900334, 58.9686585 ], [ -3.2934627, 58.9681218 ], [ -3.2952577, 58.9653512 ], [ -3.2950573, 58.9641197 ], [ -3.2933063, 58.9641194 ], [ -3.2951387, 58.9640372 ], [ -3.2952564, 58.9624842 ], [ -3.295534, 58.9637189 ], [ -3.2966967, 58.9639421 ], [ -3.2962854, 58.9633912 ], [ -3.2973874, 58.9632485 ], [ -3.2962206, 58.963213 ], [ -3.2968458, 58.9618984 ], [ -3.2976406, 58.9631391 ], [ -3.2988582, 58.9619 ], [ -3.2983917, 58.9613468 ], [ -3.3005543, 58.9596148 ], [ -3.2986982, 58.9588566 ], [ -3.3000106, 58.9590544 ], [ -3.3010685, 58.9576391 ], [ -3.299639, 58.9551897 ], [ -3.3001138, 58.9546592 ], [ -3.2988649, 58.9536144 ], [ -3.2937155, 58.9524481 ], [ -3.3002691, 58.9500762 ], [ -3.3076085, 58.9498639 ], [ -3.3126785, 58.9509878 ], [ -3.3169805, 58.9530678 ], [ -3.324772, 58.9529888 ], [ -3.3306188, 58.9546748 ], [ -3.3313984, 58.9556976 ], [ -3.3312031, 58.9580848 ], [ -3.3331096, 58.9600917 ], [ -3.3448044, 58.9640672 ], [ -3.3468079, 58.9643228 ], [ -3.3519791, 58.9631302 ], [ -3.3554266, 58.9645285 ], [ -3.355755, 58.965275 ], [ -3.3525445, 58.9683378 ], [ -3.3537271, 58.9699702 ], [ -3.3517336, 58.9722969 ], [ -3.3524741, 58.9731583 ], [ -3.3519642, 58.9732409 ], [ -3.3565039, 58.9756193 ], [ -3.3576847, 58.9754465 ], [ -3.3611029, 58.9794123 ], [ -3.3607351, 58.9813238 ], [ -3.3620677, 58.9827873 ], [ -3.3604169, 58.982944 ], [ -3.3592269, 58.9854479 ], [ -3.3596009, 58.9872115 ], [ -3.3613696, 58.988085 ], [ -3.3630442, 58.9916223 ], [ -3.3619056, 58.9917879 ], [ -3.3623014, 58.992998 ], [ -3.3615996, 58.9929856 ], [ -3.3630723, 58.9937425 ], [ -3.3625119, 58.9943161 ], [ -3.3672443, 58.9969508 ], [ -3.3679832, 58.9986836 ] ] ], [ [ [ -3.350701, 59.0984675 ], [ -3.3489705, 59.0997018 ], [ -3.3469245, 59.0979606 ], [ -3.3493148, 59.0971214 ], [ -3.3501002, 59.0975127 ], [ -3.348714, 59.0981871 ], [ -3.350701, 59.0984675 ] ] ] ] } }
]
}
