{
"type": "FeatureCollection",
"name": "rhodes",
"crs": { "type": "name", "properties": { "name": "urn:ogc:def:crs:OGC:1.3:CRS84" } },
"features": [
{ "type": "Feature", "properties": { }, "geometry": { "type": "MultiPolygon", "coordinates": [ [ [ [ 27.7498513, 35.8780923 ], [ 27.7519665, 35.8810958 ], [ 27.7514877, 35.8829855 ], [ 27.7500216, 35.8835376 ], [ 27.7499544, 35.8843041 ], [ 27.7532049, 35.8859423 ], [ 27.7535321, 35.8867959 ], [ 27.7568723, 35.8875296 ], [ 27.7567467, 35.888474 ], [ 27.7591902, 35.8872463 ], [ 27.7670758, 35.8867643 ], [ 27.7695396, 35.8850591 ], [ 27.7700975, 35.8827423 ], [ 27.7692764, 35.8813578 ], [ 27.7669425, 35.8819513 ], [ 27.7647634, 35.8814815 ], [ 27.7648846, 35.8804256 ], [ 27.7631587, 35.8791133 ], [ 27.7644989, 35.8782856 ], [ 27.761101, 35.876905 ], [ 27.7573338, 35.8769921 ], [ 27.7554784, 35.8783084 ], [ 27.7527708, 35.8772696 ], [ 27.7498513, 35.8780923 ] ] ], [ [ [ 27.6836054, 36.1527897 ], [ 27.6853198, 36.1532262 ], [ 27.6844137, 36.155831 ], [ 27.6849539, 36.1564526 ], [ 27.6863866, 36.1561201 ], [ 27.6923651, 36.1581727 ], [ 27.6962567, 36.161336 ], [ 27.6987734, 36.1618479 ], [ 27.6999242, 36.1629181 ], [ 27.7029755, 36.1630251 ], [ 27.7038117, 36.1641009 ], [ 27.7056907, 36.1632901 ], [ 27.7080084, 36.1638712 ], [ 27.7115257, 36.1633115 ], [ 27.7164418, 36.1642668 ], [ 27.7198398, 36.1663323 ], [ 27.7235413, 36.1662097 ], [ 27.7294844, 36.1701388 ], [ 27.7313017, 36.1693494 ], [ 27.7332217, 36.169699 ], [ 27.735076, 36.168702 ], [ 27.73574, 36.17191 ], [ 27.7366911, 36.1723375 ], [ 27.7401382, 36.1712994 ], [ 27.7386513, 36.1747056 ], [ 27.7408436, 36.1757617 ], [ 27.7442237, 36.1794343 ], [ 27.7491443, 36.182714 ], [ 27.7543238, 36.1877198 ], [ 27.7566635, 36.1858854 ], [ 27.759932, 36.1890243 ], [ 27.7655654, 36.1870872 ], [ 27.7673477, 36.1880154 ], [ 27.769208, 36.191741 ], [ 27.7726383, 36.1941875 ], [ 27.7762279, 36.2012154 ], [ 27.7802641, 36.2037527 ], [ 27.7814628, 36.2074448 ], [ 27.7807885, 36.2091253 ], [ 27.7829375, 36.2096849 ], [ 27.782846, 36.2110782 ], [ 27.7852233, 36.2131778 ], [ 27.7889813, 36.2192731 ], [ 27.7897216, 36.2210143 ], [ 27.7868354, 36.2244957 ], [ 27.7882703, 36.2284612 ], [ 27.789695, 36.2292545 ], [ 27.7904447, 36.23104 ], [ 27.790067, 36.232972 ], [ 27.7887742, 36.2343376 ], [ 27.7888608, 36.2386747 ], [ 27.7900808, 36.240454 ], [ 27.7893346, 36.2423425 ], [ 27.7939219, 36.2448443 ], [ 27.7936925, 36.2472027 ], [ 27.7956208, 36.2486775 ], [ 27.7947278, 36.2495004 ], [ 27.7960701, 36.2518877 ], [ 27.795744, 36.2534151 ], [ 27.7964238, 36.2534644 ], [ 27.7957733, 36.2548313 ], [ 27.7963183, 36.2552866 ], [ 27.7970425, 36.2544171 ], [ 27.7977763, 36.2554275 ], [ 27.7989197, 36.255458 ], [ 27.7985356, 36.2559145 ], [ 27.7997143, 36.2556197 ], [ 27.8032765, 36.2580244 ], [ 27.8041092, 36.2597037 ], [ 27.803666, 36.2628824 ], [ 27.8061847, 36.2646304 ], [ 27.8054933, 36.2704741 ], [ 27.8100292, 36.2707873 ], [ 27.8122724, 36.2722339 ], [ 27.811974, 36.2740156 ], [ 27.8129763, 36.2745414 ], [ 27.8142723, 36.2743082 ], [ 27.8142553, 36.2737041 ], [ 27.8174426, 36.2734796 ], [ 27.8181271, 36.2722791 ], [ 27.8195192, 36.2733742 ], [ 27.8214017, 36.2727608 ], [ 27.8244152, 36.2735521 ], [ 27.8247568, 36.2721899 ], [ 27.8267687, 36.2723096 ], [ 27.8325655, 36.2779718 ], [ 27.8362302, 36.2801706 ], [ 27.8414425, 36.2806452 ], [ 27.8479591, 36.285009 ], [ 27.8522764, 36.2903907 ], [ 27.853649, 36.29073 ], [ 27.8547942, 36.2930039 ], [ 27.859254, 36.295444 ], [ 27.8635976, 36.3020392 ], [ 27.8659124, 36.3033817 ], [ 27.8687085, 36.3083101 ], [ 27.8700937, 36.3086085 ], [ 27.8719352, 36.3109623 ], [ 27.878395, 36.3226355 ], [ 27.8815015, 36.3229488 ], [ 27.8851041, 36.3254507 ], [ 27.8880842, 36.3254486 ], [ 27.8906702, 36.3275678 ], [ 27.8927109, 36.3279967 ], [ 27.8975515, 36.333164 ], [ 27.9095579, 36.3378938 ], [ 27.9154293, 36.3429029 ], [ 27.9177836, 36.3423487 ], [ 27.9260736, 36.3446622 ], [ 27.928991, 36.3441997 ], [ 27.939162, 36.3489629 ], [ 27.9449304, 36.3485813 ], [ 27.9487695, 36.3509886 ], [ 27.949582, 36.350129 ], [ 27.9570707, 36.3528741 ], [ 27.9591519, 36.3527414 ], [ 27.9692075, 36.358362 ], [ 27.9754146, 36.3635416 ], [ 27.9755445, 36.3649188 ], [ 27.9764801, 36.365386 ], [ 27.9756539, 36.364746 ], [ 27.9757324, 36.3634317 ], [ 27.9770618, 36.363911 ], [ 27.9764972, 36.3648113 ], [ 27.9784366, 36.3644944 ], [ 27.9824807, 36.3673777 ], [ 27.9990977, 36.3712937 ], [ 28.009298, 36.375075 ], [ 28.020424, 36.3829506 ], [ 28.0267907, 36.3838021 ], [ 28.0357453, 36.3876633 ], [ 28.048952, 36.39426 ], [ 28.0536616, 36.398 ], [ 28.0563076, 36.3983674 ], [ 28.0691223, 36.4033352 ], [ 28.0833669, 36.4070496 ], [ 28.088714, 36.4094037 ], [ 28.0903449, 36.4090295 ], [ 28.0996115, 36.4114993 ], [ 28.1164952, 36.4187063 ], [ 28.1236574, 36.4200354 ], [ 28.140237, 36.421428 ], [ 28.1549115, 36.4240138 ], [ 28.1760285, 36.4195921 ], [ 28.1807098, 36.4195606 ], [ 28.1875433, 36.4210757 ], [ 28.1944959, 36.4249498 ], [ 28.197983, 36.4283273 ], [ 28.2024825, 36.4340358 ], [ 28.2082757, 36.4437525 ], [ 28.2125464, 36.446829 ], [ 28.2157336, 36.4503932 ], [ 28.21671, 36.453173 ], [ 28.2185636, 36.454155 ], [ 28.2199956, 36.4581929 ], [ 28.2208978, 36.4581615 ], [ 28.2234438, 36.4540537 ], [ 28.2272133, 36.4531169 ], [ 28.2253285, 36.4526147 ], [ 28.2259013, 36.4509662 ], [ 28.2251743, 36.4504587 ], [ 28.2258678, 36.4481362 ], [ 28.2269478, 36.4472713 ], [ 28.2278422, 36.4506609 ], [ 28.2264799, 36.4511939 ], [ 28.2282483, 36.451412 ], [ 28.2280857, 36.4471945 ], [ 28.2297873, 36.4463136 ], [ 28.2283264, 36.4462469 ], [ 28.2279058, 36.4451618 ], [ 28.2284407, 36.444826 ], [ 28.2289144, 36.4458469 ], [ 28.2294775, 36.443574 ], [ 28.232039, 36.4444175 ], [ 28.2321213, 36.4476955 ], [ 28.2332351, 36.446838 ], [ 28.2333965, 36.4417254 ], [ 28.2360298, 36.4410182 ], [ 28.236892, 36.4442834 ], [ 28.2384983, 36.4447337 ], [ 28.2386093, 36.4476291 ], [ 28.237024, 36.4487438 ], [ 28.2388742, 36.4475869 ], [ 28.239183, 36.4394221 ], [ 28.2384505, 36.4388855 ], [ 28.2387675, 36.4363626 ], [ 28.2399133, 36.4359541 ], [ 28.2382281, 36.4356805 ], [ 28.2382273, 36.435077 ], [ 28.2398262, 36.4350249 ], [ 28.2382284, 36.4350307 ], [ 28.238222, 36.4335205 ], [ 28.2397952, 36.4335162 ], [ 28.238491, 36.4334672 ], [ 28.238497, 36.4325964 ], [ 28.2392764, 36.4327093 ], [ 28.2384914, 36.4320133 ], [ 28.2394991, 36.4316001 ], [ 28.2405271, 36.4327219 ], [ 28.2405581, 36.4373401 ], [ 28.239944, 36.4376043 ], [ 28.2408132, 36.4375194 ], [ 28.240887, 36.4328235 ], [ 28.2385506, 36.4291329 ], [ 28.2371108, 36.4300185 ], [ 28.2356655, 36.4296297 ], [ 28.2336583, 36.4274066 ], [ 28.232931, 36.4255358 ], [ 28.2333008, 36.4219521 ], [ 28.2321027, 36.4218975 ], [ 28.2313053, 36.4204292 ], [ 28.2330489, 36.4192774 ], [ 28.2330635, 36.4182605 ], [ 28.2318301, 36.4187683 ], [ 28.2318447, 36.4165414 ], [ 28.2337451, 36.4168991 ], [ 28.2339368, 36.4198208 ], [ 28.234166, 36.4169676 ], [ 28.2324163, 36.4143272 ], [ 28.2321803, 36.4124812 ], [ 28.2309364, 36.4122531 ], [ 28.2316141, 36.4111346 ], [ 28.2293537, 36.4105274 ], [ 28.229352, 36.407826 ], [ 28.2310728, 36.4078411 ], [ 28.2316499, 36.4064643 ], [ 28.230888, 36.4069794 ], [ 28.2288869, 36.4059572 ], [ 28.228287, 36.4035691 ], [ 28.2303192, 36.4011939 ], [ 28.2334471, 36.4007846 ], [ 28.2337148, 36.3992438 ], [ 28.2322868, 36.3990357 ], [ 28.2321122, 36.3980943 ], [ 28.2356916, 36.3967136 ], [ 28.2344686, 36.394707 ], [ 28.2351168, 36.393858 ], [ 28.2406661, 36.3922526 ], [ 28.2416718, 36.3906446 ], [ 28.243065, 36.390728 ], [ 28.2441765, 36.3896645 ], [ 28.2436364, 36.389006 ], [ 28.2476283, 36.3868409 ], [ 28.2436025, 36.3841001 ], [ 28.2411135, 36.3844862 ], [ 28.2408254, 36.3824197 ], [ 28.2395365, 36.3819251 ], [ 28.2400504, 36.3808524 ], [ 28.238141, 36.3784878 ], [ 28.2397649, 36.3789933 ], [ 28.2405747, 36.3780484 ], [ 28.2375886, 36.3766417 ], [ 28.2372777, 36.3749834 ], [ 28.2351085, 36.3748692 ], [ 28.2341579, 36.3737039 ], [ 28.2319224, 36.3739377 ], [ 28.2317801, 36.3724792 ], [ 28.232407, 36.372252 ], [ 28.2318718, 36.3730476 ], [ 28.2323598, 36.373069 ], [ 28.2333572, 36.3714234 ], [ 28.2268409, 36.3723134 ], [ 28.2234678, 36.3694736 ], [ 28.2195899, 36.3640234 ], [ 28.2142031, 36.3587816 ], [ 28.2072861, 36.3491417 ], [ 28.2047523, 36.3424125 ], [ 28.2050984, 36.3382674 ], [ 28.2068079, 36.3357854 ], [ 28.2092161, 36.3348369 ], [ 28.2077281, 36.3359926 ], [ 28.2078704, 36.336289 ], [ 28.2093432, 36.3351893 ], [ 28.2094481, 36.3346232 ], [ 28.2084137, 36.33451 ], [ 28.2082911, 36.333567 ], [ 28.2095162, 36.3323147 ], [ 28.21196, 36.331698 ], [ 28.2116695, 36.3296514 ], [ 28.2131177, 36.3287691 ], [ 28.2156402, 36.3289114 ], [ 28.2159859, 36.3274983 ], [ 28.2094691, 36.3227368 ], [ 28.2093058, 36.3215493 ], [ 28.2109532, 36.3212124 ], [ 28.2121471, 36.3230807 ], [ 28.2134503, 36.3229109 ], [ 28.2124214, 36.3203457 ], [ 28.2084295, 36.319416 ], [ 28.2076654, 36.3210888 ], [ 28.205758, 36.320713 ], [ 28.2069087, 36.3187269 ], [ 28.2046027, 36.3184911 ], [ 28.204901, 36.316611 ], [ 28.2024739, 36.3152077 ], [ 28.1999919, 36.3112886 ], [ 28.1971032, 36.31006 ], [ 28.1946302, 36.3103935 ], [ 28.1929218, 36.308749 ], [ 28.1864819, 36.3004268 ], [ 28.174319, 36.2804986 ], [ 28.1680587, 36.2677136 ], [ 28.1662798, 36.2615458 ], [ 28.1685414, 36.2546701 ], [ 28.1709961, 36.2542683 ], [ 28.1704861, 36.2537779 ], [ 28.1725546, 36.2545367 ], [ 28.1760115, 36.2538423 ], [ 28.1761076, 36.2519439 ], [ 28.1746804, 36.2509181 ], [ 28.175006, 36.248637 ], [ 28.172168, 36.247601 ], [ 28.1709276, 36.2502287 ], [ 28.1690624, 36.2495212 ], [ 28.1703078, 36.2485981 ], [ 28.1666036, 36.2487681 ], [ 28.1631158, 36.2453874 ], [ 28.1616718, 36.2427104 ], [ 28.1615143, 36.2409923 ], [ 28.163122, 36.23969 ], [ 28.1630273, 36.2387977 ], [ 28.1603908, 36.2362146 ], [ 28.1586973, 36.2324734 ], [ 28.158965, 36.2310904 ], [ 28.1573234, 36.2330703 ], [ 28.1526512, 36.2324235 ], [ 28.1474945, 36.2268812 ], [ 28.1465227, 36.2235109 ], [ 28.1493379, 36.2225887 ], [ 28.14712, 36.218905 ], [ 28.1463037, 36.2187221 ], [ 28.1483717, 36.2174124 ], [ 28.1450255, 36.2174927 ], [ 28.1438588, 36.216583 ], [ 28.1441245, 36.2149839 ], [ 28.1418064, 36.2121174 ], [ 28.1427494, 36.2103283 ], [ 28.1423919, 36.2107389 ], [ 28.1415001, 36.2108575 ], [ 28.1424675, 36.2104474 ], [ 28.1411292, 36.2098897 ], [ 28.1401429, 36.207603 ], [ 28.1399625, 36.2042378 ], [ 28.1409852, 36.2031789 ], [ 28.1406757, 36.2035808 ], [ 28.1424298, 36.2034515 ], [ 28.1432358, 36.202104 ], [ 28.1421407, 36.2013043 ], [ 28.1432116, 36.2004469 ], [ 28.142714, 36.19942 ], [ 28.1397411, 36.2003232 ], [ 28.1377639, 36.1992831 ], [ 28.138114, 36.1967753 ], [ 28.1392851, 36.1956932 ], [ 28.1386256, 36.1940657 ], [ 28.1397537, 36.1918186 ], [ 28.1395755, 36.1899578 ], [ 28.137457, 36.186624 ], [ 28.1365198, 36.1863562 ], [ 28.1366359, 36.1844797 ], [ 28.1353951, 36.1843702 ], [ 28.135219, 36.185232 ], [ 28.1332816, 36.1862382 ], [ 28.1309357, 36.1855587 ], [ 28.1298226, 36.1861905 ], [ 28.1291718, 36.1846247 ], [ 28.126999, 36.186722 ], [ 28.1239652, 36.1878801 ], [ 28.123515, 36.186884 ], [ 28.1196429, 36.1867729 ], [ 28.1189622, 36.185092 ], [ 28.1155201, 36.1830778 ], [ 28.1094145, 36.1823115 ], [ 28.1082289, 36.1805351 ], [ 28.1062593, 36.1818393 ], [ 28.1045561, 36.1816429 ], [ 28.1044998, 36.180758 ], [ 28.1033774, 36.1802036 ], [ 28.1042003, 36.178908 ], [ 28.1034051, 36.1779652 ], [ 28.1007328, 36.1767962 ], [ 28.0994064, 36.1770432 ], [ 28.0982675, 36.1749329 ], [ 28.099352, 36.1730832 ], [ 28.0989415, 36.1715794 ], [ 28.1027069, 36.1705642 ], [ 28.1008302, 36.1683076 ], [ 28.1012232, 36.165657 ], [ 28.0985362, 36.1650171 ], [ 28.0977449, 36.1668515 ], [ 28.0960133, 36.1672614 ], [ 28.0941696, 36.1663949 ], [ 28.0945483, 36.1651737 ], [ 28.093783, 36.1646297 ], [ 28.092336, 36.1653183 ], [ 28.0907768, 36.1647323 ], [ 28.0756761, 36.1429063 ], [ 28.0699731, 36.1239012 ], [ 28.0688017, 36.1123417 ], [ 28.0667351, 36.1105392 ], [ 28.067929, 36.1075746 ], [ 28.0699437, 36.1054136 ], [ 28.0730815, 36.1038919 ], [ 28.074684, 36.104086 ], [ 28.0763842, 36.1065123 ], [ 28.078038, 36.106239 ], [ 28.0823095, 36.1074656 ], [ 28.0851443, 36.1070982 ], [ 28.087838, 36.105123 ], [ 28.0889455, 36.105181 ], [ 28.0898346, 36.1029984 ], [ 28.0920261, 36.1026516 ], [ 28.0954308, 36.1046351 ], [ 28.099897, 36.1041852 ], [ 28.0977371, 36.1023032 ], [ 28.0966459, 36.0997467 ], [ 28.0945192, 36.1007876 ], [ 28.0943584, 36.0990747 ], [ 28.0924724, 36.0976413 ], [ 28.0906911, 36.0981887 ], [ 28.0903576, 36.0998262 ], [ 28.0876871, 36.1003386 ], [ 28.0869194, 36.099663 ], [ 28.0875055, 36.0980147 ], [ 28.0853547, 36.096706 ], [ 28.0863992, 36.0945652 ], [ 28.0875716, 36.0938881 ], [ 28.0890917, 36.0941951 ], [ 28.0890394, 36.09517 ], [ 28.0930736, 36.0943474 ], [ 28.0929261, 36.0935232 ], [ 28.0892824, 36.0909484 ], [ 28.0886878, 36.0899473 ], [ 28.089133, 36.0887452 ], [ 28.0876626, 36.087537 ], [ 28.08762, 36.0860427 ], [ 28.0884071, 36.085903 ], [ 28.0892042, 36.0870685 ], [ 28.0907567, 36.0854428 ], [ 28.0907033, 36.0838081 ], [ 28.0895768, 36.0829367 ], [ 28.0904155, 36.0808064 ], [ 28.0896164, 36.0807817 ], [ 28.0884556, 36.0824008 ], [ 28.0861931, 36.0827369 ], [ 28.0839722, 36.0806574 ], [ 28.0801621, 36.0801096 ], [ 28.0793647, 36.0782608 ], [ 28.0767179, 36.0765784 ], [ 28.0745171, 36.0734835 ], [ 28.0766639, 36.0720296 ], [ 28.0795216, 36.0661456 ], [ 28.0818666, 36.0648533 ], [ 28.0836338, 36.0631095 ], [ 28.0843995, 36.0608401 ], [ 28.0854877, 36.0603146 ], [ 28.0854444, 36.0572043 ], [ 28.0866338, 36.0563089 ], [ 28.0870671, 36.0543936 ], [ 28.0836435, 36.0539226 ], [ 28.0835953, 36.0555109 ], [ 28.0826815, 36.0557781 ], [ 28.082484, 36.0570498 ], [ 28.081163, 36.057008 ], [ 28.0809858, 36.0578316 ], [ 28.0764521, 36.057862 ], [ 28.0728276, 36.0601162 ], [ 28.0703863, 36.0603062 ], [ 28.0673286, 36.0618861 ], [ 28.066539, 36.06381 ], [ 28.0652564, 36.0627995 ], [ 28.065571, 36.062287 ], [ 28.0642753, 36.0623934 ], [ 28.0634824, 36.0606059 ], [ 28.0624146, 36.0616705 ], [ 28.0593271, 36.061883 ], [ 28.0577076, 36.0630593 ], [ 28.057736, 36.0645267 ], [ 28.0563233, 36.0654111 ], [ 28.0530878, 36.0636375 ], [ 28.0519607, 36.0649013 ], [ 28.0509077, 36.063902 ], [ 28.0507473, 36.0653493 ], [ 28.0537591, 36.066538 ], [ 28.0540276, 36.0675567 ], [ 28.0512145, 36.0712701 ], [ 28.0479495, 36.0721541 ], [ 28.0488879, 36.0734855 ], [ 28.0481803, 36.0749376 ], [ 28.0416904, 36.0773201 ], [ 28.0367717, 36.0776866 ], [ 28.0357167, 36.0768366 ], [ 28.0346046, 36.0774077 ], [ 28.0338228, 36.0765427 ], [ 28.02846, 36.0762879 ], [ 28.0261002, 36.0769526 ], [ 28.0148316, 36.0748238 ], [ 28.0133552, 36.0741687 ], [ 28.013646, 36.0725 ], [ 28.0104111, 36.0711801 ], [ 28.0104087, 36.0699603 ], [ 28.0085054, 36.0693918 ], [ 28.0073065, 36.0702678 ], [ 28.0054287, 36.0684898 ], [ 28.0044499, 36.0691656 ], [ 28.0043874, 36.0676004 ], [ 28.0032107, 36.0689697 ], [ 28.0019205, 36.0687915 ], [ 28.0021287, 36.0677123 ], [ 27.999625, 36.0661998 ], [ 27.9958001, 36.0665926 ], [ 27.9953686, 36.0655869 ], [ 27.9967195, 36.064862 ], [ 27.9964128, 36.0636988 ], [ 27.9934248, 36.0632677 ], [ 27.9868361, 36.0594463 ], [ 27.9825371, 36.0586769 ], [ 27.979386, 36.0570739 ], [ 27.9730813, 36.052071 ], [ 27.9726386, 36.0497968 ], [ 27.9705728, 36.0500623 ], [ 27.9691388, 36.0493291 ], [ 27.9690718, 36.0469725 ], [ 27.963665, 36.048631 ], [ 27.9608901, 36.0471591 ], [ 27.9576965, 36.0471766 ], [ 27.9557702, 36.0462995 ], [ 27.9560154, 36.0455248 ], [ 27.9553449, 36.0459933 ], [ 27.9536132, 36.0452295 ], [ 27.9482665, 36.0419148 ], [ 27.941952, 36.0355699 ], [ 27.9221749, 36.0100601 ], [ 27.8931086, 35.9639394 ], [ 27.8920455, 35.9613418 ], [ 27.8922499, 35.9590371 ], [ 27.8880177, 35.9594835 ], [ 27.8855621, 35.9587159 ], [ 27.8756955, 35.9487776 ], [ 27.8675091, 35.938439 ], [ 27.867981, 35.935664 ], [ 27.8650498, 35.933281 ], [ 27.8664612, 35.9321652 ], [ 27.8640199, 35.9326864 ], [ 27.8628565, 35.931949 ], [ 27.863319, 35.9284433 ], [ 27.8624798, 35.9270572 ], [ 27.8592733, 35.9283337 ], [ 27.8582373, 35.9271746 ], [ 27.8576164, 35.9271009 ], [ 27.8585892, 35.927927 ], [ 27.8580356, 35.9283913 ], [ 27.8548721, 35.9286123 ], [ 27.8453013, 35.9218209 ], [ 27.8416861, 35.9160876 ], [ 27.8426663, 35.9145745 ], [ 27.8455802, 35.9129893 ], [ 27.8425293, 35.912733 ], [ 27.8406079, 35.9164037 ], [ 27.8394406, 35.9169662 ], [ 27.836974, 35.916485 ], [ 27.8334222, 35.9170515 ], [ 27.8290777, 35.915744 ], [ 27.8264804, 35.9146385 ], [ 27.824295, 35.912204 ], [ 27.8196284, 35.9097617 ], [ 27.8168751, 35.9071178 ], [ 27.8159235, 35.9053331 ], [ 27.8165241, 35.9039906 ], [ 27.8178695, 35.9042402 ], [ 27.8179319, 35.9031251 ], [ 27.816957, 35.9011539 ], [ 27.8157168, 35.9029355 ], [ 27.8121796, 35.9025407 ], [ 27.8113724, 35.9015582 ], [ 27.8121099, 35.9000855 ], [ 27.8090045, 35.8985897 ], [ 27.8062827, 35.8986755 ], [ 27.8070095, 35.8978129 ], [ 27.8049068, 35.8966857 ], [ 27.8054004, 35.8956151 ], [ 27.800412, 35.892966 ], [ 27.7991835, 35.8929999 ], [ 27.7995061, 35.8919703 ], [ 27.7986277, 35.8916585 ], [ 27.7983789, 35.8903801 ], [ 27.79443, 35.8888403 ], [ 27.7919075, 35.8899424 ], [ 27.7902906, 35.888812 ], [ 27.7902633, 35.8875682 ], [ 27.789297, 35.886744 ], [ 27.787105, 35.888557 ], [ 27.785156, 35.888979 ], [ 27.7825237, 35.8875671 ], [ 27.7804281, 35.887508 ], [ 27.7792987, 35.8888876 ], [ 27.7777897, 35.8890158 ], [ 27.7710088, 35.8870984 ], [ 27.7703025, 35.8874578 ], [ 27.771108, 35.8898719 ], [ 27.7704565, 35.8924992 ], [ 27.7681477, 35.8941837 ], [ 27.7646099, 35.8935878 ], [ 27.7642606, 35.8944177 ], [ 27.763477, 35.894235 ], [ 27.762861, 35.89578 ], [ 27.7635497, 35.8971938 ], [ 27.760998, 35.899132 ], [ 27.7609867, 35.9013811 ], [ 27.7596049, 35.9038613 ], [ 27.7544989, 35.9037941 ], [ 27.755329, 35.9046685 ], [ 27.7517351, 35.905277 ], [ 27.7512283, 35.9064112 ], [ 27.7520454, 35.907758 ], [ 27.7503176, 35.9083804 ], [ 27.750675, 35.909604 ], [ 27.7479693, 35.9102374 ], [ 27.7460921, 35.9116618 ], [ 27.7408113, 35.9120888 ], [ 27.73997, 35.913267 ], [ 27.7378546, 35.9135525 ], [ 27.73714, 35.91457 ], [ 27.7342025, 35.915641 ], [ 27.7342641, 35.9167376 ], [ 27.7332864, 35.9175487 ], [ 27.7344639, 35.9200813 ], [ 27.7359885, 35.9210601 ], [ 27.735635, 35.922673 ], [ 27.7340123, 35.9229697 ], [ 27.7323681, 35.9244723 ], [ 27.7319157, 35.9262247 ], [ 27.7305437, 35.9264555 ], [ 27.7301462, 35.9283073 ], [ 27.7282974, 35.9293618 ], [ 27.7279809, 35.9311219 ], [ 27.7267352, 35.9316714 ], [ 27.7278425, 35.9334386 ], [ 27.726618, 35.9350685 ], [ 27.7266797, 35.9367969 ], [ 27.7252244, 35.9370091 ], [ 27.7248346, 35.9384639 ], [ 27.7224507, 35.9394659 ], [ 27.7207381, 35.9385606 ], [ 27.7196432, 35.9388624 ], [ 27.7197325, 35.9396994 ], [ 27.7181667, 35.9408075 ], [ 27.7213518, 35.9436388 ], [ 27.7210693, 35.9462202 ], [ 27.7244489, 35.9487703 ], [ 27.7264646, 35.9492419 ], [ 27.731156, 35.9577458 ], [ 27.7473346, 35.9925573 ], [ 27.7551569, 36.0134429 ], [ 27.7569141, 36.0225438 ], [ 27.7565114, 36.0251997 ], [ 27.7598106, 36.0383388 ], [ 27.7609463, 36.0468339 ], [ 27.7587673, 36.0513679 ], [ 27.7612353, 36.0666213 ], [ 27.7604338, 36.0684864 ], [ 27.7611095, 36.0814252 ], [ 27.759836, 36.09108 ], [ 27.7567638, 36.0993141 ], [ 27.7501841, 36.1056459 ], [ 27.7458807, 36.1057671 ], [ 27.7405298, 36.1045109 ], [ 27.7381509, 36.1050802 ], [ 27.736941, 36.1036921 ], [ 27.7376035, 36.1051384 ], [ 27.7368423, 36.1060706 ], [ 27.7308885, 36.1075259 ], [ 27.728882, 36.110002 ], [ 27.7257183, 36.1087864 ], [ 27.7249815, 36.1109243 ], [ 27.723452, 36.110704 ], [ 27.7202541, 36.1126654 ], [ 27.7165425, 36.1122426 ], [ 27.7103635, 36.1131028 ], [ 27.7099485, 36.1136827 ], [ 27.7115812, 36.1165442 ], [ 27.706868, 36.1202297 ], [ 27.7090664, 36.1225369 ], [ 27.7096953, 36.1218839 ], [ 27.7127399, 36.1228549 ], [ 27.714408, 36.126047 ], [ 27.7158446, 36.1263448 ], [ 27.715055, 36.127584 ], [ 27.7158977, 36.1282103 ], [ 27.7163837, 36.1316748 ], [ 27.7134834, 36.1333289 ], [ 27.7145121, 36.134083 ], [ 27.7130873, 36.1359187 ], [ 27.7136951, 36.1365254 ], [ 27.711472, 36.1362607 ], [ 27.7130323, 36.1394103 ], [ 27.7104466, 36.1381665 ], [ 27.7075658, 36.1391001 ], [ 27.7081056, 36.1397578 ], [ 27.7071808, 36.1411005 ], [ 27.707581, 36.141761 ], [ 27.706946, 36.141507 ], [ 27.7061376, 36.1437747 ], [ 27.7072612, 36.1482751 ], [ 27.7059067, 36.1484969 ], [ 27.7053478, 36.1465109 ], [ 27.7040716, 36.1457408 ], [ 27.703824, 36.1462733 ], [ 27.6975683, 36.1456098 ], [ 27.6958359, 36.1435077 ], [ 27.692525, 36.1449806 ], [ 27.6919177, 36.1439602 ], [ 27.6908037, 36.1438935 ], [ 27.6897321, 36.1453484 ], [ 27.6881112, 36.1457973 ], [ 27.6879221, 36.146679 ], [ 27.6862426, 36.1465887 ], [ 27.6864728, 36.1473489 ], [ 27.6855862, 36.1479607 ], [ 27.6864189, 36.1493673 ], [ 27.6839183, 36.1503358 ], [ 27.6844091, 36.1522273 ], [ 27.6836054, 36.1527897 ] ] ] ] } }
]
}
