{
"type": "FeatureCollection",
"name": "rugen",
"crs": { "type": "name", "properties": { "name": "urn:ogc:def:crs:OGC:1.3:CRS84" } },
"features": [
{ "type": "Feature", "properties": { }, "geometry": { "type": "Polygon", "coordinates": [ [ [ 13.1140107, 54.3340857 ], [ 13.1155932, 54.3314162 ], [ 13.122699, 54.3295229 ], [ 13.1219299, 54.3290064 ], [ 13.1243973, 54.3293853 ], [ 13.1351075, 54.3244738 ], [ 13.1369994, 54.3218965 ], [ 13.1319844, 54.3192662 ], [ 13.1330766, 54.3185836 ], [ 13.1373354, 54.3205667 ], [ 13.139209, 54.3195655 ], [ 13.1431263, 54.3151722 ], [ 13.1459485, 54.3146808 ], [ 13.1483849, 54.3129803 ], [ 13.1611172, 54.3101778 ], [ 13.1698632, 54.3097535 ], [ 13.1832805, 54.302352 ], [ 13.1854921, 54.300145 ], [ 13.1822524, 54.2965491 ], [ 13.179443, 54.2961929 ], [ 13.1773491, 54.2985577 ], [ 13.17272, 54.2992292 ], [ 13.1718334, 54.3008511 ], [ 13.1700212, 54.3013075 ], [ 13.1694022, 54.3023039 ], [ 13.1639804, 54.3011108 ], [ 13.1654203, 54.304143 ], [ 13.1604509, 54.3050661 ], [ 13.1541553, 54.3045897 ], [ 13.1549093, 54.3035943 ], [ 13.1599069, 54.3019215 ], [ 13.1535712, 54.3030564 ], [ 13.1490492, 54.2995485 ], [ 13.1397979, 54.2964562 ], [ 13.1402203, 54.2951671 ], [ 13.1387507, 54.2890043 ], [ 13.1387006, 54.2849455 ], [ 13.1393763, 54.2828654 ], [ 13.1413486, 54.2812099 ], [ 13.1439947, 54.2806682 ], [ 13.1443967, 54.2817596 ], [ 13.1517053, 54.2852322 ], [ 13.157343, 54.2857813 ], [ 13.163634, 54.2883276 ], [ 13.1647772, 54.2894702 ], [ 13.1704835, 54.2893877 ], [ 13.1785879, 54.2874828 ], [ 13.1818226, 54.2878409 ], [ 13.1823231, 54.2893478 ], [ 13.1870297, 54.2901439 ], [ 13.1884192, 54.2910803 ], [ 13.1886422, 54.2940286 ], [ 13.1904597, 54.2952302 ], [ 13.1898488, 54.2957435 ], [ 13.1913242, 54.2959667 ], [ 13.1909892, 54.2969052 ], [ 13.1922393, 54.2971971 ], [ 13.1961677, 54.2961404 ], [ 13.1973828, 54.2949087 ], [ 13.2003692, 54.2950177 ], [ 13.2016213, 54.2918206 ], [ 13.2034784, 54.2905433 ], [ 13.2031093, 54.2876731 ], [ 13.1988593, 54.2870455 ], [ 13.1968163, 54.285574 ], [ 13.1960895, 54.2840225 ], [ 13.1958111, 54.2820718 ], [ 13.1963878, 54.2815286 ], [ 13.1957793, 54.2805873 ], [ 13.1967041, 54.2762513 ], [ 13.1996989, 54.2699665 ], [ 13.2047762, 54.2706625 ], [ 13.2086942, 54.2699531 ], [ 13.2158206, 54.2710789 ], [ 13.2161524, 54.2730849 ], [ 13.2150458, 54.2733997 ], [ 13.2140307, 54.2752978 ], [ 13.2157224, 54.2759499 ], [ 13.2148385, 54.2768343 ], [ 13.2162618, 54.2776298 ], [ 13.2148621, 54.2779127 ], [ 13.2152645, 54.2795513 ], [ 13.2174609, 54.2794694 ], [ 13.2190273, 54.2790812 ], [ 13.2194279, 54.2782038 ], [ 13.2184105, 54.2760574 ], [ 13.2167917, 54.2753362 ], [ 13.2176248, 54.274289 ], [ 13.2168908, 54.2729183 ], [ 13.2271524, 54.2687381 ], [ 13.2401159, 54.2666298 ], [ 13.2461652, 54.2603331 ], [ 13.2499931, 54.258719 ], [ 13.2703408, 54.2536757 ], [ 13.2776392, 54.2554164 ], [ 13.284101, 54.2585366 ], [ 13.2883401, 54.2591959 ], [ 13.3058313, 54.2585441 ], [ 13.3124875, 54.2570454 ], [ 13.3208909, 54.2578238 ], [ 13.32196, 54.2584 ], [ 13.3196684, 54.2594446 ], [ 13.314323, 54.2594949 ], [ 13.315008, 54.2599371 ], [ 13.3147082, 54.263809 ], [ 13.3130045, 54.2646583 ], [ 13.3107469, 54.2644607 ], [ 13.3097263, 54.265537 ], [ 13.3102438, 54.2660025 ], [ 13.3093108, 54.2662516 ], [ 13.3110225, 54.2661804 ], [ 13.3116235, 54.2671783 ], [ 13.3177286, 54.2688431 ], [ 13.3193996, 54.2700016 ], [ 13.3245686, 54.2706226 ], [ 13.3255494, 54.272236 ], [ 13.328584, 54.2734782 ], [ 13.3283262, 54.2753104 ], [ 13.3328231, 54.277406 ], [ 13.3328393, 54.2784239 ], [ 13.3343176, 54.2791618 ], [ 13.3348267, 54.2785205 ], [ 13.3368533, 54.2786353 ], [ 13.3368216, 54.2772869 ], [ 13.3383707, 54.2767981 ], [ 13.3352228, 54.2740811 ], [ 13.3349243, 54.2702651 ], [ 13.3325723, 54.269334 ], [ 13.3293024, 54.2695263 ], [ 13.326793, 54.2673369 ], [ 13.3234928, 54.2660945 ], [ 13.3227797, 54.2626999 ], [ 13.3238512, 54.2621816 ], [ 13.3230108, 54.2616726 ], [ 13.3232654, 54.2607111 ], [ 13.3257062, 54.2601243 ], [ 13.3272101, 54.2586003 ], [ 13.3274202, 54.2579324 ], [ 13.3266203, 54.2576094 ], [ 13.327209, 54.2567271 ], [ 13.326428, 54.2562188 ], [ 13.3275395, 54.2552231 ], [ 13.3231847, 54.2525716 ], [ 13.3225888, 54.2507136 ], [ 13.3238599, 54.2485613 ], [ 13.3207181, 54.2449119 ], [ 13.3184823, 54.2448131 ], [ 13.3103871, 54.2491849 ], [ 13.3049015, 54.2497969 ], [ 13.2975492, 54.2519203 ], [ 13.2952341, 54.2537084 ], [ 13.2955897, 54.2556267 ], [ 13.2915958, 54.253201 ], [ 13.2909151, 54.2515926 ], [ 13.2958201, 54.2493082 ], [ 13.3037591, 54.2497092 ], [ 13.3092284, 54.2484805 ], [ 13.3127762, 54.2457671 ], [ 13.3153778, 54.2420544 ], [ 13.3151159, 54.2409948 ], [ 13.3169649, 54.2416648 ], [ 13.3230706, 54.2376724 ], [ 13.3289115, 54.2392967 ], [ 13.3381064, 54.2368295 ], [ 13.3580945, 54.2343315 ], [ 13.370731, 54.2309463 ], [ 13.3836432, 54.2292524 ], [ 13.3884419, 54.2264794 ], [ 13.3915451, 54.2217143 ], [ 13.3931581, 54.2206773 ], [ 13.3989973, 54.2265686 ], [ 13.4069877, 54.2304034 ], [ 13.4172891, 54.2330681 ], [ 13.420756, 54.235089 ], [ 13.4236611, 54.2380918 ], [ 13.42442, 54.23954 ], [ 13.4234657, 54.2457208 ], [ 13.4173498, 54.2554775 ], [ 13.4136643, 54.2580083 ], [ 13.4105781, 54.2590794 ], [ 13.4043989, 54.2647388 ], [ 13.4011431, 54.2657119 ], [ 13.3992178, 54.2651679 ], [ 13.4011551, 54.2651803 ], [ 13.4000957, 54.2649934 ], [ 13.4003875, 54.2645551 ], [ 13.3981701, 54.2639001 ], [ 13.3969848, 54.2645168 ], [ 13.3972443, 54.2650393 ], [ 13.3941798, 54.2651079 ], [ 13.3921015, 54.2641408 ], [ 13.39027, 54.26266 ], [ 13.3909455, 54.2616709 ], [ 13.3905984, 54.2605742 ], [ 13.3913577, 54.2602028 ], [ 13.3904181, 54.2588746 ], [ 13.3790066, 54.2533856 ], [ 13.3751799, 54.2565576 ], [ 13.3755665, 54.2574569 ], [ 13.3741608, 54.2578566 ], [ 13.3705863, 54.2623003 ], [ 13.3674404, 54.26405 ], [ 13.3647229, 54.2642193 ], [ 13.3603262, 54.2626067 ], [ 13.359837, 54.260421 ], [ 13.3619138, 54.2582384 ], [ 13.3587718, 54.2574528 ], [ 13.3628236, 54.2553812 ], [ 13.36294, 54.2568842 ], [ 13.3650965, 54.2583576 ], [ 13.3684496, 54.255622 ], [ 13.3692062, 54.2537821 ], [ 13.3661146, 54.2498085 ], [ 13.3610349, 54.2496041 ], [ 13.3593791, 54.2467935 ], [ 13.3582364, 54.2466569 ], [ 13.3586019, 54.24941 ], [ 13.3598099, 54.2502928 ], [ 13.3578972, 54.2512993 ], [ 13.355978, 54.2505273 ], [ 13.3549801, 54.2516847 ], [ 13.3559327, 54.252159 ], [ 13.354003, 54.2524866 ], [ 13.35491, 54.2528847 ], [ 13.3532295, 54.253081 ], [ 13.3537838, 54.2537084 ], [ 13.3522755, 54.2537792 ], [ 13.3588735, 54.2559447 ], [ 13.3561774, 54.2583785 ], [ 13.3560909, 54.2590495 ], [ 13.3577, 54.2592113 ], [ 13.35799, 54.259968 ], [ 13.3550846, 54.259959 ], [ 13.3538167, 54.2614476 ], [ 13.3566866, 54.2628198 ], [ 13.3568976, 54.2636247 ], [ 13.3542028, 54.2651174 ], [ 13.3522779, 54.2681502 ], [ 13.3521411, 54.2699938 ], [ 13.3502804, 54.2685904 ], [ 13.350531, 54.2697065 ], [ 13.3523375, 54.2704031 ], [ 13.3555284, 54.2701857 ], [ 13.3561025, 54.2695332 ], [ 13.3562827, 54.2701511 ], [ 13.3577654, 54.2700292 ], [ 13.3593428, 54.2714849 ], [ 13.3587584, 54.272798 ], [ 13.3603009, 54.2722041 ], [ 13.3615752, 54.2736611 ], [ 13.3627981, 54.2716161 ], [ 13.3691389, 54.2710263 ], [ 13.3714067, 54.2719463 ], [ 13.3723573, 54.2741277 ], [ 13.3720908, 54.2756229 ], [ 13.3789645, 54.2776193 ], [ 13.3758081, 54.278469 ], [ 13.3743002, 54.2768548 ], [ 13.3718701, 54.276371 ], [ 13.3712789, 54.2768541 ], [ 13.3718438, 54.278112 ], [ 13.3762236, 54.2788757 ], [ 13.3830625, 54.2771547 ], [ 13.3841991, 54.2772887 ], [ 13.3866461, 54.2795299 ], [ 13.3885909, 54.2790001 ], [ 13.390314, 54.2794896 ], [ 13.3915829, 54.2783831 ], [ 13.3909182, 54.2768297 ], [ 13.3864002, 54.2725395 ], [ 13.3858099, 54.2673623 ], [ 13.3844654, 54.2663171 ], [ 13.3868677, 54.266707 ], [ 13.3898747, 54.2694188 ], [ 13.3918629, 54.2696557 ], [ 13.3919168, 54.2703364 ], [ 13.3967578, 54.2733694 ], [ 13.3987104, 54.275448 ], [ 13.3983961, 54.2764561 ], [ 13.4013768, 54.2781842 ], [ 13.4011439, 54.2792298 ], [ 13.4043394, 54.2808603 ], [ 13.4088432, 54.2855435 ], [ 13.410733, 54.2862702 ], [ 13.4093796, 54.2871545 ], [ 13.41188, 54.288939 ], [ 13.4118132, 54.2901566 ], [ 13.4126631, 54.2899211 ], [ 13.4137342, 54.2898395 ], [ 13.4116502, 54.2956788 ], [ 13.4134181, 54.2975707 ], [ 13.4145191, 54.2975052 ], [ 13.4152584, 54.2991001 ], [ 13.4199543, 54.3029389 ], [ 13.4266309, 54.3068627 ], [ 13.4326837, 54.3075707 ], [ 13.4444658, 54.3139432 ], [ 13.4595472, 54.3157196 ], [ 13.4656602, 54.3213355 ], [ 13.4660343, 54.3261577 ], [ 13.4629627, 54.3292198 ], [ 13.461882, 54.3289746 ], [ 13.4624541, 54.3280802 ], [ 13.460779, 54.3274064 ], [ 13.4524506, 54.3260106 ], [ 13.4571743, 54.3291274 ], [ 13.4552876, 54.330121 ], [ 13.4554843, 54.3307846 ], [ 13.452931, 54.3301313 ], [ 13.4503002, 54.3316668 ], [ 13.4545461, 54.334138 ], [ 13.4535921, 54.335138 ], [ 13.4542014, 54.3359544 ], [ 13.4591899, 54.3346254 ], [ 13.4615921, 54.3318094 ], [ 13.461039, 54.3302143 ], [ 13.4616915, 54.3295346 ], [ 13.4645475, 54.32911 ], [ 13.4675121, 54.3306913 ], [ 13.478978, 54.3308944 ], [ 13.4796157, 54.3323335 ], [ 13.4835473, 54.3351613 ], [ 13.4950038, 54.3371061 ], [ 13.4995511, 54.3404399 ], [ 13.5024507, 54.3402542 ], [ 13.4996674, 54.3416083 ], [ 13.5007141, 54.3425904 ], [ 13.5017128, 54.3428173 ], [ 13.5044114, 54.3405 ], [ 13.5077695, 54.3403143 ], [ 13.5048865, 54.3405393 ], [ 13.5042551, 54.3415812 ], [ 13.5048262, 54.3429997 ], [ 13.5055522, 54.3429476 ], [ 13.5050536, 54.3434753 ], [ 13.5071095, 54.3441404 ], [ 13.5102031, 54.3439745 ], [ 13.5140459, 54.3414899 ], [ 13.5182506, 54.3407858 ], [ 13.5306104, 54.3403225 ], [ 13.536073, 54.341179 ], [ 13.538021, 54.3430157 ], [ 13.5452191, 54.3423995 ], [ 13.5512008, 54.3396636 ], [ 13.5644069, 54.3450758 ], [ 13.5721555, 54.351976 ], [ 13.5779245, 54.3529363 ], [ 13.5888528, 54.3517345 ], [ 13.6002329, 54.3468044 ], [ 13.6042627, 54.343738 ], [ 13.6089157, 54.3385274 ], [ 13.6127463, 54.3309317 ], [ 13.614822, 54.3307434 ], [ 13.6276413, 54.3320118 ], [ 13.6243371, 54.3320087 ], [ 13.6228657, 54.3345711 ], [ 13.6306314, 54.3373842 ], [ 13.6294541, 54.3379419 ], [ 13.629576, 54.3388351 ], [ 13.6333914, 54.3395014 ], [ 13.636603, 54.3389204 ], [ 13.6396346, 54.3397954 ], [ 13.6400668, 54.3401056 ], [ 13.6356878, 54.3428327 ], [ 13.6355436, 54.343733 ], [ 13.6377292, 54.3445918 ], [ 13.6369914, 54.3447305 ], [ 13.6380856, 54.3456511 ], [ 13.6382155, 54.344994 ], [ 13.6415792, 54.3457816 ], [ 13.6464675, 54.3480206 ], [ 13.6496302, 54.3482729 ], [ 13.6517439, 54.3497349 ], [ 13.6512439, 54.3520209 ], [ 13.6520601, 54.353675 ], [ 13.6505059, 54.3558353 ], [ 13.6522016, 54.3557473 ], [ 13.6531988, 54.3535105 ], [ 13.653258, 54.3500334 ], [ 13.6515296, 54.3479312 ], [ 13.6535545, 54.3471251 ], [ 13.6596189, 54.3472892 ], [ 13.6749905, 54.3509853 ], [ 13.6800817, 54.349804 ], [ 13.6846247, 54.3508601 ], [ 13.6853583, 54.3504325 ], [ 13.6827889, 54.3489708 ], [ 13.685143, 54.3466673 ], [ 13.6823572, 54.3452184 ], [ 13.6823602, 54.3429251 ], [ 13.6812635, 54.3411543 ], [ 13.6758681, 54.3375845 ], [ 13.6672985, 54.3341001 ], [ 13.6569873, 54.3312732 ], [ 13.6478954, 54.3265859 ], [ 13.6426086, 54.324934 ], [ 13.6219049, 54.3213649 ], [ 13.6165466, 54.3197749 ], [ 13.6134213, 54.3203338 ], [ 13.6106374, 54.3166119 ], [ 13.6165593, 54.3158091 ], [ 13.6175126, 54.3176334 ], [ 13.6207062, 54.3189807 ], [ 13.6311297, 54.3200947 ], [ 13.6368663, 54.3198946 ], [ 13.6388834, 54.3212482 ], [ 13.6490861, 54.3235527 ], [ 13.6553125, 54.326771 ], [ 13.6721823, 54.3303922 ], [ 13.6763298, 54.3301337 ], [ 13.6828409, 54.3264677 ], [ 13.6899819, 54.3260339 ], [ 13.6952217, 54.3246575 ], [ 13.7041368, 54.3262463 ], [ 13.7036564, 54.3252974 ], [ 13.7048344, 54.3249639 ], [ 13.703397, 54.3236218 ], [ 13.705223, 54.3228409 ], [ 13.7033213, 54.3202559 ], [ 13.6972086, 54.3180125 ], [ 13.6969718, 54.3173569 ], [ 13.6974585, 54.3167805 ], [ 13.69793, 54.3180306 ], [ 13.7005439, 54.317047 ], [ 13.6983024, 54.315569 ], [ 13.6870642, 54.3151283 ], [ 13.684263, 54.3136975 ], [ 13.6840816, 54.3129112 ], [ 13.6864473, 54.3124558 ], [ 13.6852269, 54.3109834 ], [ 13.6854861, 54.3102457 ], [ 13.6818308, 54.3099426 ], [ 13.6811967, 54.3107465 ], [ 13.6818381, 54.3121809 ], [ 13.6801405, 54.309637 ], [ 13.6772785, 54.3079924 ], [ 13.6718095, 54.3063398 ], [ 13.6610519, 54.3051669 ], [ 13.6464573, 54.2977036 ], [ 13.6551429, 54.2892918 ], [ 13.6568113, 54.2883869 ], [ 13.6617995, 54.2880903 ], [ 13.666598, 54.2913278 ], [ 13.6694224, 54.292156 ], [ 13.6814789, 54.2918444 ], [ 13.6879992, 54.291021 ], [ 13.6912688, 54.2897999 ], [ 13.6901745, 54.2913411 ], [ 13.6922885, 54.2939028 ], [ 13.697562, 54.2943276 ], [ 13.6984471, 54.2956828 ], [ 13.7000443, 54.2962354 ], [ 13.702115, 54.2955666 ], [ 13.7049092, 54.293858 ], [ 13.704584, 54.2933876 ], [ 13.7056737, 54.2927861 ], [ 13.7054457, 54.2920761 ], [ 13.7077108, 54.2891478 ], [ 13.7072435, 54.2885145 ], [ 13.7088642, 54.2850743 ], [ 13.7085973, 54.2824188 ], [ 13.709225, 54.281381 ], [ 13.7079697, 54.2811786 ], [ 13.7077467, 54.2808509 ], [ 13.709792, 54.2806606 ], [ 13.7088765, 54.2805229 ], [ 13.7093622, 54.2800161 ], [ 13.7076425, 54.2806771 ], [ 13.7050635, 54.279743 ], [ 13.6986256, 54.2804119 ], [ 13.695779, 54.2817795 ], [ 13.6956149, 54.2842216 ], [ 13.69055, 54.2862584 ], [ 13.6914312, 54.2868839 ], [ 13.6909143, 54.2872857 ], [ 13.686777, 54.2859784 ], [ 13.6847573, 54.2835984 ], [ 13.6879384, 54.280415 ], [ 13.6943192, 54.2806209 ], [ 13.6985485, 54.2787738 ], [ 13.70295, 54.27533 ], [ 13.7084322, 54.2690556 ], [ 13.7101746, 54.268833 ], [ 13.7121327, 54.2691947 ], [ 13.7117995, 54.2698336 ], [ 13.7131207, 54.2715633 ], [ 13.7241748, 54.2740771 ], [ 13.718003, 54.2833666 ], [ 13.7162759, 54.287944 ], [ 13.7149751, 54.295142 ], [ 13.715975, 54.302101 ], [ 13.7183914, 54.3103578 ], [ 13.7206784, 54.3142912 ], [ 13.7250619, 54.3174442 ], [ 13.7303294, 54.3181732 ], [ 13.7306261, 54.3228269 ], [ 13.7334921, 54.3292389 ], [ 13.7396108, 54.3352468 ], [ 13.7444123, 54.3372662 ], [ 13.7488461, 54.3372533 ], [ 13.7588548, 54.3396594 ], [ 13.7658382, 54.3398781 ], [ 13.7665208, 54.3411669 ], [ 13.7655307, 54.3419849 ], [ 13.7633187, 54.3413002 ], [ 13.7603772, 54.3416297 ], [ 13.7463883, 54.3450538 ], [ 13.7357613, 54.3499691 ], [ 13.7277231, 54.354846 ], [ 13.7193526, 54.3607173 ], [ 13.7105888, 54.3688523 ], [ 13.7083009, 54.3721523 ], [ 13.7080407, 54.3744256 ], [ 13.7062781, 54.3775125 ], [ 13.7019895, 54.382359 ], [ 13.696498, 54.3843617 ], [ 13.6828991, 54.3926658 ], [ 13.6723807, 54.4011353 ], [ 13.6654848, 54.4027178 ], [ 13.6641265, 54.402549 ], [ 13.6608783, 54.399919 ], [ 13.6576606, 54.3992824 ], [ 13.6438571, 54.3987961 ], [ 13.6336532, 54.4001577 ], [ 13.6326813, 54.399247 ], [ 13.6283093, 54.3984975 ], [ 13.6231738, 54.399116 ], [ 13.6144141, 54.4028215 ], [ 13.6028296, 54.4106411 ], [ 13.5907461, 54.4222 ], [ 13.5851759, 54.4288285 ], [ 13.5791381, 54.4378348 ], [ 13.5729975, 54.44966 ], [ 13.5696604, 54.461261 ], [ 13.5696759, 54.4656361 ], [ 13.5707028, 54.4712655 ], [ 13.5721606, 54.4744468 ], [ 13.5770844, 54.4791454 ], [ 13.5786381, 54.4801021 ], [ 13.5804542, 54.4790347 ], [ 13.5810431, 54.4790982 ], [ 13.5787869, 54.4801431 ], [ 13.5809416, 54.4813787 ], [ 13.5824858, 54.4804438 ], [ 13.5820069, 54.4793421 ], [ 13.5831332, 54.4807822 ], [ 13.5843147, 54.48007 ], [ 13.5831299, 54.4791841 ], [ 13.5868722, 54.4813005 ], [ 13.584713, 54.4825985 ], [ 13.5850175, 54.483235 ], [ 13.5880153, 54.4820684 ], [ 13.5855971, 54.4835639 ], [ 13.5873074, 54.4840263 ], [ 13.5871363, 54.484748 ], [ 13.5902256, 54.4825905 ], [ 13.5875018, 54.4849109 ], [ 13.5890998, 54.4859292 ], [ 13.5925462, 54.4833236 ], [ 13.5964095, 54.4843329 ], [ 13.5988567, 54.4819025 ], [ 13.597479, 54.4781337 ], [ 13.5983224, 54.4777105 ], [ 13.5977003, 54.4763777 ], [ 13.5992558, 54.4790197 ], [ 13.5996887, 54.4811113 ], [ 13.6019091, 54.4834293 ], [ 13.5980777, 54.4872886 ], [ 13.5985422, 54.4889464 ], [ 13.6033178, 54.4928951 ], [ 13.6059597, 54.4967171 ], [ 13.6081966, 54.4984122 ], [ 13.620963, 54.5020489 ], [ 13.6257131, 54.504213 ], [ 13.6282793, 54.5064331 ], [ 13.6301682, 54.5062921 ], [ 13.6328304, 54.5079862 ], [ 13.634838, 54.5085725 ], [ 13.6367821, 54.5081113 ], [ 13.634145, 54.5092125 ], [ 13.6385571, 54.5113915 ], [ 13.6385558, 54.510531 ], [ 13.6394143, 54.5115961 ], [ 13.6394117, 54.5105703 ], [ 13.640493, 54.5119119 ], [ 13.6437422, 54.5133826 ], [ 13.6441935, 54.5120007 ], [ 13.6430247, 54.5115732 ], [ 13.6443017, 54.5114333 ], [ 13.6432081, 54.5109384 ], [ 13.6444544, 54.5114087 ], [ 13.6439073, 54.5134463 ], [ 13.6487452, 54.5148084 ], [ 13.6497795, 54.5142921 ], [ 13.6508424, 54.5150972 ], [ 13.6506403, 54.5137319 ], [ 13.647131, 54.5124931 ], [ 13.645007, 54.5107482 ], [ 13.639167, 54.5084882 ], [ 13.6374255, 54.5059252 ], [ 13.6393571, 54.5082368 ], [ 13.6454164, 54.5106498 ], [ 13.6475026, 54.5124064 ], [ 13.6509709, 54.5136315 ], [ 13.6538118, 54.5162462 ], [ 13.6583125, 54.5169228 ], [ 13.6684694, 54.5207916 ], [ 13.6729415, 54.5275466 ], [ 13.6760089, 54.5292672 ], [ 13.6782936, 54.5320211 ], [ 13.6786734, 54.5383884 ], [ 13.6810294, 54.5417783 ], [ 13.6811215, 54.543815 ], [ 13.6761881, 54.5543396 ], [ 13.6773994, 54.5574564 ], [ 13.6768033, 54.5588192 ], [ 13.6797367, 54.5622224 ], [ 13.6789766, 54.5632396 ], [ 13.6769787, 54.5641863 ], [ 13.6729856, 54.5682146 ], [ 13.6632245, 54.5733579 ], [ 13.661344, 54.5756051 ], [ 13.649152, 54.5791245 ], [ 13.6408008, 54.5837742 ], [ 13.6353223, 54.585383 ], [ 13.6207026, 54.5854832 ], [ 13.6046974, 54.5841802 ], [ 13.5906436, 54.5843761 ], [ 13.5475923, 54.5801011 ], [ 13.5228671, 54.5765423 ], [ 13.5089005, 54.5736776 ], [ 13.5002441, 54.5753459 ], [ 13.500704, 54.5749221 ], [ 13.4993645, 54.5744464 ], [ 13.495846, 54.5745583 ], [ 13.4914464, 54.572296 ], [ 13.4766138, 54.5733491 ], [ 13.4701136, 54.5751088 ], [ 13.4692176, 54.5748274 ], [ 13.468983, 54.572516 ], [ 13.4679836, 54.5715626 ], [ 13.4621881, 54.5700688 ], [ 13.4523162, 54.5706781 ], [ 13.4339887, 54.5741606 ], [ 13.4174663, 54.5807926 ], [ 13.399474, 54.5927635 ], [ 13.389415, 54.6029288 ], [ 13.3816668, 54.614483 ], [ 13.3780256, 54.6239514 ], [ 13.3765841, 54.6345066 ], [ 13.377091, 54.6363863 ], [ 13.3842847, 54.6469552 ], [ 13.3897235, 54.6510355 ], [ 13.4017682, 54.6543493 ], [ 13.4155955, 54.655487 ], [ 13.4210283, 54.6566957 ], [ 13.4273868, 54.6598331 ], [ 13.4307711, 54.6627973 ], [ 13.4327923, 54.6657739 ], [ 13.4319485, 54.6691267 ], [ 13.4335059, 54.6736278 ], [ 13.4378189, 54.6767791 ], [ 13.4351907, 54.6803644 ], [ 13.4284539, 54.6850775 ], [ 13.4081429, 54.6820594 ], [ 13.3766436, 54.6833532 ], [ 13.334947, 54.675102 ], [ 13.2881731, 54.6732819 ], [ 13.2656391, 54.6654867 ], [ 13.2554716, 54.6606086 ], [ 13.2510191, 54.6598981 ], [ 13.2427619, 54.6551345 ], [ 13.242382, 54.654082 ], [ 13.2375517, 54.6507325 ], [ 13.2295184, 54.6477715 ], [ 13.2275872, 54.6450881 ], [ 13.2238589, 54.6435966 ], [ 13.2227941, 54.6419793 ], [ 13.2203828, 54.640573 ], [ 13.2196345, 54.6389432 ], [ 13.2199564, 54.6375136 ], [ 13.2187094, 54.636132 ], [ 13.2195721, 54.6339325 ], [ 13.221213, 54.632707 ], [ 13.2210079, 54.6275092 ], [ 13.2262732, 54.6176452 ], [ 13.2269377, 54.612881 ], [ 13.2237625, 54.6057065 ], [ 13.2185273, 54.5987835 ], [ 13.2088772, 54.5902927 ], [ 13.1972896, 54.5830405 ], [ 13.1826261, 54.5771996 ], [ 13.1688344, 54.5743756 ], [ 13.1660544, 54.5730698 ], [ 13.1626172, 54.5706883 ], [ 13.1632251, 54.5698784 ], [ 13.1672141, 54.5723311 ], [ 13.1634644, 54.5694799 ], [ 13.1606499, 54.5652669 ], [ 13.1602588, 54.564259 ], [ 13.161337, 54.5607769 ], [ 13.1606477, 54.5590091 ], [ 13.1632181, 54.5580012 ], [ 13.1750605, 54.5605664 ], [ 13.1758788, 54.5616161 ], [ 13.173637, 54.5648409 ], [ 13.1750198, 54.5655278 ], [ 13.1762498, 54.5650308 ], [ 13.1762031, 54.5636275 ], [ 13.1754794, 54.5636203 ], [ 13.1770679, 54.5613864 ], [ 13.1768748, 54.5632216 ], [ 13.1816089, 54.5640582 ], [ 13.1834368, 54.5652867 ], [ 13.184444, 54.5675773 ], [ 13.1833819, 54.5691898 ], [ 13.1839804, 54.5700147 ], [ 13.1891942, 54.5719715 ], [ 13.194632, 54.5719455 ], [ 13.197006, 54.5737799 ], [ 13.1975841, 54.5753002 ], [ 13.2010398, 54.5756625 ], [ 13.2122709, 54.5828856 ], [ 13.2142983, 54.5857122 ], [ 13.2282897, 54.5874685 ], [ 13.2270388, 54.5909351 ], [ 13.229076, 54.5931357 ], [ 13.2299289, 54.5959771 ], [ 13.2338737, 54.5976485 ], [ 13.2361731, 54.5975247 ], [ 13.2369086, 54.5967455 ], [ 13.2370166, 54.5940421 ], [ 13.2376349, 54.5962521 ], [ 13.2365432, 54.6005205 ], [ 13.2299691, 54.6091785 ], [ 13.226217, 54.6206986 ], [ 13.2268322, 54.621208 ], [ 13.2257001, 54.6219954 ], [ 13.2264076, 54.6226474 ], [ 13.2264715, 54.6250092 ], [ 13.2308596, 54.6257507 ], [ 13.2335928, 54.6284416 ], [ 13.2402425, 54.6327215 ], [ 13.2631239, 54.6435641 ], [ 13.2648768, 54.6441275 ], [ 13.2672787, 54.6432855 ], [ 13.2690655, 54.6435764 ], [ 13.2819183, 54.6469094 ], [ 13.2867996, 54.6426885 ], [ 13.2879263, 54.6404598 ], [ 13.286785, 54.6394188 ], [ 13.2872719, 54.6389308 ], [ 13.2861212, 54.6388346 ], [ 13.2881327, 54.6372045 ], [ 13.287178, 54.6359441 ], [ 13.2883695, 54.6348027 ], [ 13.2875884, 54.6331408 ], [ 13.2885004, 54.6309687 ], [ 13.2875576, 54.6253371 ], [ 13.2865753, 54.6233868 ], [ 13.2848884, 54.6222956 ], [ 13.2856655, 54.6217458 ], [ 13.2845512, 54.620345 ], [ 13.2832781, 54.6206546 ], [ 13.2832305, 54.6218087 ], [ 13.2824079, 54.6217544 ], [ 13.2841843, 54.6192726 ], [ 13.2799543, 54.6120735 ], [ 13.2693708, 54.6016873 ], [ 13.2615282, 54.5958463 ], [ 13.2567989, 54.5898823 ], [ 13.2492948, 54.5701773 ], [ 13.2435613, 54.5622205 ], [ 13.2433321, 54.559881 ], [ 13.2440691, 54.558984 ], [ 13.2457405, 54.5577991 ], [ 13.2476124, 54.5578766 ], [ 13.2486963, 54.5583941 ], [ 13.2495694, 54.5609175 ], [ 13.2549915, 54.5615653 ], [ 13.2578641, 54.5633638 ], [ 13.265037, 54.5630707 ], [ 13.2775904, 54.5643654 ], [ 13.2816915, 54.5657284 ], [ 13.284734, 54.5680041 ], [ 13.2847519, 54.5687731 ], [ 13.2892701, 54.5708427 ], [ 13.2953292, 54.5721954 ], [ 13.2957798, 54.5719326 ], [ 13.2948598, 54.5718751 ], [ 13.2954526, 54.5715206 ], [ 13.2988459, 54.5714038 ], [ 13.3064562, 54.5730744 ], [ 13.3066656, 54.5741338 ], [ 13.3075999, 54.5741699 ], [ 13.3097864, 54.576719 ], [ 13.3132584, 54.5775358 ], [ 13.3148704, 54.5791137 ], [ 13.3147444, 54.5798467 ], [ 13.3152473, 54.5792194 ], [ 13.3171396, 54.5795124 ], [ 13.317153, 54.5801117 ], [ 13.3199996, 54.579678 ], [ 13.327442, 54.5811913 ], [ 13.3265338, 54.5814354 ], [ 13.3268827, 54.5816227 ], [ 13.3298579, 54.5812348 ], [ 13.3298211, 54.5819561 ], [ 13.3324778, 54.581918 ], [ 13.3345895, 54.5833017 ], [ 13.3350286, 54.584625 ], [ 13.3324929, 54.5866852 ], [ 13.3334084, 54.5871505 ], [ 13.3321466, 54.5887912 ], [ 13.3323464, 54.589632 ], [ 13.3295166, 54.5906088 ], [ 13.3300719, 54.5916756 ], [ 13.3276311, 54.5935141 ], [ 13.3317295, 54.5948303 ], [ 13.3332492, 54.5962246 ], [ 13.339853, 54.5973728 ], [ 13.3413956, 54.5985198 ], [ 13.3434959, 54.5983348 ], [ 13.3442071, 54.599596 ], [ 13.3455804, 54.5992503 ], [ 13.3448133, 54.5996783 ], [ 13.3481714, 54.6004785 ], [ 13.3536485, 54.6051659 ], [ 13.3530151, 54.6069037 ], [ 13.3519062, 54.6072144 ], [ 13.3535197, 54.6089978 ], [ 13.352593, 54.6097641 ], [ 13.3558564, 54.6128978 ], [ 13.359356, 54.6135351 ], [ 13.3637014, 54.6125091 ], [ 13.3666545, 54.612936 ], [ 13.3663289, 54.6136683 ], [ 13.3678937, 54.6149443 ], [ 13.3673255, 54.6152397 ], [ 13.3712136, 54.6144947 ], [ 13.3720431, 54.6130836 ], [ 13.3717228, 54.6118459 ], [ 13.3730462, 54.6107039 ], [ 13.3723971, 54.6098527 ], [ 13.3743122, 54.6088538 ], [ 13.3741557, 54.6070397 ], [ 13.3763856, 54.6062704 ], [ 13.3769381, 54.6043021 ], [ 13.3791321, 54.6034025 ], [ 13.3811533, 54.6003583 ], [ 13.3808622, 54.5994919 ], [ 13.3832863, 54.5968027 ], [ 13.3827791, 54.5963335 ], [ 13.384046, 54.5957689 ], [ 13.3834076, 54.5924682 ], [ 13.3844054, 54.5920952 ], [ 13.3835875, 54.5902613 ], [ 13.3842943, 54.5885874 ], [ 13.3827719, 54.5864288 ], [ 13.3840782, 54.5816071 ], [ 13.3896075, 54.5785448 ], [ 13.3958765, 54.5729244 ], [ 13.398027, 54.5723164 ], [ 13.4065953, 54.5730933 ], [ 13.4150547, 54.5705496 ], [ 13.4258401, 54.5686938 ], [ 13.4303961, 54.5649726 ], [ 13.4330453, 54.5601527 ], [ 13.4365166, 54.5585581 ], [ 13.4378779, 54.5566681 ], [ 13.4462424, 54.5515018 ], [ 13.4490412, 54.5512972 ], [ 13.453306, 54.5531025 ], [ 13.4568908, 54.5534208 ], [ 13.4678677, 54.5537021 ], [ 13.4794855, 54.5527523 ], [ 13.4842836, 54.5536592 ], [ 13.4879942, 54.5514408 ], [ 13.4891191, 54.5515374 ], [ 13.4894688, 54.5507302 ], [ 13.4911469, 54.5507414 ], [ 13.4920089, 54.5516744 ], [ 13.494101, 54.5510903 ], [ 13.4948225, 54.5495972 ], [ 13.49692, 54.5483329 ], [ 13.4990966, 54.548189 ], [ 13.498292, 54.54849 ], [ 13.4988396, 54.5490059 ], [ 13.4995246, 54.5481505 ], [ 13.5004418, 54.5489839 ], [ 13.5024199, 54.5485211 ], [ 13.502894, 54.5460071 ], [ 13.5043996, 54.5438396 ], [ 13.5047597, 54.5420134 ], [ 13.5039657, 54.5408489 ], [ 13.5060663, 54.5402018 ], [ 13.5050946, 54.5390451 ], [ 13.5062756, 54.5384466 ], [ 13.5067986, 54.5352635 ], [ 13.5097237, 54.5318515 ], [ 13.5100273, 54.5296666 ], [ 13.5117711, 54.5301196 ], [ 13.5132815, 54.5281758 ], [ 13.51054, 54.5287859 ], [ 13.5091199, 54.5252574 ], [ 13.5052075, 54.5250136 ], [ 13.5102185, 54.5251347 ], [ 13.5112993, 54.5256791 ], [ 13.5135751, 54.5250874 ], [ 13.5048902, 54.5245327 ], [ 13.5097611, 54.5244175 ], [ 13.5111394, 54.5233615 ], [ 13.512879, 54.5208077 ], [ 13.5114682, 54.519021 ], [ 13.5145195, 54.5158774 ], [ 13.5147998, 54.5139663 ], [ 13.513999, 54.5121899 ], [ 13.5146883, 54.5114596 ], [ 13.5143691, 54.5102901 ], [ 13.5134491, 54.5098495 ], [ 13.5138964, 54.5094312 ], [ 13.5096616, 54.5087362 ], [ 13.5080283, 54.506495 ], [ 13.5045764, 54.4975785 ], [ 13.5006152, 54.4924191 ], [ 13.5005477, 54.4889563 ], [ 13.5043961, 54.4859482 ], [ 13.5054535, 54.4817365 ], [ 13.5030921, 54.4802131 ], [ 13.4958692, 54.4794367 ], [ 13.496169, 54.4809386 ], [ 13.4952678, 54.4812502 ], [ 13.494897, 54.4798112 ], [ 13.4937958, 54.4799535 ], [ 13.4938985, 54.4811029 ], [ 13.4909521, 54.482549 ], [ 13.4860031, 54.4837892 ], [ 13.4814029, 54.4835933 ], [ 13.4702674, 54.4814165 ], [ 13.4603483, 54.477736 ], [ 13.456998, 54.4774431 ], [ 13.4563208, 54.4761411 ], [ 13.4527266, 54.4747337 ], [ 13.4523229, 54.4742015 ], [ 13.4531509, 54.472848 ], [ 13.4513077, 54.4718246 ], [ 13.4503543, 54.4721021 ], [ 13.4510672, 54.4728229 ], [ 13.4505741, 54.4733412 ], [ 13.4473637, 54.475302 ], [ 13.4478289, 54.4762907 ], [ 13.4463958, 54.4767937 ], [ 13.4471514, 54.4773108 ], [ 13.4459413, 54.478171 ], [ 13.4460145, 54.479989 ], [ 13.4444475, 54.4805386 ], [ 13.444511, 54.4823231 ], [ 13.4434099, 54.483265 ], [ 13.444338, 54.4844118 ], [ 13.4429738, 54.4851002 ], [ 13.4417054, 54.4875475 ], [ 13.4316344, 54.4892006 ], [ 13.4294287, 54.4901978 ], [ 13.4282144, 54.4897453 ], [ 13.4259984, 54.4907273 ], [ 13.4233565, 54.4906179 ], [ 13.4220488, 54.4917712 ], [ 13.4185155, 54.492199 ], [ 13.4191655, 54.4933702 ], [ 13.4132163, 54.4938805 ], [ 13.4125574, 54.4945166 ], [ 13.4132646, 54.4955597 ], [ 13.4126852, 54.4965341 ], [ 13.4107621, 54.4966724 ], [ 13.4121585, 54.4990529 ], [ 13.4080155, 54.5019419 ], [ 13.4078519, 54.5041295 ], [ 13.4066919, 54.5046042 ], [ 13.4081563, 54.5054704 ], [ 13.4070445, 54.5057079 ], [ 13.4065329, 54.5073237 ], [ 13.4078438, 54.5072302 ], [ 13.4085694, 54.5104902 ], [ 13.4102377, 54.5126601 ], [ 13.4129224, 54.5143272 ], [ 13.4130119, 54.5156971 ], [ 13.4148511, 54.516762 ], [ 13.4146379, 54.5189175 ], [ 13.4083119, 54.5275984 ], [ 13.4013355, 54.5338013 ], [ 13.3996189, 54.5344908 ], [ 13.4000938, 54.53527 ], [ 13.3986108, 54.5354779 ], [ 13.3966282, 54.5379455 ], [ 13.3948405, 54.5388652 ], [ 13.3946005, 54.5384684 ], [ 13.3943175, 54.5384544 ], [ 13.3937622, 54.5396456 ], [ 13.3875985, 54.542381 ], [ 13.3856167, 54.5425493 ], [ 13.3844931, 54.5441341 ], [ 13.3791365, 54.5474178 ], [ 13.3780244, 54.5509394 ], [ 13.3790217, 54.5515019 ], [ 13.3775857, 54.5521035 ], [ 13.3780968, 54.5525759 ], [ 13.3768523, 54.5545833 ], [ 13.3775011, 54.5588106 ], [ 13.3764432, 54.5599089 ], [ 13.3734646, 54.5604121 ], [ 13.3678897, 54.5576234 ], [ 13.3642691, 54.5568253 ], [ 13.3636129, 54.5560369 ], [ 13.3642292, 54.5559398 ], [ 13.3625373, 54.5547435 ], [ 13.3629316, 54.5543998 ], [ 13.3616522, 54.5538017 ], [ 13.3621162, 54.553272 ], [ 13.3612015, 54.552172 ], [ 13.3538043, 54.5499596 ], [ 13.3551331, 54.5494654 ], [ 13.3535509, 54.5488414 ], [ 13.3546986, 54.5484916 ], [ 13.3542547, 54.5470167 ], [ 13.3551044, 54.5461985 ], [ 13.3591726, 54.5454872 ], [ 13.3670049, 54.545783 ], [ 13.3736216, 54.5444947 ], [ 13.3784196, 54.5445259 ], [ 13.379988, 54.5426507 ], [ 13.3793923, 54.541158 ], [ 13.3800159, 54.5406095 ], [ 13.3876388, 54.5400252 ], [ 13.3890671, 54.5390052 ], [ 13.3898972, 54.5355241 ], [ 13.3890382, 54.5352651 ], [ 13.3876991, 54.5316007 ], [ 13.3804531, 54.5266162 ], [ 13.374437, 54.5249083 ], [ 13.3745145, 54.5229405 ], [ 13.3754911, 54.5220973 ], [ 13.3742425, 54.5203148 ], [ 13.3719465, 54.5207919 ], [ 13.3724222, 54.5213631 ], [ 13.3710865, 54.5222118 ], [ 13.3693556, 54.5214007 ], [ 13.3667672, 54.5221354 ], [ 13.3638811, 54.5210901 ], [ 13.36256, 54.5222022 ], [ 13.3586673, 54.5230074 ], [ 13.355805, 54.5212831 ], [ 13.3543788, 54.5190319 ], [ 13.3493248, 54.5176744 ], [ 13.3496955, 54.5184882 ], [ 13.3482157, 54.5187432 ], [ 13.3479954, 54.5198418 ], [ 13.3442071, 54.5213602 ], [ 13.3454758, 54.5234119 ], [ 13.3439255, 54.5232959 ], [ 13.3438692, 54.5242036 ], [ 13.3487454, 54.526975 ], [ 13.3490598, 54.5284297 ], [ 13.3519043, 54.5305187 ], [ 13.351945, 54.5318421 ], [ 13.3541144, 54.532285 ], [ 13.3551639, 54.5330886 ], [ 13.3546999, 54.5336956 ], [ 13.3560571, 54.5338574 ], [ 13.3615074, 54.5378522 ], [ 13.3620438, 54.5413033 ], [ 13.3609287, 54.543718 ], [ 13.3611802, 54.5448063 ], [ 13.3537934, 54.5454488 ], [ 13.3498116, 54.5474235 ], [ 13.3436426, 54.5475437 ], [ 13.3440663, 54.548259 ], [ 13.3426528, 54.5486184 ], [ 13.3356569, 54.5488126 ], [ 13.344537, 54.5506469 ], [ 13.3495959, 54.5536952 ], [ 13.3492192, 54.5532027 ], [ 13.3505396, 54.5528757 ], [ 13.3495635, 54.5515158 ], [ 13.3540308, 54.5514627 ], [ 13.3528787, 54.553048 ], [ 13.3530034, 54.5543397 ], [ 13.3539569, 54.5565463 ], [ 13.3559096, 54.5580861 ], [ 13.3559927, 54.5591748 ], [ 13.3585435, 54.5607192 ], [ 13.3583075, 54.5622527 ], [ 13.3597559, 54.5624657 ], [ 13.35991, 54.5674725 ], [ 13.3619733, 54.5680104 ], [ 13.3610151, 54.5685866 ], [ 13.3613857, 54.5693098 ], [ 13.3623258, 54.5693554 ], [ 13.3619757, 54.5698814 ], [ 13.3652222, 54.5721534 ], [ 13.3678531, 54.5754005 ], [ 13.3706215, 54.5769684 ], [ 13.3693501, 54.5788401 ], [ 13.3595593, 54.5807522 ], [ 13.3558398, 54.5810988 ], [ 13.3524066, 54.5804366 ], [ 13.3462506, 54.5778309 ], [ 13.3443409, 54.575573 ], [ 13.344859, 54.5754799 ], [ 13.343576, 54.5751163 ], [ 13.3445719, 54.5742586 ], [ 13.3441454, 54.5733786 ], [ 13.33831, 54.5706068 ], [ 13.3329338, 54.5711941 ], [ 13.3308926, 54.5694712 ], [ 13.3263503, 54.5687464 ], [ 13.3272745, 54.5685129 ], [ 13.3267554, 54.5680515 ], [ 13.3256857, 54.5686541 ], [ 13.3258809, 54.5680017 ], [ 13.3209614, 54.5660212 ], [ 13.3187708, 54.5642703 ], [ 13.3158079, 54.5635855 ], [ 13.3148879, 54.5623911 ], [ 13.3130988, 54.5617192 ], [ 13.3140779, 54.5622947 ], [ 13.3133862, 54.5621872 ], [ 13.3123425, 54.5609494 ], [ 13.3025046, 54.555466 ], [ 13.3000192, 54.5547853 ], [ 13.2973462, 54.5520524 ], [ 13.296806, 54.5505611 ], [ 13.2973891, 54.5499181 ], [ 13.3039474, 54.5463191 ], [ 13.3047008, 54.5407029 ], [ 13.3076629, 54.5393639 ], [ 13.3072409, 54.5362042 ], [ 13.3058479, 54.53468 ], [ 13.30607, 54.5332183 ], [ 13.3027375, 54.5290825 ], [ 13.3029306, 54.5278482 ], [ 13.3045453, 54.5265625 ], [ 13.312274, 54.5246933 ], [ 13.3123832, 54.5224312 ], [ 13.3112535, 54.522372 ], [ 13.3115351, 54.5198018 ], [ 13.309443, 54.5193581 ], [ 13.3081054, 54.5204754 ], [ 13.3063581, 54.51935 ], [ 13.3104182, 54.5179822 ], [ 13.311008, 54.5174217 ], [ 13.3105973, 54.5167869 ], [ 13.3090919, 54.5151302 ], [ 13.3051776, 54.5138069 ], [ 13.3010396, 54.5145348 ], [ 13.3006762, 54.5156809 ], [ 13.2988214, 54.516685 ], [ 13.2977059, 54.5190464 ], [ 13.2940526, 54.5200714 ], [ 13.2921212, 54.5215813 ], [ 13.2878499, 54.5215587 ], [ 13.2871202, 54.5224985 ], [ 13.2877877, 54.5230962 ], [ 13.2871454, 54.5234712 ], [ 13.2876554, 54.5239536 ], [ 13.2867343, 54.524053 ], [ 13.2878482, 54.5248824 ], [ 13.2872199, 54.5252631 ], [ 13.2900077, 54.5262885 ], [ 13.2902624, 54.528126 ], [ 13.2895304, 54.5293493 ], [ 13.2903749, 54.5299188 ], [ 13.2903135, 54.5324956 ], [ 13.2917163, 54.5336193 ], [ 13.294881, 54.5341707 ], [ 13.2952863, 54.5372437 ], [ 13.2904305, 54.5383681 ], [ 13.2889294, 54.5400398 ], [ 13.289105, 54.5414039 ], [ 13.2864671, 54.5433064 ], [ 13.2841535, 54.5426588 ], [ 13.276521, 54.5432422 ], [ 13.2758902, 54.5421072 ], [ 13.2758349, 54.5436032 ], [ 13.2682916, 54.5456204 ], [ 13.266238, 54.5474554 ], [ 13.2637247, 54.5481921 ], [ 13.2614811, 54.5475988 ], [ 13.2594453, 54.5484264 ], [ 13.25573, 54.55181 ], [ 13.2441054, 54.5528251 ], [ 13.2449933, 54.554675 ], [ 13.244566, 54.5553175 ], [ 13.2425424, 54.5532494 ], [ 13.2375209, 54.554308 ], [ 13.2286361, 54.553328 ], [ 13.2137452, 54.550308 ], [ 13.1883829, 54.548607 ], [ 13.1741761, 54.5455402 ], [ 13.1588042, 54.5453235 ], [ 13.1440852, 54.5467366 ], [ 13.1400129, 54.5417097 ], [ 13.1398661, 54.5406132 ], [ 13.1492354, 54.54262 ], [ 13.1537729, 54.5414342 ], [ 13.1571517, 54.5393598 ], [ 13.1600193, 54.5352023 ], [ 13.163732, 54.523868 ], [ 13.1641199, 54.5190943 ], [ 13.162227, 54.5139626 ], [ 13.1675238, 54.5119507 ], [ 13.1709922, 54.5076555 ], [ 13.181732, 54.5058413 ], [ 13.1926141, 54.5055918 ], [ 13.1969861, 54.5039463 ], [ 13.2006365, 54.503586 ], [ 13.2024856, 54.5046855 ], [ 13.201633, 54.5050943 ], [ 13.2030327, 54.5060458 ], [ 13.2117328, 54.5086333 ], [ 13.2176982, 54.5090834 ], [ 13.220568, 54.5102792 ], [ 13.2221264, 54.5100908 ], [ 13.2236525, 54.51118 ], [ 13.2314712, 54.5111372 ], [ 13.2331905, 54.5095147 ], [ 13.2335848, 54.5079668 ], [ 13.2315275, 54.5080291 ], [ 13.2308911, 54.5066033 ], [ 13.2323268, 54.5055062 ], [ 13.2331315, 54.5062631 ], [ 13.2338302, 54.5048939 ], [ 13.2292549, 54.5035697 ], [ 13.228729, 54.4958292 ], [ 13.2264125, 54.4946967 ], [ 13.2276356, 54.4938446 ], [ 13.2263551, 54.4929953 ], [ 13.227241, 54.492153 ], [ 13.2272387, 54.4879308 ], [ 13.2282498, 54.4856934 ], [ 13.2335821, 54.4832346 ], [ 13.2365325, 54.4827468 ], [ 13.2440212, 54.4868464 ], [ 13.2486099, 54.4873202 ], [ 13.2497612, 54.4863462 ], [ 13.2559526, 54.4858846 ], [ 13.2575157, 54.4829461 ], [ 13.2564451, 54.4810246 ], [ 13.257732, 54.4781356 ], [ 13.2597874, 54.477961 ], [ 13.260959, 54.4794383 ], [ 13.2634296, 54.4793321 ], [ 13.2635527, 54.4800767 ], [ 13.2651877, 54.4804229 ], [ 13.2696812, 54.4801065 ], [ 13.2674232, 54.4785748 ], [ 13.2679808, 54.4778728 ], [ 13.2671996, 54.476843 ], [ 13.2566061, 54.4731815 ], [ 13.2538499, 54.4736679 ], [ 13.2531594, 54.4713188 ], [ 13.2470388, 54.4731362 ], [ 13.2420832, 54.4726876 ], [ 13.2406981, 54.4704304 ], [ 13.2375771, 54.4696856 ], [ 13.2362842, 54.4684106 ], [ 13.2326622, 54.4685724 ], [ 13.2310099, 54.467687 ], [ 13.2372863, 54.4675342 ], [ 13.2382626, 54.4664243 ], [ 13.2377383, 54.4657962 ], [ 13.2394895, 54.4656181 ], [ 13.2405865, 54.4669266 ], [ 13.2460931, 54.4678316 ], [ 13.2483562, 54.4672173 ], [ 13.2469974, 54.4661574 ], [ 13.2478677, 54.4656595 ], [ 13.2543154, 54.4654657 ], [ 13.2520437, 54.4638937 ], [ 13.2493797, 54.4635562 ], [ 13.2406494, 54.4660181 ], [ 13.2361182, 54.4622442 ], [ 13.2328159, 54.4624527 ], [ 13.2305612, 54.4646661 ], [ 13.2270053, 54.4637094 ], [ 13.2264022, 54.4643083 ], [ 13.2242017, 54.4641213 ], [ 13.2222752, 54.4627684 ], [ 13.2236178, 54.4622223 ], [ 13.2230834, 54.4606834 ], [ 13.2180101, 54.4591229 ], [ 13.2143701, 54.4591942 ], [ 13.2125984, 54.4603257 ], [ 13.2086734, 54.4595867 ], [ 13.2081312, 54.4599676 ], [ 13.2085741, 54.4609926 ], [ 13.2057482, 54.460103 ], [ 13.2054153, 54.457865 ], [ 13.2035565, 54.4573458 ], [ 13.2048034, 54.4555184 ], [ 13.2046989, 54.4529273 ], [ 13.1992287, 54.4471627 ], [ 13.1922884, 54.4501564 ], [ 13.1933935, 54.4523528 ], [ 13.1922358, 54.4532615 ], [ 13.1929211, 54.453678 ], [ 13.1924021, 54.4551383 ], [ 13.1817891, 54.4542699 ], [ 13.1803894, 54.4551433 ], [ 13.1796697, 54.454103 ], [ 13.1746533, 54.4526719 ], [ 13.172078, 54.4525663 ], [ 13.1708774, 54.4538472 ], [ 13.1692447, 54.4518527 ], [ 13.1680669, 54.4485685 ], [ 13.1648335, 54.4453373 ], [ 13.1622514, 54.4398405 ], [ 13.1614494, 54.4362062 ], [ 13.1564793, 54.4320889 ], [ 13.1500232, 54.428867 ], [ 13.1505245, 54.4231147 ], [ 13.1526514, 54.4217481 ], [ 13.1574239, 54.4206905 ], [ 13.1600751, 54.4222191 ], [ 13.1722721, 54.4254936 ], [ 13.1749383, 54.4241407 ], [ 13.1817538, 54.4233714 ], [ 13.1896368, 54.4237662 ], [ 13.1969931, 54.4247842 ], [ 13.2027311, 54.4265387 ], [ 13.2066304, 54.4293797 ], [ 13.2064363, 54.4302576 ], [ 13.2101725, 54.4298727 ], [ 13.2113707, 54.4304538 ], [ 13.2130551, 54.4291619 ], [ 13.2126115, 54.4260755 ], [ 13.2138122, 54.4243809 ], [ 13.2145703, 54.4210487 ], [ 13.2205398, 54.4139779 ], [ 13.2238719, 54.4124549 ], [ 13.2276916, 54.4119758 ], [ 13.2333826, 54.4096629 ], [ 13.2344549, 54.4097623 ], [ 13.2289336, 54.4125617 ], [ 13.2321712, 54.4135504 ], [ 13.2352657, 54.4123761 ], [ 13.2345389, 54.4113027 ], [ 13.2350908, 54.4102151 ], [ 13.2362106, 54.4104719 ], [ 13.2380201, 54.409429 ], [ 13.2377052, 54.4071204 ], [ 13.2353953, 54.4068081 ], [ 13.2373694, 54.4082977 ], [ 13.2363907, 54.4083522 ], [ 13.232853, 54.4052987 ], [ 13.232251, 54.4041074 ], [ 13.2338149, 54.4031918 ], [ 13.230497, 54.4021016 ], [ 13.2310147, 54.4002328 ], [ 13.2300323, 54.399203 ], [ 13.2300727, 54.39739 ], [ 13.232087, 54.3950544 ], [ 13.2352054, 54.3934996 ], [ 13.2366463, 54.3915437 ], [ 13.2377724, 54.3872422 ], [ 13.2412618, 54.3852373 ], [ 13.2498111, 54.383815 ], [ 13.2504902, 54.3840954 ], [ 13.2495278, 54.3847343 ], [ 13.2499975, 54.3858501 ], [ 13.2573816, 54.3864163 ], [ 13.2614906, 54.3847233 ], [ 13.2625616, 54.3834057 ], [ 13.2616754, 54.3828667 ], [ 13.2628864, 54.3825343 ], [ 13.2609235, 54.3823341 ], [ 13.2605258, 54.3803649 ], [ 13.2575338, 54.3795829 ], [ 13.2368442, 54.3774047 ], [ 13.2356417, 54.3762292 ], [ 13.2368551, 54.3731358 ], [ 13.239197, 54.3715342 ], [ 13.2384288, 54.3705696 ], [ 13.2345846, 54.3689887 ], [ 13.2231982, 54.3699057 ], [ 13.2208064, 54.3675327 ], [ 13.21574, 54.3684414 ], [ 13.2154077, 54.3689424 ], [ 13.2166062, 54.3691184 ], [ 13.2158301, 54.3695018 ], [ 13.2166815, 54.3713086 ], [ 13.2159412, 54.3715852 ], [ 13.2104748, 54.370543 ], [ 13.2066554, 54.3711704 ], [ 13.2028692, 54.3706287 ], [ 13.199611, 54.3724413 ], [ 13.2019108, 54.3739808 ], [ 13.196565, 54.3759157 ], [ 13.1836206, 54.3745147 ], [ 13.1708586, 54.3705211 ], [ 13.1711161, 54.3715024 ], [ 13.1677902, 54.3712586 ], [ 13.1646495, 54.373181 ], [ 13.1563629, 54.3749552 ], [ 13.1545937, 54.3743241 ], [ 13.1493845, 54.3749163 ], [ 13.1421807, 54.3732551 ], [ 13.1367175, 54.373438 ], [ 13.1293835, 54.3721082 ], [ 13.1268304, 54.370967 ], [ 13.1270541, 54.3702641 ], [ 13.123692, 54.3662162 ], [ 13.1225453, 54.3616915 ], [ 13.1231764, 54.3579452 ], [ 13.1227475, 54.3539062 ], [ 13.1212792, 54.350423 ], [ 13.1151447, 54.3430882 ], [ 13.1140107, 54.3340857 ] ] ] } }
]
}
