{
"type": "FeatureCollection",
"name": "santorini",
"crs": { "type": "name", "properties": { "name": "urn:ogc:def:crs:OGC:1.3:CRS84" } },
"features": [
{ "type": "Feature", "properties": { }, "geometry": { "type": "Polygon", "coordinates": [ [ [ 25.3538553, 36.3579004 ], [ 25.3614823, 36.3546221 ], [ 25.3620459, 36.3528658 ], [ 25.3648894, 36.3537454 ], [ 25.3671519, 36.3532555 ], [ 25.3691526, 36.3553383 ], [ 25.3734112, 36.3559523 ], [ 25.3773972, 36.3533142 ], [ 25.3777555, 36.3522171 ], [ 25.3800578, 36.3520596 ], [ 25.3821597, 36.3505509 ], [ 25.3833879, 36.3486214 ], [ 25.3830998, 36.3473507 ], [ 25.3854209, 36.3465582 ], [ 25.3864536, 36.3480148 ], [ 25.389712, 36.3491888 ], [ 25.3938142, 36.3489394 ], [ 25.3947153, 36.3483041 ], [ 25.394771, 36.3467351 ], [ 25.3998132, 36.3493983 ], [ 25.4050594, 36.3485037 ], [ 25.407996, 36.3492145 ], [ 25.4120665, 36.3475493 ], [ 25.4171577, 36.347492 ], [ 25.4206421, 36.3466034 ], [ 25.4287749, 36.3424268 ], [ 25.4335743, 36.3358167 ], [ 25.4354444, 36.3349788 ], [ 25.4336647, 36.3358952 ], [ 25.4332177, 36.3370438 ], [ 25.4337705, 36.3374638 ], [ 25.4352962, 36.337343 ], [ 25.4339086, 36.3372793 ], [ 25.4339161, 36.3367622 ], [ 25.4345095, 36.3363597 ], [ 25.4339585, 36.336829 ], [ 25.4344606, 36.337295 ], [ 25.4365659, 36.336668 ], [ 25.4355256, 36.3368182 ], [ 25.4362479, 36.3363262 ], [ 25.4357592, 36.3357786 ], [ 25.4347829, 36.3360974 ], [ 25.4358739, 36.3356132 ], [ 25.4372737, 36.3359827 ], [ 25.4405183, 36.3323725 ], [ 25.4436657, 36.3324215 ], [ 25.4522234, 36.3383219 ], [ 25.4642135, 36.3447416 ], [ 25.4740648, 36.353761 ], [ 25.477135, 36.3575164 ], [ 25.4811453, 36.3572444 ], [ 25.4835664, 36.3596451 ], [ 25.4841213, 36.3590333 ], [ 25.4849417, 36.3603885 ], [ 25.486471, 36.3607195 ], [ 25.4867724, 36.3631164 ], [ 25.4839283, 36.3656368 ], [ 25.4832037, 36.3678723 ], [ 25.4820612, 36.3681556 ], [ 25.4825533, 36.368651 ], [ 25.4812394, 36.3692159 ], [ 25.4863299, 36.3764937 ], [ 25.4875536, 36.3802578 ], [ 25.4860193, 36.3877418 ], [ 25.4868219, 36.3930103 ], [ 25.4863928, 36.3974897 ], [ 25.4878919, 36.4038259 ], [ 25.4861953, 36.4079993 ], [ 25.4873349, 36.4087515 ], [ 25.4875568, 36.4093758 ], [ 25.4862125, 36.4083452 ], [ 25.4845903, 36.4108807 ], [ 25.4839782, 36.4104196 ], [ 25.4837765, 36.4108984 ], [ 25.4853765, 36.4112965 ], [ 25.483926, 36.4112039 ], [ 25.4835035, 36.4135447 ], [ 25.4851874, 36.4136209 ], [ 25.4842765, 36.4138611 ], [ 25.4824922, 36.4132791 ], [ 25.4756062, 36.4168784 ], [ 25.4712882, 36.4203341 ], [ 25.4702327, 36.4220496 ], [ 25.4656829, 36.4240104 ], [ 25.4598123, 36.4282316 ], [ 25.4576363, 36.4310547 ], [ 25.4573644, 36.4342329 ], [ 25.4534879, 36.4382152 ], [ 25.4524636, 36.4404759 ], [ 25.4531697, 36.4403349 ], [ 25.4529498, 36.4411165 ], [ 25.4296988, 36.4598377 ], [ 25.4290781, 36.4594665 ], [ 25.4297221, 36.4599952 ], [ 25.4277816, 36.4617854 ], [ 25.425176, 36.4678521 ], [ 25.4218826, 36.4706178 ], [ 25.4226146, 36.4728261 ], [ 25.4217314, 36.4737977 ], [ 25.4212645, 36.4733608 ], [ 25.4164795, 36.4757211 ], [ 25.391858, 36.4801748 ], [ 25.3876712, 36.482206 ], [ 25.3808912, 36.4803596 ], [ 25.3704213, 36.473365 ], [ 25.3686154, 36.4708857 ], [ 25.3677232, 36.4657052 ], [ 25.3693799, 36.4638639 ], [ 25.3692395, 36.4608879 ], [ 25.3710085, 36.460153 ], [ 25.3708832, 36.458114 ], [ 25.3725952, 36.4579919 ], [ 25.3742122, 36.4595968 ], [ 25.3809603, 36.46049 ], [ 25.385921, 36.4602721 ], [ 25.3882518, 36.4583448 ], [ 25.3915042, 36.4590908 ], [ 25.3989017, 36.4573529 ], [ 25.4101791, 36.4605789 ], [ 25.4153337, 36.4583594 ], [ 25.4150667, 36.4570048 ], [ 25.4164093, 36.4564636 ], [ 25.4163391, 36.4554982 ], [ 25.4190693, 36.4533554 ], [ 25.4200687, 36.4503376 ], [ 25.4234032, 36.4468322 ], [ 25.4240458, 36.44513 ], [ 25.4215097, 36.4399572 ], [ 25.4190232, 36.4389326 ], [ 25.4182353, 36.4363693 ], [ 25.4145255, 36.4334941 ], [ 25.4135767, 36.4297048 ], [ 25.4200954, 36.4292895 ], [ 25.4232454, 36.4277633 ], [ 25.424962, 36.4259194 ], [ 25.4254482, 36.4241204 ], [ 25.4246496, 36.4219437 ], [ 25.4257683, 36.4210197 ], [ 25.4249644, 36.4197529 ], [ 25.4276201, 36.4184665 ], [ 25.4279913, 36.4172849 ], [ 25.428126, 36.4178596 ], [ 25.4280345, 36.4136525 ], [ 25.4290905, 36.4118642 ], [ 25.4262947, 36.4063461 ], [ 25.4271679, 36.4042725 ], [ 25.4258849, 36.402936 ], [ 25.4306784, 36.4010809 ], [ 25.4336311, 36.3960153 ], [ 25.4344893, 36.3926315 ], [ 25.4341205, 36.3916334 ], [ 25.4327472, 36.3913916 ], [ 25.4323092, 36.3887969 ], [ 25.4311888, 36.3874572 ], [ 25.4281225, 36.3862507 ], [ 25.4277056, 36.3866755 ], [ 25.4274565, 36.3843135 ], [ 25.4264916, 36.3836197 ], [ 25.4246886, 36.3790543 ], [ 25.4219265, 36.3765671 ], [ 25.423025, 36.3732791 ], [ 25.4227409, 36.3715568 ], [ 25.4193655, 36.3688919 ], [ 25.4163618, 36.3680934 ], [ 25.417134, 36.3656485 ], [ 25.4147024, 36.3622036 ], [ 25.4112212, 36.3617455 ], [ 25.409811, 36.3624026 ], [ 25.4082187, 36.3608992 ], [ 25.4030125, 36.3608902 ], [ 25.3882947, 36.3650627 ], [ 25.3835028, 36.3673285 ], [ 25.3770771, 36.3668245 ], [ 25.3741138, 36.364763 ], [ 25.3703912, 36.3639058 ], [ 25.365603, 36.3664199 ], [ 25.3606239, 36.3597859 ], [ 25.3538553, 36.3579004 ] ] ] } }
]
}
