{
"type": "FeatureCollection",
"name": "sao_miguel",
"crs": { "type": "name", "properties": { "name": "urn:ogc:def:crs:OGC:1.3:CRS84" } },
"features": [
{ "type": "Feature", "properties": { }, "geometry": { "type": "Polygon", "coordinates": [ [ [ -25.8560805, 37.8612893 ], [ -25.8552917, 37.861108 ], [ -25.8556124, 37.8604847 ], [ -25.8543319, 37.8608606 ], [ -25.8547603, 37.8605909 ], [ -25.8544781, 37.8605366 ], [ -25.8535378, 37.8597084 ], [ -25.8547953, 37.8595629 ], [ -25.8536419, 37.8595772 ], [ -25.8539631, 37.8590443 ], [ -25.8532293, 37.8591455 ], [ -25.8529154, 37.8582267 ], [ -25.8522622, 37.858526 ], [ -25.8513599, 37.8566807 ], [ -25.8520954, 37.856552 ], [ -25.8515755, 37.8562478 ], [ -25.8531801, 37.8527676 ], [ -25.8476268, 37.8437447 ], [ -25.8451359, 37.8417967 ], [ -25.8436922, 37.8373449 ], [ -25.8419976, 37.835753 ], [ -25.8425338, 37.8330956 ], [ -25.8406014, 37.827979 ], [ -25.8209428, 37.8171525 ], [ -25.8178293, 37.8138137 ], [ -25.8181487, 37.8124298 ], [ -25.8171057, 37.8122366 ], [ -25.8178668, 37.8120469 ], [ -25.8175484, 37.8112 ], [ -25.8160331, 37.8100134 ], [ -25.8081155, 37.8075228 ], [ -25.8050481, 37.8039401 ], [ -25.7998624, 37.8029498 ], [ -25.7978162, 37.8006817 ], [ -25.7969856, 37.8010159 ], [ -25.796043, 37.8002311 ], [ -25.7933983, 37.8008154 ], [ -25.7881937, 37.7990797 ], [ -25.7886618, 37.7985753 ], [ -25.7877767, 37.7987152 ], [ -25.7864406, 37.7968252 ], [ -25.7865461, 37.7950577 ], [ -25.7859147, 37.7946992 ], [ -25.7867548, 37.7944556 ], [ -25.7834802, 37.7938997 ], [ -25.780874, 37.7922387 ], [ -25.7757809, 37.7828701 ], [ -25.7730753, 37.7825504 ], [ -25.7721305, 37.783383 ], [ -25.7679371, 37.7824568 ], [ -25.7595482, 37.7744115 ], [ -25.7516605, 37.7719839 ], [ -25.7460089, 37.7677992 ], [ -25.7376456, 37.7634734 ], [ -25.7360296, 37.7612279 ], [ -25.733239, 37.7598064 ], [ -25.7312155, 37.7577004 ], [ -25.7295632, 37.7543371 ], [ -25.7219006, 37.7516115 ], [ -25.7190994, 37.7513518 ], [ -25.7160209, 37.7494279 ], [ -25.7119774, 37.743468 ], [ -25.7039056, 37.7386309 ], [ -25.6972917, 37.7366006 ], [ -25.6956622, 37.7348232 ], [ -25.6906527, 37.7345989 ], [ -25.6875071, 37.7329274 ], [ -25.683827, 37.7325877 ], [ -25.6816241, 37.734495 ], [ -25.678263, 37.7337955 ], [ -25.6715744, 37.7348982 ], [ -25.6638576, 37.7338705 ], [ -25.655857, 37.7363468 ], [ -25.6579953, 37.7364704 ], [ -25.6640264, 37.7345349 ], [ -25.6717045, 37.7353548 ], [ -25.6686939, 37.7369947 ], [ -25.6723582, 37.7368516 ], [ -25.6651295, 37.7395694 ], [ -25.663131, 37.7393597 ], [ -25.6629099, 37.7378775 ], [ -25.6637726, 37.7372623 ], [ -25.6601427, 37.738967 ], [ -25.6623378, 37.7393697 ], [ -25.6600704, 37.739961 ], [ -25.6588293, 37.7413521 ], [ -25.6576823, 37.7412491 ], [ -25.657486, 37.7405334 ], [ -25.6592272, 37.73939 ], [ -25.6517225, 37.7421141 ], [ -25.6492354, 37.7413104 ], [ -25.6480677, 37.7440368 ], [ -25.6449997, 37.7439367 ], [ -25.6429566, 37.7448566 ], [ -25.6416019, 37.7436354 ], [ -25.6400336, 37.7448299 ], [ -25.6387074, 37.743746 ], [ -25.6383777, 37.7451068 ], [ -25.6315963, 37.7481636 ], [ -25.6314343, 37.750088 ], [ -25.6264895, 37.7508093 ], [ -25.6234052, 37.7505157 ], [ -25.6222759, 37.7488809 ], [ -25.6177675, 37.7502679 ], [ -25.6166666, 37.7492693 ], [ -25.6170066, 37.7486591 ], [ -25.6155659, 37.7486602 ], [ -25.6138127, 37.7468373 ], [ -25.6126604, 37.7470047 ], [ -25.6110911, 37.7450643 ], [ -25.6081364, 37.7452773 ], [ -25.6078105, 37.743801 ], [ -25.6071434, 37.7446793 ], [ -25.6065874, 37.743991 ], [ -25.6040486, 37.7449437 ], [ -25.6028683, 37.7443159 ], [ -25.5963895, 37.7457589 ], [ -25.594644, 37.7440159 ], [ -25.5923133, 37.7433312 ], [ -25.5922904, 37.7425225 ], [ -25.5898587, 37.7423191 ], [ -25.5895272, 37.7428857 ], [ -25.5875937, 37.741589 ], [ -25.5864374, 37.7420661 ], [ -25.584281, 37.740865 ], [ -25.5845278, 37.7401811 ], [ -25.5835438, 37.7411356 ], [ -25.5826653, 37.7403774 ], [ -25.5800479, 37.7404871 ], [ -25.5795256, 37.7417104 ], [ -25.5766989, 37.7410326 ], [ -25.5755964, 37.7414079 ], [ -25.5761997, 37.7417127 ], [ -25.5755555, 37.7423338 ], [ -25.5749052, 37.7413876 ], [ -25.5742325, 37.7411025 ], [ -25.5747726, 37.7414667 ], [ -25.5740065, 37.7419806 ], [ -25.5732662, 37.7414574 ], [ -25.5726867, 37.7425469 ], [ -25.5695108, 37.7423026 ], [ -25.5668674, 37.7435674 ], [ -25.5649559, 37.7422637 ], [ -25.5621902, 37.737829 ], [ -25.5589157, 37.7365275 ], [ -25.5564795, 37.7344478 ], [ -25.5521067, 37.7334451 ], [ -25.5509151, 37.7305926 ], [ -25.5502144, 37.7314443 ], [ -25.549287, 37.7305438 ], [ -25.5473568, 37.7308931 ], [ -25.5440473, 37.7281235 ], [ -25.5434898, 37.726344 ], [ -25.5373611, 37.7237643 ], [ -25.5297104, 37.7157423 ], [ -25.5197259, 37.7175374 ], [ -25.516676, 37.7164862 ], [ -25.5159203, 37.7144893 ], [ -25.5174839, 37.7134532 ], [ -25.5161977, 37.7136833 ], [ -25.5165652, 37.7128098 ], [ -25.5149473, 37.7131075 ], [ -25.5146815, 37.7113857 ], [ -25.5133848, 37.7114266 ], [ -25.514076, 37.7106004 ], [ -25.5116342, 37.7098421 ], [ -25.5118104, 37.7079983 ], [ -25.5093261, 37.7079597 ], [ -25.509915, 37.7076279 ], [ -25.5094832, 37.7074176 ], [ -25.5100466, 37.7065848 ], [ -25.5096475, 37.7064206 ], [ -25.5075637, 37.708432 ], [ -25.5064316, 37.7078007 ], [ -25.5049054, 37.7088588 ], [ -25.5040258, 37.7083697 ], [ -25.5035471, 37.7092079 ], [ -25.5030627, 37.7080893 ], [ -25.5029128, 37.7090281 ], [ -25.5022911, 37.708061 ], [ -25.502277, 37.7089449 ], [ -25.5003369, 37.7084955 ], [ -25.5002106, 37.7094297 ], [ -25.4984868, 37.7095519 ], [ -25.4965065, 37.7112997 ], [ -25.4963066, 37.7135091 ], [ -25.4954845, 37.7131996 ], [ -25.4951034, 37.7136998 ], [ -25.4955125, 37.7141972 ], [ -25.4943878, 37.7129906 ], [ -25.491895, 37.714137 ], [ -25.4918685, 37.7150952 ], [ -25.4865121, 37.7155055 ], [ -25.4823645, 37.7185929 ], [ -25.4791479, 37.7166966 ], [ -25.476221, 37.7174883 ], [ -25.4728477, 37.7164138 ], [ -25.468617, 37.7130804 ], [ -25.4658325, 37.712708 ], [ -25.4641085, 37.7152972 ], [ -25.4626373, 37.71578 ], [ -25.4600953, 37.7137493 ], [ -25.4594296, 37.7156916 ], [ -25.458723, 37.715247 ], [ -25.4590164, 37.7159535 ], [ -25.4562347, 37.7165708 ], [ -25.4432162, 37.7116637 ], [ -25.440557, 37.7132281 ], [ -25.4355919, 37.7136445 ], [ -25.4348827, 37.7142908 ], [ -25.4324509, 37.7141003 ], [ -25.4314784, 37.7123065 ], [ -25.4297862, 37.7122532 ], [ -25.4283515, 37.71327 ], [ -25.4312425, 37.7125617 ], [ -25.4312305, 37.7131215 ], [ -25.4299956, 37.7130834 ], [ -25.4312287, 37.713198 ], [ -25.4312257, 37.7135004 ], [ -25.4308574, 37.7140946 ], [ -25.430814, 37.7134433 ], [ -25.4300004, 37.7134224 ], [ -25.4305324, 37.7135195 ], [ -25.4302339, 37.7146247 ], [ -25.4293181, 37.7146049 ], [ -25.4295792, 37.7159435 ], [ -25.4285441, 37.7148391 ], [ -25.4293818, 37.7134338 ], [ -25.4282408, 37.7145268 ], [ -25.4284015, 37.7164032 ], [ -25.4252889, 37.7168451 ], [ -25.4237822, 37.7155298 ], [ -25.4208401, 37.7155195 ], [ -25.4207945, 37.7147245 ], [ -25.41843, 37.7147025 ], [ -25.4175068, 37.7136777 ], [ -25.4173033, 37.7143642 ], [ -25.4157811, 37.7142175 ], [ -25.4163929, 37.7148295 ], [ -25.4155369, 37.715479 ], [ -25.4143617, 37.7148818 ], [ -25.4138531, 37.7161046 ], [ -25.4120115, 37.7157838 ], [ -25.4105221, 37.7165436 ], [ -25.4072739, 37.7159938 ], [ -25.4058123, 37.7148814 ], [ -25.4027801, 37.7157032 ], [ -25.4017232, 37.7148575 ], [ -25.3992989, 37.715919 ], [ -25.3905168, 37.7167086 ], [ -25.3729444, 37.7142471 ], [ -25.3720013, 37.713221 ], [ -25.3679715, 37.7136011 ], [ -25.3585469, 37.7211426 ], [ -25.3515167, 37.7244464 ], [ -25.3428416, 37.7248696 ], [ -25.3408874, 37.7260617 ], [ -25.3391238, 37.7247262 ], [ -25.3385449, 37.7253285 ], [ -25.3366468, 37.7246534 ], [ -25.3334902, 37.7264498 ], [ -25.3279954, 37.7259888 ], [ -25.326093, 37.7266401 ], [ -25.3243199, 37.7252675 ], [ -25.3233425, 37.7256771 ], [ -25.318726, 37.7246064 ], [ -25.3174857, 37.7268351 ], [ -25.3136156, 37.7298441 ], [ -25.3089209, 37.7303332 ], [ -25.3074052, 37.7284455 ], [ -25.3036189, 37.7333202 ], [ -25.2983985, 37.7344276 ], [ -25.2989918, 37.7329037 ], [ -25.2974605, 37.7344542 ], [ -25.2957316, 37.7349408 ], [ -25.2941148, 37.7343286 ], [ -25.2915725, 37.7361032 ], [ -25.2908718, 37.7360412 ], [ -25.2901348, 37.7340704 ], [ -25.2891086, 37.7337963 ], [ -25.2900133, 37.735684 ], [ -25.2878392, 37.7385298 ], [ -25.2852418, 37.7383793 ], [ -25.2820949, 37.7412534 ], [ -25.2761729, 37.7439765 ], [ -25.2674099, 37.7458037 ], [ -25.2570132, 37.7459207 ], [ -25.2517233, 37.7471377 ], [ -25.2493326, 37.7467494 ], [ -25.2469957, 37.744926 ], [ -25.2479113, 37.7457411 ], [ -25.2455303, 37.7456502 ], [ -25.2458083, 37.7447798 ], [ -25.2472392, 37.7442944 ], [ -25.2447206, 37.7448332 ], [ -25.2426288, 37.7458693 ], [ -25.2366173, 37.7446598 ], [ -25.2278693, 37.741034 ], [ -25.2237453, 37.7403297 ], [ -25.2219518, 37.7388359 ], [ -25.2180835, 37.7377162 ], [ -25.2174199, 37.7367577 ], [ -25.2054143, 37.7352349 ], [ -25.1994932, 37.7362395 ], [ -25.1975674, 37.7373884 ], [ -25.1945946, 37.7409387 ], [ -25.1901064, 37.7421226 ], [ -25.1707389, 37.7422448 ], [ -25.1617014, 37.74707 ], [ -25.1554241, 37.7538006 ], [ -25.1496816, 37.7583789 ], [ -25.1469609, 37.7638065 ], [ -25.1422023, 37.7704388 ], [ -25.1389813, 37.7814864 ], [ -25.1424349, 37.7868624 ], [ -25.1426165, 37.7908515 ], [ -25.1436537, 37.7937718 ], [ -25.141688, 37.8002114 ], [ -25.1376693, 37.8048723 ], [ -25.1341651, 37.8076176 ], [ -25.1368337, 37.8147347 ], [ -25.1377122, 37.8194044 ], [ -25.1370932, 37.8221512 ], [ -25.1348407, 37.8242023 ], [ -25.1379141, 37.8249685 ], [ -25.1395495, 37.8269991 ], [ -25.1420601, 37.833767 ], [ -25.142175, 37.8359338 ], [ -25.1438633, 37.8378927 ], [ -25.1441125, 37.8403081 ], [ -25.1469207, 37.8453764 ], [ -25.1473839, 37.8484406 ], [ -25.1489717, 37.8504187 ], [ -25.1570869, 37.8516478 ], [ -25.1648436, 37.8558453 ], [ -25.1696483, 37.8560036 ], [ -25.1741045, 37.858226 ], [ -25.1808535, 37.85703 ], [ -25.1852359, 37.858426 ], [ -25.1973666, 37.8596383 ], [ -25.2044171, 37.8584381 ], [ -25.2061865, 37.858881 ], [ -25.2145303, 37.8562394 ], [ -25.2244374, 37.8553406 ], [ -25.2299106, 37.8535092 ], [ -25.2428991, 37.8538231 ], [ -25.2578942, 37.8583533 ], [ -25.2611695, 37.8624538 ], [ -25.2625621, 37.8628363 ], [ -25.2694587, 37.8591354 ], [ -25.2707012, 37.8599201 ], [ -25.2711655, 37.8592483 ], [ -25.2743648, 37.8588973 ], [ -25.2758521, 37.8602535 ], [ -25.277561, 37.8603902 ], [ -25.281481, 37.857611 ], [ -25.2849834, 37.8585336 ], [ -25.2895975, 37.855206 ], [ -25.2909988, 37.8549626 ], [ -25.2938854, 37.856257 ], [ -25.2968939, 37.8550221 ], [ -25.3015239, 37.8572836 ], [ -25.3078909, 37.857389 ], [ -25.3136851, 37.8608398 ], [ -25.3127243, 37.8605249 ], [ -25.3130896, 37.8610072 ], [ -25.3147906, 37.861229 ], [ -25.3157182, 37.8644605 ], [ -25.3151593, 37.8653671 ], [ -25.316074, 37.8651646 ], [ -25.3151486, 37.8659984 ], [ -25.3163949, 37.8653224 ], [ -25.3167664, 37.8667703 ], [ -25.3200245, 37.8640317 ], [ -25.319338, 37.8640022 ], [ -25.3242971, 37.862504 ], [ -25.3247998, 37.8595529 ], [ -25.3269942, 37.8548689 ], [ -25.3293582, 37.8532926 ], [ -25.3348404, 37.8522686 ], [ -25.3373516, 37.849156 ], [ -25.3397394, 37.8493694 ], [ -25.3433222, 37.8470469 ], [ -25.3495579, 37.8457815 ], [ -25.3524682, 37.8465552 ], [ -25.3522072, 37.8458768 ], [ -25.3551999, 37.8452967 ], [ -25.3603786, 37.8406792 ], [ -25.366513, 37.8390873 ], [ -25.3703214, 37.8393719 ], [ -25.3736384, 37.8370019 ], [ -25.3768896, 37.8371646 ], [ -25.377984, 37.8356435 ], [ -25.3847072, 37.8329748 ], [ -25.386528, 37.8334895 ], [ -25.3873934, 37.8353154 ], [ -25.3895732, 37.8358184 ], [ -25.3910603, 37.8348481 ], [ -25.3937598, 37.8364708 ], [ -25.3920143, 37.835227 ], [ -25.393301, 37.8352371 ], [ -25.3945617, 37.8339499 ], [ -25.3951371, 37.8346374 ], [ -25.396036, 37.8332919 ], [ -25.3983703, 37.8326489 ], [ -25.3994258, 37.8299542 ], [ -25.4045049, 37.826903 ], [ -25.414097, 37.8266837 ], [ -25.4185496, 37.8275068 ], [ -25.4184644, 37.8259057 ], [ -25.4194025, 37.8249948 ], [ -25.4218857, 37.8251866 ], [ -25.4227976, 37.8243158 ], [ -25.4250194, 37.8248256 ], [ -25.426808, 37.8228619 ], [ -25.4291427, 37.8250366 ], [ -25.4283656, 37.8264955 ], [ -25.4290477, 37.8263696 ], [ -25.4289607, 37.8278016 ], [ -25.4278082, 37.8290565 ], [ -25.4274381, 37.8303969 ], [ -25.4275594, 37.8307552 ], [ -25.4293623, 37.8304875 ], [ -25.4283629, 37.8319074 ], [ -25.4295593, 37.8326234 ], [ -25.429611, 37.8319439 ], [ -25.4296995, 37.8326865 ], [ -25.4296926, 37.8319408 ], [ -25.4330312, 37.8326049 ], [ -25.4341262, 37.8325561 ], [ -25.4352673, 37.8310706 ], [ -25.435599, 37.8297956 ], [ -25.4344509, 37.8295346 ], [ -25.4353721, 37.8288694 ], [ -25.4348645, 37.8279346 ], [ -25.4374674, 37.8277588 ], [ -25.4381311, 37.8254364 ], [ -25.4389966, 37.8253036 ], [ -25.4396978, 37.8231325 ], [ -25.4401099, 37.8236933 ], [ -25.440699, 37.8228105 ], [ -25.4415688, 37.8238215 ], [ -25.4438846, 37.8234262 ], [ -25.4472144, 37.8245536 ], [ -25.4467197, 37.8262412 ], [ -25.4483766, 37.8261592 ], [ -25.4488666, 37.8272327 ], [ -25.4490117, 37.8259019 ], [ -25.4491871, 37.8270422 ], [ -25.4500483, 37.8265961 ], [ -25.4500488, 37.8282901 ], [ -25.4506852, 37.8263329 ], [ -25.4514693, 37.827323 ], [ -25.4533659, 37.8276258 ], [ -25.4539435, 37.8242833 ], [ -25.4533914, 37.8234425 ], [ -25.4540926, 37.8229508 ], [ -25.4568485, 37.8228651 ], [ -25.4643577, 37.8264923 ], [ -25.4706551, 37.8248802 ], [ -25.4721798, 37.8256032 ], [ -25.4736853, 37.8287119 ], [ -25.4762007, 37.8306586 ], [ -25.4771933, 37.8305908 ], [ -25.4770318, 37.8299436 ], [ -25.4786147, 37.830432 ], [ -25.4788484, 37.8338778 ], [ -25.4847816, 37.8350755 ], [ -25.4840087, 37.8375913 ], [ -25.4827796, 37.8380834 ], [ -25.4831824, 37.8385396 ], [ -25.4824448, 37.8382317 ], [ -25.4822516, 37.8391994 ], [ -25.4834197, 37.8407849 ], [ -25.4850118, 37.8406512 ], [ -25.486217, 37.8424401 ], [ -25.485582, 37.843664 ], [ -25.4859206, 37.8466429 ], [ -25.4892963, 37.8475384 ], [ -25.4905874, 37.8471736 ], [ -25.4910363, 37.8437926 ], [ -25.4902405, 37.8424796 ], [ -25.4918392, 37.8427172 ], [ -25.4915857, 37.8415293 ], [ -25.4930942, 37.8428764 ], [ -25.4928919, 37.8419996 ], [ -25.4936404, 37.842033 ], [ -25.4934093, 37.8411553 ], [ -25.4941562, 37.8410989 ], [ -25.4944308, 37.8399638 ], [ -25.4958376, 37.8397723 ], [ -25.4989621, 37.8410409 ], [ -25.4998588, 37.8419679 ], [ -25.4993309, 37.8423354 ], [ -25.4997249, 37.844212 ], [ -25.4999301, 37.843655 ], [ -25.5019632, 37.8442586 ], [ -25.5006239, 37.8420744 ], [ -25.5023456, 37.84047 ], [ -25.5019373, 37.8385829 ], [ -25.5033206, 37.8389324 ], [ -25.5029888, 37.8382908 ], [ -25.5039013, 37.8371218 ], [ -25.5066188, 37.8362824 ], [ -25.5063634, 37.8355478 ], [ -25.5072858, 37.8356644 ], [ -25.5069564, 37.8352468 ], [ -25.5095244, 37.8333252 ], [ -25.5130041, 37.8328794 ], [ -25.5196543, 37.829727 ], [ -25.5208887, 37.8280944 ], [ -25.5231316, 37.8272039 ], [ -25.5222087, 37.8258548 ], [ -25.5249766, 37.8238681 ], [ -25.5307208, 37.8221074 ], [ -25.5377525, 37.8212867 ], [ -25.5532061, 37.815481 ], [ -25.5577126, 37.8178877 ], [ -25.5604121, 37.8163844 ], [ -25.5599123, 37.8148632 ], [ -25.5609464, 37.8145083 ], [ -25.5652663, 37.8177015 ], [ -25.5664617, 37.8173378 ], [ -25.5680215, 37.8180808 ], [ -25.5696414, 37.8166185 ], [ -25.5709862, 37.8173371 ], [ -25.5747736, 37.8156365 ], [ -25.5786986, 37.8164239 ], [ -25.5817876, 37.8186838 ], [ -25.5828462, 37.8175432 ], [ -25.585473, 37.8168304 ], [ -25.5848826, 37.8161966 ], [ -25.5834117, 37.817008 ], [ -25.5831657, 37.81583 ], [ -25.5838795, 37.8155776 ], [ -25.5831448, 37.8152232 ], [ -25.5842198, 37.8153363 ], [ -25.5833268, 37.8149196 ], [ -25.5844503, 37.8149711 ], [ -25.5835531, 37.814562 ], [ -25.5846741, 37.8146153 ], [ -25.5840122, 37.8139716 ], [ -25.5851816, 37.8143307 ], [ -25.5846817, 37.8158806 ], [ -25.5860573, 37.8137698 ], [ -25.5929044, 37.8178678 ], [ -25.5981304, 37.8189821 ], [ -25.5993777, 37.8202989 ], [ -25.6010078, 37.8198933 ], [ -25.604681, 37.8211699 ], [ -25.6041991, 37.8236091 ], [ -25.6047452, 37.8246237 ], [ -25.6118282, 37.8235771 ], [ -25.6147645, 37.8251924 ], [ -25.6155016, 37.8268702 ], [ -25.6178338, 37.8274927 ], [ -25.6169712, 37.8281128 ], [ -25.6182359, 37.8275132 ], [ -25.618966, 37.8279744 ], [ -25.6187305, 37.8294056 ], [ -25.619838, 37.8280947 ], [ -25.6199245, 37.8290054 ], [ -25.6200969, 37.8283618 ], [ -25.6209148, 37.82867 ], [ -25.6208905, 37.8296096 ], [ -25.623345, 37.8301129 ], [ -25.6227771, 37.8308291 ], [ -25.6246692, 37.8304125 ], [ -25.624788, 37.8313844 ], [ -25.625276, 37.8318588 ], [ -25.6261152, 37.8313103 ], [ -25.6263683, 37.8322475 ], [ -25.6276634, 37.8307088 ], [ -25.6281312, 37.8330004 ], [ -25.6291893, 37.8338789 ], [ -25.6299278, 37.8316432 ], [ -25.6352168, 37.8314458 ], [ -25.6373629, 37.8294176 ], [ -25.6403847, 37.8284622 ], [ -25.6473549, 37.8303937 ], [ -25.6508228, 37.8323265 ], [ -25.6559466, 37.8311761 ], [ -25.6606356, 37.8331102 ], [ -25.6637635, 37.8322925 ], [ -25.6654461, 37.8333754 ], [ -25.6676069, 37.8334907 ], [ -25.6712513, 37.8357684 ], [ -25.675697, 37.8353578 ], [ -25.6772446, 37.8367164 ], [ -25.6794697, 37.8369303 ], [ -25.6794582, 37.8390138 ], [ -25.6800554, 37.8401776 ], [ -25.6809919, 37.8400972 ], [ -25.6818716, 37.8421057 ], [ -25.6802488, 37.8425258 ], [ -25.6811312, 37.8429496 ], [ -25.6802311, 37.8433593 ], [ -25.6816325, 37.8454619 ], [ -25.6824594, 37.8453634 ], [ -25.6822763, 37.8429802 ], [ -25.6832279, 37.844791 ], [ -25.6866157, 37.8455821 ], [ -25.6854424, 37.8448545 ], [ -25.6869034, 37.8452962 ], [ -25.6864851, 37.8423904 ], [ -25.6887001, 37.8416461 ], [ -25.6888822, 37.8424616 ], [ -25.6895704, 37.84194 ], [ -25.689747, 37.8430479 ], [ -25.6929758, 37.8446955 ], [ -25.694065, 37.849157 ], [ -25.693663, 37.8520492 ], [ -25.6978069, 37.8557881 ], [ -25.6973739, 37.8567241 ], [ -25.698762, 37.8587074 ], [ -25.6987017, 37.8639561 ], [ -25.7043646, 37.8655136 ], [ -25.7066408, 37.8683159 ], [ -25.7089295, 37.8777628 ], [ -25.7147556, 37.8814636 ], [ -25.7162249, 37.8841827 ], [ -25.7191608, 37.8859332 ], [ -25.7187926, 37.8873163 ], [ -25.7199747, 37.8876337 ], [ -25.7203075, 37.88699 ], [ -25.723215, 37.8882016 ], [ -25.7260351, 37.888195 ], [ -25.7296907, 37.8897444 ], [ -25.7308442, 37.8911042 ], [ -25.7319373, 37.8902207 ], [ -25.7339507, 37.8904135 ], [ -25.7362788, 37.8920179 ], [ -25.7372886, 37.8939458 ], [ -25.7412597, 37.8941684 ], [ -25.7437307, 37.8959805 ], [ -25.7487199, 37.8973975 ], [ -25.7497396, 37.8982404 ], [ -25.7490212, 37.8989212 ], [ -25.7497124, 37.8990128 ], [ -25.7492674, 37.8991283 ], [ -25.749062, 37.900172 ], [ -25.7494787, 37.9005637 ], [ -25.7491587, 37.8998511 ], [ -25.7501329, 37.9000004 ], [ -25.7507796, 37.8991926 ], [ -25.7517087, 37.9003553 ], [ -25.7555383, 37.9008414 ], [ -25.7632997, 37.9056647 ], [ -25.7692399, 37.9067634 ], [ -25.7741473, 37.909431 ], [ -25.7813733, 37.9106405 ], [ -25.7867626, 37.9093459 ], [ -25.7897718, 37.9043457 ], [ -25.7990998, 37.8998564 ], [ -25.8033554, 37.896525 ], [ -25.8115541, 37.8981308 ], [ -25.8126849, 37.8993658 ], [ -25.8130403, 37.8982996 ], [ -25.814668, 37.8988905 ], [ -25.8171855, 37.8983082 ], [ -25.8177341, 37.9007423 ], [ -25.8209494, 37.8995688 ], [ -25.8206056, 37.8998325 ], [ -25.8212151, 37.900434 ], [ -25.8214468, 37.8990483 ], [ -25.8229069, 37.8981415 ], [ -25.8222036, 37.8958128 ], [ -25.8233241, 37.8946751 ], [ -25.8214712, 37.8937234 ], [ -25.8211227, 37.8921944 ], [ -25.8230021, 37.8910324 ], [ -25.8241815, 37.8921261 ], [ -25.8257964, 37.8916403 ], [ -25.8253476, 37.8890145 ], [ -25.8242371, 37.8883073 ], [ -25.8239675, 37.8869297 ], [ -25.8253865, 37.884612 ], [ -25.8273866, 37.8834469 ], [ -25.8275194, 37.8817957 ], [ -25.8325909, 37.8776296 ], [ -25.8381279, 37.8784467 ], [ -25.8396629, 37.8779649 ], [ -25.8399504, 37.8765105 ], [ -25.8387601, 37.8734566 ], [ -25.8400373, 37.8725698 ], [ -25.841488, 37.8730162 ], [ -25.8421613, 37.8721906 ], [ -25.8431629, 37.8734548 ], [ -25.8451297, 37.8740213 ], [ -25.8451227, 37.8720142 ], [ -25.8436701, 37.8715244 ], [ -25.8439817, 37.8702168 ], [ -25.845763, 37.8689506 ], [ -25.8470334, 37.8664643 ], [ -25.8466432, 37.865031 ], [ -25.8484188, 37.8658473 ], [ -25.8473861, 37.8645821 ], [ -25.8482574, 37.8628667 ], [ -25.8520986, 37.8627468 ], [ -25.8530333, 37.8623625 ], [ -25.8524871, 37.861682 ], [ -25.8535525, 37.8621322 ], [ -25.8532526, 37.8615817 ], [ -25.8542876, 37.8610618 ], [ -25.8556433, 37.8619297 ], [ -25.8560805, 37.8612893 ] ] ] } }
]
}
