{
"type": "FeatureCollection",
"name": "sark",
"crs": { "type": "name", "properties": { "name": "urn:ogc:def:crs:OGC:1.3:CRS84" } },
"features": [
{ "type": "Feature", "properties": { }, "geometry": { "type": "MultiPolygon", "coordinates": [ [ [ [ -2.3807756, 49.4055528 ], [ -2.3815388, 49.404809 ], [ -2.3817575, 49.4053531 ], [ -2.3807756, 49.4055528 ] ] ], [ [ [ -2.3809961, 49.4077153 ], [ -2.3801489, 49.4070421 ], [ -2.3811656, 49.4074774 ], [ -2.3809961, 49.4077153 ] ] ], [ [ [ -2.378485, 49.4080254 ], [ -2.3775416, 49.4082488 ], [ -2.3780364, 49.4076225 ], [ -2.378485, 49.4080254 ] ] ], [ [ [ -2.368777, 49.4100484 ], [ -2.3679988, 49.4106452 ], [ -2.3678698, 49.4103554 ], [ -2.368777, 49.4100484 ] ] ], [ [ [ -2.379959, 49.4106766 ], [ -2.3789235, 49.4104689 ], [ -2.3802607, 49.4104706 ], [ -2.379959, 49.4106766 ] ] ], [ [ [ -2.3849318, 49.4130726 ], [ -2.3844288, 49.4127914 ], [ -2.3839849, 49.4121268 ], [ -2.3848298, 49.4121442 ], [ -2.3849318, 49.4130726 ] ] ], [ [ [ -2.382849, 49.4157658 ], [ -2.38232, 49.4153566 ], [ -2.3829361, 49.415373 ], [ -2.382849, 49.4157658 ] ] ], [ [ [ -2.3802912, 49.4307497 ], [ -2.3793456, 49.431752 ], [ -2.3788978, 49.4310674 ], [ -2.3802912, 49.4307497 ] ] ], [ [ [ -2.3953789, 49.4317724 ], [ -2.3926171, 49.4342319 ], [ -2.3918344, 49.4335508 ], [ -2.3910233, 49.4341446 ], [ -2.3878191, 49.4335525 ], [ -2.3882842, 49.4339849 ], [ -2.3869488, 49.4344988 ], [ -2.3840547, 49.4339912 ], [ -2.3821288, 49.4328051 ], [ -2.3814477, 49.4313172 ], [ -2.3821474, 49.4306388 ], [ -2.3843278, 49.4311737 ], [ -2.3846969, 49.4303472 ], [ -2.3858793, 49.430821 ], [ -2.3888987, 49.4283585 ], [ -2.388664, 49.4290118 ], [ -2.3905618, 49.4293571 ], [ -2.3902391, 49.430363 ], [ -2.3889632, 49.4301873 ], [ -2.38901, 49.4307781 ], [ -2.3914459, 49.4319043 ], [ -2.3925814, 49.4310781 ], [ -2.3929073, 49.4317523 ], [ -2.3953789, 49.4317724 ] ] ], [ [ [ -2.3692951, 49.4496237 ], [ -2.3689915, 49.4497903 ], [ -2.3689378, 49.4496019 ], [ -2.3692951, 49.4496237 ] ] ], [ [ [ -2.370008, 49.4503082 ], [ -2.3696459, 49.4504372 ], [ -2.3695896, 49.450343 ], [ -2.370008, 49.4503082 ] ] ], [ [ [ -2.3702736, 49.4508051 ], [ -2.3703299, 49.4507476 ], [ -2.370354, 49.4507772 ], [ -2.3702736, 49.4508051 ] ] ], [ [ [ -2.3702441, 49.4509969 ], [ -2.3702092, 49.4508679 ], [ -2.3702762, 49.4509586 ], [ -2.3702441, 49.4509969 ] ] ], [ [ [ -2.369662, 49.4522105 ], [ -2.3689968, 49.4520571 ], [ -2.3684577, 49.4509168 ], [ -2.3694715, 49.4508296 ], [ -2.369662, 49.4522105 ] ] ], [ [ [ -2.367518, 49.402463 ], [ -2.3661811, 49.402053 ], [ -2.3668252, 49.4006868 ], [ -2.3683393, 49.4000521 ], [ -2.3684834, 49.4014237 ], [ -2.367518, 49.402463 ] ] ], [ [ [ -2.3683586, 49.410038 ], [ -2.3675861, 49.4097518 ], [ -2.3680045, 49.4090013 ], [ -2.3687073, 49.4092561 ], [ -2.3683586, 49.410038 ] ] ], [ [ [ -2.3597331, 49.4130008 ], [ -2.3596968, 49.4126293 ], [ -2.3598812, 49.4126509 ], [ -2.3597331, 49.4130008 ] ] ], [ [ [ -2.3582826, 49.4136614 ], [ -2.3582343, 49.4138914 ], [ -2.3579684, 49.4138344 ], [ -2.3582826, 49.4136614 ] ] ], [ [ [ -2.3615272, 49.4155073 ], [ -2.3614455, 49.4152105 ], [ -2.3617348, 49.4152459 ], [ -2.3615272, 49.4155073 ] ] ], [ [ [ -2.3637165, 49.4154351 ], [ -2.3637696, 49.4155389 ], [ -2.36365, 49.4154899 ], [ -2.3637165, 49.4154351 ] ] ], [ [ [ -2.3827993, 49.4141144 ], [ -2.3797863, 49.4156551 ], [ -2.3783831, 49.4176405 ], [ -2.3754448, 49.418348 ], [ -2.3738766, 49.4177817 ], [ -2.3731975, 49.4187225 ], [ -2.3740111, 49.4191559 ], [ -2.3734143, 49.4190119 ], [ -2.373696, 49.4202564 ], [ -2.3728564, 49.4189234 ], [ -2.3704134, 49.4187877 ], [ -2.3675071, 49.4204193 ], [ -2.367676, 49.4215114 ], [ -2.369678, 49.4219661 ], [ -2.3694333, 49.4226462 ], [ -2.3683161, 49.422449 ], [ -2.3692369, 49.4236926 ], [ -2.3674102, 49.4250546 ], [ -2.3678709, 49.4259038 ], [ -2.3699346, 49.4250462 ], [ -2.3729712, 49.4256721 ], [ -2.3733993, 49.425156 ], [ -2.374089, 49.4260214 ], [ -2.3733817, 49.426249 ], [ -2.3734961, 49.4265983 ], [ -2.3771348, 49.4273549 ], [ -2.3765175, 49.427811 ], [ -2.3774113, 49.4285486 ], [ -2.3755807, 49.4283213 ], [ -2.374431, 49.4293122 ], [ -2.3762729, 49.4296667 ], [ -2.37656, 49.4309292 ], [ -2.3786748, 49.4317439 ], [ -2.3764116, 49.4323176 ], [ -2.376143, 49.4334186 ], [ -2.3748563, 49.4338713 ], [ -2.3749774, 49.434753 ], [ -2.3730567, 49.4347797 ], [ -2.3721576, 49.4340212 ], [ -2.3694491, 49.4348558 ], [ -2.3707324, 49.4360396 ], [ -2.3694758, 49.43728 ], [ -2.3711251, 49.4381633 ], [ -2.3687667, 49.4384688 ], [ -2.3689907, 49.4392102 ], [ -2.3676748, 49.4403349 ], [ -2.3657633, 49.440589 ], [ -2.3661487, 49.4416639 ], [ -2.3655927, 49.4418932 ], [ -2.3675083, 49.4427893 ], [ -2.3666949, 49.4430018 ], [ -2.3667962, 49.4438636 ], [ -2.3679166, 49.4441887 ], [ -2.3670262, 49.44591 ], [ -2.3661408, 49.4458322 ], [ -2.3667831, 49.4464296 ], [ -2.3656339, 49.4468327 ], [ -2.3671369, 49.4470688 ], [ -2.3659766, 49.447661 ], [ -2.3673633, 49.4478333 ], [ -2.3676864, 49.4491411 ], [ -2.3647911, 49.4489024 ], [ -2.3643219, 49.4471466 ], [ -2.3628985, 49.446917 ], [ -2.3613788, 49.4477495 ], [ -2.3625782, 49.4463775 ], [ -2.3618794, 49.4464124 ], [ -2.3624231, 49.4454114 ], [ -2.3610151, 49.444777 ], [ -2.3597255, 49.4452716 ], [ -2.3590619, 49.4445883 ], [ -2.3576565, 49.4447905 ], [ -2.3576044, 49.4441299 ], [ -2.3573123, 49.4448869 ], [ -2.3560028, 49.4441317 ], [ -2.3541752, 49.4443706 ], [ -2.3532243, 49.4425581 ], [ -2.3542495, 49.441686 ], [ -2.3534976, 49.4417279 ], [ -2.352304, 49.4377726 ], [ -2.3497485, 49.4374165 ], [ -2.3491594, 49.4381618 ], [ -2.3467406, 49.4368418 ], [ -2.3449712, 49.4369586 ], [ -2.3447841, 49.4354723 ], [ -2.3440305, 49.4351247 ], [ -2.3449486, 49.4351012 ], [ -2.3442695, 49.4342036 ], [ -2.3457899, 49.4329643 ], [ -2.34403, 49.432735 ], [ -2.3444597, 49.4318512 ], [ -2.3426119, 49.4327096 ], [ -2.3428859, 49.4313447 ], [ -2.3420421, 49.4304629 ], [ -2.3432094, 49.4298969 ], [ -2.3426862, 49.4303043 ], [ -2.3437651, 49.4305444 ], [ -2.3433772, 49.4298453 ], [ -2.3442238, 49.4300355 ], [ -2.3438833, 49.4291417 ], [ -2.3448541, 49.4288074 ], [ -2.3430635, 49.4281105 ], [ -2.3443251, 49.4283513 ], [ -2.3480595, 49.4251056 ], [ -2.3468349, 49.4244272 ], [ -2.3468341, 49.4235719 ], [ -2.3489039, 49.4229369 ], [ -2.3480222, 49.4238496 ], [ -2.349138, 49.4245537 ], [ -2.3496835, 49.4263629 ], [ -2.3512529, 49.4261919 ], [ -2.3529989, 49.4253928 ], [ -2.3531314, 49.4236975 ], [ -2.353847, 49.4237485 ], [ -2.35447, 49.4225327 ], [ -2.3557395, 49.4223321 ], [ -2.3560455, 49.4240463 ], [ -2.3590826, 49.4240666 ], [ -2.3602037, 49.4234318 ], [ -2.3599374, 49.4218767 ], [ -2.363641, 49.4202225 ], [ -2.3655907, 49.4202059 ], [ -2.3652997, 49.4194752 ], [ -2.3666382, 49.4179467 ], [ -2.3658489, 49.4164346 ], [ -2.3676789, 49.4160828 ], [ -2.3675869, 49.4153922 ], [ -2.368915, 49.4146648 ], [ -2.3686856, 49.4106935 ], [ -2.3707707, 49.4100804 ], [ -2.3710788, 49.4090603 ], [ -2.3738282, 49.4087191 ], [ -2.3731704, 49.4080172 ], [ -2.3755286, 49.407425 ], [ -2.3749599, 49.4082941 ], [ -2.3767476, 49.4075707 ], [ -2.3769684, 49.4081215 ], [ -2.377553, 49.4079718 ], [ -2.3774621, 49.4082879 ], [ -2.3775765, 49.4083305 ], [ -2.3784823, 49.4083044 ], [ -2.3766333, 49.4090163 ], [ -2.3784126, 49.4094528 ], [ -2.3758488, 49.4110374 ], [ -2.3802895, 49.4107778 ], [ -2.3807987, 49.4126699 ], [ -2.3826207, 49.411863 ], [ -2.3827993, 49.4141144 ] ] ], [ [ [ -2.3401853, 49.4300386 ], [ -2.3378459, 49.4298358 ], [ -2.3395019, 49.4292879 ], [ -2.3387541, 49.4283171 ], [ -2.3400496, 49.4288289 ], [ -2.3401853, 49.4300386 ] ] ], [ [ [ -2.3427779, 49.4384736 ], [ -2.3420451, 49.438367 ], [ -2.3413714, 49.4374132 ], [ -2.3430671, 49.4376366 ], [ -2.3427779, 49.4384736 ] ] ], [ [ [ -2.3440791, 49.441772 ], [ -2.3436869, 49.4439726 ], [ -2.3429584, 49.4422797 ], [ -2.3440791, 49.441772 ] ] ], [ [ [ -2.3688278, 49.4507184 ], [ -2.367091, 49.4495195 ], [ -2.3693338, 49.4506331 ], [ -2.3688278, 49.4507184 ] ] ], [ [ [ -2.3680238, 49.4519286 ], [ -2.3680258, 49.4520372 ], [ -2.3679063, 49.4519568 ], [ -2.3680238, 49.4519286 ] ] ], [ [ [ -2.3672265, 49.4521988 ], [ -2.3672224, 49.4523288 ], [ -2.3671091, 49.4522296 ], [ -2.3672265, 49.4521988 ] ] ] ] } }
]
}
