{
"type": "FeatureCollection",
"name": "skye",
"crs": { "type": "name", "properties": { "name": "urn:ogc:def:crs:OGC:1.3:CRS84" } },
"features": [
{ "type": "Feature", "properties": { }, "geometry": { "type": "MultiPolygon", "coordinates": [ [ [ [ -6.2557642, 57.6768454 ], [ -6.2557572, 57.6767154 ], [ -6.2558607, 57.6768224 ], [ -6.2557642, 57.6768454 ] ] ], [ [ [ -6.2559197, 57.6769371 ], [ -6.2560699, 57.6768826 ], [ -6.2561005, 57.6769592 ], [ -6.2559197, 57.6769371 ] ] ], [ [ [ -6.2562792, 57.6775079 ], [ -6.2563634, 57.6773952 ], [ -6.2564562, 57.6774936 ], [ -6.2562792, 57.6775079 ] ] ], [ [ [ -6.2567834, 57.6777747 ], [ -6.2567121, 57.6775644 ], [ -6.2568676, 57.6777996 ], [ -6.2567834, 57.6777747 ] ] ], [ [ [ -6.2566439, 57.6779382 ], [ -6.2568639, 57.6779296 ], [ -6.2568639, 57.6779841 ], [ -6.2566439, 57.6779382 ] ] ], [ [ [ -6.2603123, 57.6817196 ], [ -6.2602156, 57.6813639 ], [ -6.2604357, 57.6816935 ], [ -6.2603123, 57.6817196 ] ] ], [ [ [ -6.7898202, 57.4214246 ], [ -6.7879414, 57.4225919 ], [ -6.7885714, 57.4239983 ], [ -6.7874679, 57.4235883 ], [ -6.7879297, 57.4243499 ], [ -6.785799, 57.4251199 ], [ -6.7852515, 57.4266996 ], [ -6.7830165, 57.4275884 ], [ -6.7836307, 57.4282137 ], [ -6.7831555, 57.4287557 ], [ -6.7865356, 57.4308739 ], [ -6.7876461, 57.4328481 ], [ -6.7864024, 57.4344213 ], [ -6.7866493, 57.4358028 ], [ -6.7858435, 57.4355966 ], [ -6.7859506, 57.4378028 ], [ -6.7869311, 57.4376843 ], [ -6.7862419, 57.4398823 ], [ -6.7835043, 57.441365 ], [ -6.7784655, 57.4419369 ], [ -6.7776771, 57.4451526 ], [ -6.7801254, 57.450001 ], [ -6.7855189, 57.4521549 ], [ -6.783896, 57.4552173 ], [ -6.7780171, 57.4587151 ], [ -6.7635434, 57.4591143 ], [ -6.7521086, 57.4573503 ], [ -6.7493824, 57.4560487 ], [ -6.7468123, 57.4566896 ], [ -6.7460567, 57.4559739 ], [ -6.7469488, 57.4556938 ], [ -6.7467551, 57.4543718 ], [ -6.7434991, 57.45186 ], [ -6.7339904, 57.4522529 ], [ -6.7285132, 57.4505417 ], [ -6.7200047, 57.4497572 ], [ -6.7206817, 57.4503153 ], [ -6.7200932, 57.4508611 ], [ -6.7214379, 57.450842 ], [ -6.7209297, 57.4518247 ], [ -6.7217202, 57.4527604 ], [ -6.7252436, 57.4539627 ], [ -6.7252254, 57.454911 ], [ -6.727215, 57.4570484 ], [ -6.7318949, 57.4589731 ], [ -6.734502, 57.4610501 ], [ -6.7388578, 57.462129 ], [ -6.7432267, 57.4651263 ], [ -6.746038, 57.4689125 ], [ -6.7459947, 57.4713506 ], [ -6.7487427, 57.4793379 ], [ -6.7493029, 57.4835571 ], [ -6.7473716, 57.494445 ], [ -6.7480756, 57.4985715 ], [ -6.7472624, 57.5001368 ], [ -6.7426259, 57.5030019 ], [ -6.7391556, 57.503956 ], [ -6.729592, 57.5101471 ], [ -6.7183934, 57.5126046 ], [ -6.7165414, 57.513766 ], [ -6.7121934, 57.5127446 ], [ -6.7050177, 57.5060188 ], [ -6.7033693, 57.4999819 ], [ -6.7048887, 57.4986442 ], [ -6.7047682, 57.4968779 ], [ -6.6995314, 57.4965024 ], [ -6.6967819, 57.4941892 ], [ -6.6964659, 57.4923712 ], [ -6.6946258, 57.4921957 ], [ -6.6927929, 57.4894998 ], [ -6.6875274, 57.4902796 ], [ -6.6869321, 57.4896295 ], [ -6.6876033, 57.4860014 ], [ -6.6863675, 57.4852859 ], [ -6.6857554, 57.4833753 ], [ -6.6813111, 57.482343 ], [ -6.6770403, 57.4791484 ], [ -6.677014, 57.4775591 ], [ -6.6783618, 57.4760737 ], [ -6.6779934, 57.474897 ], [ -6.6700426, 57.4728597 ], [ -6.6668744, 57.4708372 ], [ -6.6661287, 57.4696777 ], [ -6.6686247, 57.4681297 ], [ -6.6687854, 57.4666488 ], [ -6.6659434, 57.4655938 ], [ -6.6674777, 57.4648937 ], [ -6.6669243, 57.4638981 ], [ -6.6680571, 57.4613153 ], [ -6.6665868, 57.4594399 ], [ -6.6649044, 57.459163 ], [ -6.6641922, 57.4606725 ], [ -6.6607434, 57.4613544 ], [ -6.6521634, 57.4585043 ], [ -6.6542554, 57.4560991 ], [ -6.6517107, 57.4552241 ], [ -6.6514501, 57.4538994 ], [ -6.6502346, 57.4536441 ], [ -6.6506423, 57.4524415 ], [ -6.6488733, 57.4514444 ], [ -6.6489818, 57.4507141 ], [ -6.6482009, 57.4508238 ], [ -6.6478263, 57.4501565 ], [ -6.6485518, 57.4498928 ], [ -6.6396811, 57.442751 ], [ -6.6331069, 57.4415464 ], [ -6.6313199, 57.4396402 ], [ -6.6292473, 57.439785 ], [ -6.6313594, 57.4390586 ], [ -6.6299765, 57.4391645 ], [ -6.631203, 57.4387936 ], [ -6.6269178, 57.4375176 ], [ -6.6253264, 57.4354211 ], [ -6.624235, 57.4355817 ], [ -6.6237981, 57.4347261 ], [ -6.6223765, 57.435132 ], [ -6.6215748, 57.4344906 ], [ -6.6192161, 57.4360416 ], [ -6.6165344, 57.4359792 ], [ -6.6178315, 57.4377425 ], [ -6.6163654, 57.4393148 ], [ -6.6114841, 57.4393772 ], [ -6.613219, 57.4435024 ], [ -6.6104554, 57.4442787 ], [ -6.6102946, 57.4472457 ], [ -6.604822, 57.4455731 ], [ -6.6028785, 57.4459207 ], [ -6.6031896, 57.4463594 ], [ -6.598854, 57.4449794 ], [ -6.5957669, 57.4426402 ], [ -6.5950697, 57.4406493 ], [ -6.5921513, 57.4379228 ], [ -6.5903488, 57.4372703 ], [ -6.590858, 57.4368406 ], [ -6.5886549, 57.4330195 ], [ -6.5883547, 57.4295098 ], [ -6.5898916, 57.4285965 ], [ -6.5911421, 57.4292261 ], [ -6.5923747, 57.4285887 ], [ -6.5902759, 57.4277819 ], [ -6.590263, 57.4270885 ], [ -6.5912545, 57.4269214 ], [ -6.590381, 57.4266379 ], [ -6.5909192, 57.4257546 ], [ -6.588639, 57.4246823 ], [ -6.5882758, 57.42533 ], [ -6.5863726, 57.4253349 ], [ -6.5849716, 57.4217119 ], [ -6.5815512, 57.421643 ], [ -6.5823748, 57.4226448 ], [ -6.581224, 57.4230212 ], [ -6.5833209, 57.424429 ], [ -6.5832637, 57.4262836 ], [ -6.5819875, 57.4282223 ], [ -6.5792866, 57.4281455 ], [ -6.5823585, 57.430509 ], [ -6.5818679, 57.4319284 ], [ -6.5794753, 57.432361 ], [ -6.5747842, 57.4312714 ], [ -6.5766148, 57.4336082 ], [ -6.59151, 57.4415495 ], [ -6.5904025, 57.4422596 ], [ -6.5911238, 57.4437514 ], [ -6.5905444, 57.4450634 ], [ -6.5914592, 57.4475237 ], [ -6.5926673, 57.4485182 ], [ -6.5900609, 57.4474556 ], [ -6.5897745, 57.4480384 ], [ -6.5919096, 57.4502071 ], [ -6.594708, 57.4515452 ], [ -6.593682, 57.4536775 ], [ -6.5991928, 57.4552934 ], [ -6.5995744, 57.4565101 ], [ -6.603116, 57.4585726 ], [ -6.6039531, 57.4607038 ], [ -6.6046769, 57.4606261 ], [ -6.603821, 57.4591082 ], [ -6.6041433, 57.4580901 ], [ -6.6084885, 57.4590854 ], [ -6.6099691, 57.4587103 ], [ -6.6117393, 57.4599511 ], [ -6.6147161, 57.4604729 ], [ -6.6118466, 57.4592355 ], [ -6.6115677, 57.458416 ], [ -6.6096258, 57.4581101 ], [ -6.6095861, 57.4572552 ], [ -6.6059565, 57.4571752 ], [ -6.6069865, 57.4557554 ], [ -6.6108059, 57.4575561 ], [ -6.6099691, 57.4564191 ], [ -6.612147, 57.456598 ], [ -6.613095, 57.4548809 ], [ -6.6151957, 57.4554385 ], [ -6.6148178, 57.4564138 ], [ -6.6164318, 57.4563874 ], [ -6.6139354, 57.4571738 ], [ -6.6201117, 57.4567206 ], [ -6.6206082, 57.4570113 ], [ -6.6177254, 57.4579995 ], [ -6.6194813, 57.458329 ], [ -6.6210969, 57.4572807 ], [ -6.6240988, 57.4592909 ], [ -6.6238581, 57.4601317 ], [ -6.6252493, 57.4623344 ], [ -6.6223812, 57.4626047 ], [ -6.6180412, 57.4609977 ], [ -6.6153684, 57.4609846 ], [ -6.6152328, 57.4636573 ], [ -6.6140126, 57.4652431 ], [ -6.6153687, 57.4661443 ], [ -6.6132927, 57.4668784 ], [ -6.61502, 57.469248 ], [ -6.6178721, 57.4712844 ], [ -6.6232868, 57.4731337 ], [ -6.6238096, 57.4748347 ], [ -6.6228572, 57.4751968 ], [ -6.6237556, 57.4759977 ], [ -6.623726, 57.4785515 ], [ -6.6273049, 57.4825853 ], [ -6.6259102, 57.4847652 ], [ -6.6279122, 57.4860801 ], [ -6.62746, 57.48764 ], [ -6.629949, 57.4876128 ], [ -6.6285812, 57.4895111 ], [ -6.6323791, 57.4922765 ], [ -6.6333854, 57.4947505 ], [ -6.6354625, 57.4948595 ], [ -6.6364303, 57.4957531 ], [ -6.6350534, 57.4976346 ], [ -6.6366237, 57.4992676 ], [ -6.6361553, 57.5003516 ], [ -6.6376513, 57.5014459 ], [ -6.6378938, 57.5030446 ], [ -6.6368198, 57.5041667 ], [ -6.6291758, 57.5024546 ], [ -6.6186053, 57.5016084 ], [ -6.61627, 57.50254 ], [ -6.6141928, 57.5053004 ], [ -6.6102913, 57.5074811 ], [ -6.598851, 57.5099287 ], [ -6.5897655, 57.5053852 ], [ -6.5860997, 57.5023496 ], [ -6.5776238, 57.4975233 ], [ -6.5767276, 57.4960187 ], [ -6.573628, 57.4940143 ], [ -6.56659, 57.492973 ], [ -6.5683953, 57.4938985 ], [ -6.5678642, 57.495111 ], [ -6.5630541, 57.4961441 ], [ -6.563535, 57.498758 ], [ -6.5663214, 57.5010793 ], [ -6.5667799, 57.5023471 ], [ -6.5625957, 57.5042919 ], [ -6.5601629, 57.5070699 ], [ -6.5613929, 57.5087723 ], [ -6.5696543, 57.5116711 ], [ -6.5730203, 57.5153994 ], [ -6.5839647, 57.5168913 ], [ -6.5871461, 57.5188735 ], [ -6.5864403, 57.5191411 ], [ -6.5874815, 57.5200921 ], [ -6.5855295, 57.5220989 ], [ -6.5872228, 57.5240921 ], [ -6.5904999, 57.5253839 ], [ -6.5923536, 57.5279526 ], [ -6.5960857, 57.5307858 ], [ -6.6027325, 57.5333414 ], [ -6.6036671, 57.5358815 ], [ -6.60806, 57.5372995 ], [ -6.6133071, 57.537412 ], [ -6.6233288, 57.544277 ], [ -6.63378, 57.54793 ], [ -6.6413596, 57.5520466 ], [ -6.6451161, 57.5527184 ], [ -6.6513947, 57.5501769 ], [ -6.6514231, 57.5490418 ], [ -6.6495191, 57.5472944 ], [ -6.6470524, 57.5467008 ], [ -6.6499353, 57.542936 ], [ -6.6525134, 57.5430408 ], [ -6.6556188, 57.5461729 ], [ -6.6530013, 57.5495193 ], [ -6.6534667, 57.5511192 ], [ -6.6549242, 57.5519634 ], [ -6.6544908, 57.5543914 ], [ -6.64668, 57.55484 ], [ -6.64191, 57.55859 ], [ -6.63972, 57.56291 ], [ -6.64131, 57.5678 ], [ -6.64067, 57.57035 ], [ -6.63914, 57.57186 ], [ -6.63706, 57.57848 ], [ -6.63609, 57.57846 ], [ -6.63328, 57.58148 ], [ -6.63321, 57.5825 ], [ -6.63433, 57.58355 ], [ -6.63338, 57.58353 ], [ -6.63347, 57.58584 ], [ -6.63497, 57.58843 ], [ -6.63326, 57.58891 ], [ -6.6319794, 57.5921915 ], [ -6.632363, 57.593961 ], [ -6.6337044, 57.594175 ], [ -6.6320577, 57.5952985 ], [ -6.63284, 57.59556 ], [ -6.63342, 57.59762 ], [ -6.63437, 57.59763 ], [ -6.63477, 57.59892 ], [ -6.6364, 57.59947 ], [ -6.63567, 57.59971 ], [ -6.63727, 57.60076 ], [ -6.63668, 57.60255 ], [ -6.63469, 57.60379 ], [ -6.6354528, 57.6070539 ], [ -6.6347937, 57.608505 ], [ -6.6318234, 57.6075571 ], [ -6.6306271, 57.6079925 ], [ -6.62967, 57.60753 ], [ -6.6301849, 57.6066077 ], [ -6.6280371, 57.6059074 ], [ -6.61333, 57.60569 ], [ -6.6128226, 57.6034476 ], [ -6.60556, 57.60055 ], [ -6.60351, 57.5991 ], [ -6.6029, 57.59755 ], [ -6.59961, 57.59671 ], [ -6.60062, 57.59597 ], [ -6.59021, 57.59462 ], [ -6.58814, 57.59369 ], [ -6.58683, 57.59187 ], [ -6.5870718, 57.5911207 ], [ -6.5862552, 57.5913236 ], [ -6.5848396, 57.589349 ], [ -6.5825066, 57.5879945 ], [ -6.58146, 57.58639 ], [ -6.5815505, 57.5842943 ], [ -6.579727, 57.582349 ], [ -6.574236, 57.5797606 ], [ -6.5724862, 57.5763319 ], [ -6.5703357, 57.5749832 ], [ -6.56857, 57.57231 ], [ -6.5704158, 57.5673877 ], [ -6.5702246, 57.5658968 ], [ -6.5686037, 57.5638266 ], [ -6.5688812, 57.55831 ], [ -6.5676907, 57.5520452 ], [ -6.5657047, 57.5482838 ], [ -6.5592682, 57.5476005 ], [ -6.554, 57.54437 ], [ -6.54972, 57.54416 ], [ -6.54265, 57.54671 ], [ -6.5418709, 57.5483017 ], [ -6.53983, 57.5479048 ], [ -6.5359152, 57.5458392 ], [ -6.5319039, 57.544939 ], [ -6.53118, 57.54367 ], [ -6.5264761, 57.5406156 ], [ -6.513722, 57.5378275 ], [ -6.5104117, 57.5352022 ], [ -6.5041783, 57.5341388 ], [ -6.4999967, 57.5315206 ], [ -6.4992735, 57.5296398 ], [ -6.49684, 57.52711 ], [ -6.49668, 57.52583 ], [ -6.49482, 57.52528 ], [ -6.49533, 57.52478 ], [ -6.48731, 57.5236 ], [ -6.4843175, 57.5221989 ], [ -6.4772075, 57.5161554 ], [ -6.47206, 57.51356 ], [ -6.4709652, 57.5112783 ], [ -6.46746, 57.50783 ], [ -6.465156, 57.5067888 ], [ -6.4649469, 57.5055681 ], [ -6.46059, 57.50398 ], [ -6.46437, 57.50111 ], [ -6.4651928, 57.5000609 ], [ -6.4643573, 57.4992754 ], [ -6.4620019, 57.4990011 ], [ -6.4556434, 57.5005824 ], [ -6.4551639, 57.50133 ], [ -6.4563417, 57.5018438 ], [ -6.4547785, 57.5022308 ], [ -6.45439, 57.50424 ], [ -6.45218, 57.50522 ], [ -6.45233, 57.5065 ], [ -6.44601, 57.50817 ], [ -6.44438, 57.51121 ], [ -6.44053, 57.5119 ], [ -6.44046, 57.51292 ], [ -6.43951, 57.5129 ], [ -6.43715, 57.51593 ], [ -6.43779, 57.51697 ], [ -6.43396, 57.5174 ], [ -6.43388, 57.51842 ], [ -6.43292, 57.51879 ], [ -6.42809, 57.51959 ], [ -6.42816, 57.51856 ], [ -6.42652, 57.51827 ], [ -6.42598, 57.5157 ], [ -6.42503, 57.51568 ], [ -6.42538, 57.51415 ], [ -6.42792, 57.5119 ], [ -6.42957, 57.50886 ], [ -6.42939, 57.50783 ], [ -6.43034, 57.50785 ], [ -6.4307411, 57.5056977 ], [ -6.4325723, 57.5044286 ], [ -6.4326775, 57.5023547 ], [ -6.4376981, 57.5000517 ], [ -6.4365665, 57.4992162 ], [ -6.4368563, 57.4980673 ], [ -6.439188, 57.4963499 ], [ -6.4403509, 57.4939709 ], [ -6.4436218, 57.4920889 ], [ -6.4485428, 57.4869978 ], [ -6.450229, 57.4838365 ], [ -6.4502456, 57.4819941 ], [ -6.4512121, 57.4812146 ], [ -6.447409, 57.4809498 ], [ -6.4437075, 57.4819348 ], [ -6.4404766, 57.4812563 ], [ -6.4383233, 57.4774815 ], [ -6.4388759, 57.47525 ], [ -6.4342089, 57.4715053 ], [ -6.4334013, 57.4721366 ], [ -6.4311288, 57.4718216 ], [ -6.43187, 57.47254 ], [ -6.4317347, 57.4755258 ], [ -6.43259, 57.47588 ], [ -6.4340352, 57.4806374 ], [ -6.4338, 57.48231 ], [ -6.4359533, 57.4838827 ], [ -6.4368153, 57.4865828 ], [ -6.4363123, 57.4897475 ], [ -6.4357037, 57.489791 ], [ -6.4360179, 57.4913952 ], [ -6.4332477, 57.4928743 ], [ -6.4311147, 57.4924251 ], [ -6.42535, 57.49776 ], [ -6.42124, 57.4987 ], [ -6.4205978, 57.5007136 ], [ -6.4215178, 57.5035151 ], [ -6.4183791, 57.5058342 ], [ -6.4159376, 57.5061877 ], [ -6.4154285, 57.5070329 ], [ -6.4122261, 57.5061781 ], [ -6.4094173, 57.5067133 ], [ -6.408309, 57.5060231 ], [ -6.4078898, 57.5068902 ], [ -6.4054744, 57.5072043 ], [ -6.4035642, 57.5088877 ], [ -6.4013683, 57.5082925 ], [ -6.3996465, 57.5089586 ], [ -6.4013366, 57.5136979 ], [ -6.3993212, 57.5148206 ], [ -6.4012283, 57.5173984 ], [ -6.4050757, 57.5190081 ], [ -6.4068824, 57.5231196 ], [ -6.4058265, 57.5232995 ], [ -6.4060275, 57.5238969 ], [ -6.4032, 57.5241512 ], [ -6.4040099, 57.5261764 ], [ -6.40257, 57.527 ], [ -6.40276, 57.52777 ], [ -6.39932, 57.52924 ], [ -6.39892, 57.52821 ], [ -6.391, 57.52574 ], [ -6.38785, 57.52311 ], [ -6.38369, 57.52149 ], [ -6.38221, 57.5189 ], [ -6.38283, 57.51686 ], [ -6.37976, 57.51321 ], [ -6.37917, 57.51141 ], [ -6.37777, 57.51112 ], [ -6.375289, 57.5015085 ], [ -6.3745422, 57.5008892 ], [ -6.3719829, 57.5020087 ], [ -6.3722449, 57.5025617 ], [ -6.3698663, 57.5049248 ], [ -6.3662934, 57.5041305 ], [ -6.3623104, 57.5010591 ], [ -6.3584957, 57.5003166 ], [ -6.3547022, 57.4976662 ], [ -6.3499391, 57.4967395 ], [ -6.3500587, 57.4960538 ], [ -6.3484868, 57.4949895 ], [ -6.3495374, 57.4939295 ], [ -6.34796, 57.49231 ], [ -6.3484629, 57.4892893 ], [ -6.3471542, 57.4885625 ], [ -6.3479645, 57.4885366 ], [ -6.3481928, 57.4874229 ], [ -6.3469099, 57.4838489 ], [ -6.3477847, 57.4826615 ], [ -6.3456324, 57.4826478 ], [ -6.3450911, 57.4807742 ], [ -6.3440508, 57.4815118 ], [ -6.344803, 57.481972 ], [ -6.3434405, 57.4820348 ], [ -6.3407427, 57.4801287 ], [ -6.3420399, 57.4815743 ], [ -6.3401038, 57.4820887 ], [ -6.34143, 57.48398 ], [ -6.339731, 57.4868337 ], [ -6.3405991, 57.487904 ], [ -6.3396927, 57.4882437 ], [ -6.3404554, 57.4883868 ], [ -6.3398192, 57.4893508 ], [ -6.3411496, 57.491983 ], [ -6.3399187, 57.4921473 ], [ -6.3352238, 57.4901281 ], [ -6.3338194, 57.4852225 ], [ -6.3328125, 57.4849848 ], [ -6.3338988, 57.4804183 ], [ -6.3273434, 57.4740831 ], [ -6.3285647, 57.466591 ], [ -6.3280507, 57.4647307 ], [ -6.3286451, 57.4641657 ], [ -6.3258221, 57.4584492 ], [ -6.3234266, 57.4565766 ], [ -6.3172054, 57.4554024 ], [ -6.3157881, 57.4561133 ], [ -6.3124734, 57.4548513 ], [ -6.3123726, 57.45605 ], [ -6.3134536, 57.4563028 ], [ -6.3122041, 57.4567274 ], [ -6.3140867, 57.4578339 ], [ -6.3129258, 57.4582138 ], [ -6.3190667, 57.4613312 ], [ -6.32147, 57.46435 ], [ -6.3187282, 57.4685528 ], [ -6.31906, 57.47121 ], [ -6.3183457, 57.4728818 ], [ -6.32536, 57.47941 ], [ -6.3257105, 57.4851868 ], [ -6.3254058, 57.4860301 ], [ -6.321467, 57.4870239 ], [ -6.3122504, 57.4816658 ], [ -6.3134461, 57.4828795 ], [ -6.3117021, 57.4819965 ], [ -6.3105559, 57.4830336 ], [ -6.3067835, 57.4824837 ], [ -6.3063064, 57.4831057 ], [ -6.3109246, 57.4865892 ], [ -6.3192888, 57.4900781 ], [ -6.3233239, 57.4903441 ], [ -6.3284874, 57.4944057 ], [ -6.3275689, 57.4963145 ], [ -6.3328054, 57.4981274 ], [ -6.3457801, 57.506046 ], [ -6.3535413, 57.5081574 ], [ -6.3565641, 57.510929 ], [ -6.3618506, 57.5128307 ], [ -6.3655823, 57.5154676 ], [ -6.3699539, 57.5206367 ], [ -6.3705756, 57.5238123 ], [ -6.3696606, 57.5258722 ], [ -6.3737847, 57.5270826 ], [ -6.3761833, 57.5301426 ], [ -6.3746364, 57.5309068 ], [ -6.3747283, 57.5316726 ], [ -6.37093, 57.5311613 ], [ -6.3670591, 57.5314394 ], [ -6.3729477, 57.5318827 ], [ -6.3736209, 57.5326868 ], [ -6.3734636, 57.5348597 ], [ -6.3790819, 57.5387783 ], [ -6.3799227, 57.5386177 ], [ -6.3827841, 57.5409162 ], [ -6.3863343, 57.5413507 ], [ -6.3889374, 57.5427907 ], [ -6.389789, 57.5442434 ], [ -6.3884302, 57.5457433 ], [ -6.3865301, 57.5452411 ], [ -6.3839276, 57.5429981 ], [ -6.382739, 57.5467573 ], [ -6.3838791, 57.5488341 ], [ -6.3895564, 57.5488765 ], [ -6.3920473, 57.5505792 ], [ -6.3929536, 57.5526805 ], [ -6.3952978, 57.5535738 ], [ -6.3955939, 57.5543136 ], [ -6.3945077, 57.5560462 ], [ -6.3966848, 57.5579877 ], [ -6.39768, 57.56225 ], [ -6.3985793, 57.5623987 ], [ -6.3977905, 57.563311 ], [ -6.39799, 57.56456 ], [ -6.3948392, 57.5672187 ], [ -6.3954567, 57.5676973 ], [ -6.3938822, 57.569699 ], [ -6.3908638, 57.5691349 ], [ -6.3909409, 57.5684345 ], [ -6.384287, 57.5634366 ], [ -6.38062, 57.5642 ], [ -6.3793062, 57.5687187 ], [ -6.380093, 57.5692399 ], [ -6.3791694, 57.5701704 ], [ -6.3802288, 57.5703821 ], [ -6.3744, 57.57111 ], [ -6.37266, 57.57223 ], [ -6.3726265, 57.573444 ], [ -6.3696, 57.57498 ], [ -6.36687, 57.57979 ], [ -6.3622686, 57.5839866 ], [ -6.3594704, 57.5879215 ], [ -6.3597772, 57.5885281 ], [ -6.3591593, 57.588357 ], [ -6.3594386, 57.5889976 ], [ -6.3638463, 57.5904384 ], [ -6.3677015, 57.5906089 ], [ -6.3728551, 57.5894037 ], [ -6.3754789, 57.5878332 ], [ -6.3747226, 57.5873199 ], [ -6.3749991, 57.5862066 ], [ -6.3713898, 57.5856879 ], [ -6.3720301, 57.5855532 ], [ -6.3718953, 57.5842425 ], [ -6.3724829, 57.5857485 ], [ -6.3762957, 57.5863104 ], [ -6.3788076, 57.5852437 ], [ -6.3823807, 57.5856942 ], [ -6.3945689, 57.5848981 ], [ -6.3950695, 57.5861005 ], [ -6.3926049, 57.5882783 ], [ -6.39177, 57.59158 ], [ -6.3931598, 57.5932358 ], [ -6.3988289, 57.5962006 ], [ -6.3972537, 57.5969116 ], [ -6.3974525, 57.5978237 ], [ -6.3965209, 57.5975418 ], [ -6.3954372, 57.5983694 ], [ -6.39448, 57.60034 ], [ -6.39644, 57.60294 ], [ -6.3974402, 57.6072404 ], [ -6.3993475, 57.6078511 ], [ -6.3969199, 57.6080529 ], [ -6.3951235, 57.6092776 ], [ -6.39415, 57.6116 ], [ -6.3945, 57.6134 ], [ -6.39727, 57.61474 ], [ -6.40029, 57.61916 ], [ -6.40374, 57.62102 ], [ -6.40567, 57.62413 ], [ -6.41041, 57.62782 ], [ -6.41212, 57.63067 ], [ -6.41856, 57.63413 ], [ -6.42001, 57.6339 ], [ -6.42063, 57.6352 ], [ -6.42361, 57.63706 ], [ -6.42684, 57.64198 ], [ -6.4238535, 57.6467446 ], [ -6.420654, 57.6476322 ], [ -6.4145745, 57.6475227 ], [ -6.4139575, 57.6482292 ], [ -6.4074726, 57.6490914 ], [ -6.4053485, 57.650252 ], [ -6.40465, 57.65177 ], [ -6.40646, 57.65309 ], [ -6.4056147, 57.6544723 ], [ -6.4105283, 57.6587673 ], [ -6.410269, 57.6601867 ], [ -6.4047, 57.66112 ], [ -6.39477, 57.65964 ], [ -6.38844, 57.66117 ], [ -6.3860278, 57.6598545 ], [ -6.38328, 57.65992 ], [ -6.3770136, 57.6612211 ], [ -6.36212, 57.66831 ], [ -6.3541195, 57.6710626 ], [ -6.35209, 57.67477 ], [ -6.34739, 57.67697 ], [ -6.3448655, 57.6806726 ], [ -6.3494767, 57.6836524 ], [ -6.3496, 57.684464 ], [ -6.3450604, 57.6838059 ], [ -6.3423619, 57.685056 ], [ -6.3433734, 57.6856357 ], [ -6.3441545, 57.6883276 ], [ -6.3457321, 57.6893366 ], [ -6.3466794, 57.6922121 ], [ -6.3487628, 57.6944582 ], [ -6.354649, 57.6956513 ], [ -6.3565933, 57.698065 ], [ -6.3560277, 57.6987073 ], [ -6.352059, 57.6984234 ], [ -6.3477498, 57.7025015 ], [ -6.3526752, 57.7048429 ], [ -6.356057, 57.7042678 ], [ -6.3570323, 57.7067776 ], [ -6.3554267, 57.7064231 ], [ -6.3553485, 57.707254 ], [ -6.3547778, 57.7067966 ], [ -6.3532465, 57.7080241 ], [ -6.35017, 57.70763 ], [ -6.3440681, 57.7033381 ], [ -6.3438997, 57.7043156 ], [ -6.3420008, 57.7037934 ], [ -6.341186, 57.7027632 ], [ -6.3423601, 57.7029042 ], [ -6.3420574, 57.7020653 ], [ -6.33826, 57.70034 ], [ -6.3335575, 57.7008015 ], [ -6.33257, 57.69971 ], [ -6.33019, 57.69953 ], [ -6.32199, 57.70051 ], [ -6.3225139, 57.7017513 ], [ -6.3215921, 57.7033331 ], [ -6.3192898, 57.7028044 ], [ -6.3196358, 57.7040655 ], [ -6.3175061, 57.703986 ], [ -6.3178835, 57.7050793 ], [ -6.31345, 57.70596 ], [ -6.31241, 57.70708 ], [ -6.30759, 57.7075 ], [ -6.30477, 57.70693 ], [ -6.3031371, 57.7053046 ], [ -6.3017274, 57.7056455 ], [ -6.3022868, 57.7059105 ], [ -6.3010974, 57.7079105 ], [ -6.2995748, 57.7082412 ], [ -6.2968267, 57.7076164 ], [ -6.2953005, 57.7060158 ], [ -6.29559, 57.70481 ], [ -6.29162, 57.70037 ], [ -6.2912843, 57.6983372 ], [ -6.294799, 57.6989259 ], [ -6.2960008, 57.698454 ], [ -6.2960796, 57.6965155 ], [ -6.298168, 57.6948357 ], [ -6.297171, 57.6943515 ], [ -6.3023428, 57.6933969 ], [ -6.3030732, 57.6917762 ], [ -6.2971803, 57.6912483 ], [ -6.2934188, 57.6923774 ], [ -6.290833, 57.6912724 ], [ -6.2878483, 57.6915992 ], [ -6.2853706, 57.6892129 ], [ -6.2857287, 57.6879956 ], [ -6.2810446, 57.6875618 ], [ -6.2811434, 57.6867922 ], [ -6.279674, 57.6866909 ], [ -6.2794372, 57.6851836 ], [ -6.2762193, 57.6826711 ], [ -6.2658167, 57.6814446 ], [ -6.2634918, 57.6804483 ], [ -6.2612462, 57.6809828 ], [ -6.2599598, 57.6800369 ], [ -6.2603135, 57.6792606 ], [ -6.2572626, 57.6775828 ], [ -6.2557693, 57.6749443 ], [ -6.2531019, 57.6748138 ], [ -6.2525018, 57.6742045 ], [ -6.2529959, 57.673981 ], [ -6.2510765, 57.6735016 ], [ -6.2466431, 57.661701 ], [ -6.2424995, 57.659298 ], [ -6.239629, 57.6565581 ], [ -6.2364967, 57.6508529 ], [ -6.2372386, 57.6463604 ], [ -6.2346496, 57.6431172 ], [ -6.236301, 57.6405402 ], [ -6.2353598, 57.6373884 ], [ -6.2261948, 57.6344307 ], [ -6.2159457, 57.6346857 ], [ -6.215647, 57.6341344 ], [ -6.2065854, 57.6372218 ], [ -6.1960839, 57.6317226 ], [ -6.1935248, 57.6319047 ], [ -6.1913161, 57.6332784 ], [ -6.1906162, 57.631862 ], [ -6.1860404, 57.62969 ], [ -6.1822932, 57.6257541 ], [ -6.1820646, 57.6246422 ], [ -6.1787168, 57.6228601 ], [ -6.1759312, 57.6201331 ], [ -6.1744451, 57.6139082 ], [ -6.1717611, 57.6115905 ], [ -6.1702853, 57.6076494 ], [ -6.1666292, 57.6031148 ], [ -6.1569457, 57.5977411 ], [ -6.1550407, 57.5919164 ], [ -6.1526082, 57.5898392 ], [ -6.1506015, 57.5865457 ], [ -6.1483758, 57.5861154 ], [ -6.1450602, 57.5869212 ], [ -6.1415931, 57.5855873 ], [ -6.140501, 57.5860683 ], [ -6.140911, 57.5869496 ], [ -6.1402035, 57.5863973 ], [ -6.1402674, 57.5871056 ], [ -6.1372444, 57.5877623 ], [ -6.1404341, 57.5848925 ], [ -6.139626, 57.5830127 ], [ -6.1439253, 57.579234 ], [ -6.1448192, 57.5763541 ], [ -6.1465646, 57.5743364 ], [ -6.1451649, 57.5701289 ], [ -6.14881, 57.5656496 ], [ -6.1477941, 57.5659554 ], [ -6.1431093, 57.5621393 ], [ -6.1442989, 57.5553154 ], [ -6.1388368, 57.5459629 ], [ -6.1396225, 57.5446061 ], [ -6.1389987, 57.5439298 ], [ -6.1404158, 57.5425659 ], [ -6.1396964, 57.542014 ], [ -6.1420961, 57.5412383 ], [ -6.1426087, 57.538245 ], [ -6.1429445, 57.5342098 ], [ -6.1418562, 57.5331664 ], [ -6.1417878, 57.5307992 ], [ -6.1403054, 57.5283435 ], [ -6.1410061, 57.5268592 ], [ -6.1402518, 57.5259578 ], [ -6.1421256, 57.5203794 ], [ -6.1416827, 57.51427 ], [ -6.1423131, 57.5105489 ], [ -6.1438301, 57.5057375 ], [ -6.1484902, 57.4999954 ], [ -6.1470609, 57.4978528 ], [ -6.1439164, 57.4964905 ], [ -6.1424265, 57.4941789 ], [ -6.1421839, 57.4918939 ], [ -6.140646, 57.4890084 ], [ -6.1409332, 57.4875647 ], [ -6.1394442, 57.4849609 ], [ -6.1404643, 57.482913 ], [ -6.1363951, 57.4727054 ], [ -6.1377324, 57.4630666 ], [ -6.1395264, 57.4573199 ], [ -6.139075, 57.4565748 ], [ -6.1402108, 57.4543028 ], [ -6.1398422, 57.4520039 ], [ -6.1435149, 57.4437808 ], [ -6.1433625, 57.4403731 ], [ -6.1445747, 57.4390024 ], [ -6.1462047, 57.433225 ], [ -6.1457436, 57.4301107 ], [ -6.146952, 57.4278273 ], [ -6.1507836, 57.4242748 ], [ -6.1541025, 57.4226005 ], [ -6.1609546, 57.4215108 ], [ -6.1673498, 57.4191058 ], [ -6.1734205, 57.4128651 ], [ -6.1758722, 57.4122981 ], [ -6.1817652, 57.4146094 ], [ -6.1865713, 57.4155187 ], [ -6.1873398, 57.4163457 ], [ -6.1871237, 57.4152711 ], [ -6.188599, 57.4148084 ], [ -6.1891005, 57.4129994 ], [ -6.1919275, 57.4120599 ], [ -6.1896852, 57.4106834 ], [ -6.1907915, 57.4090076 ], [ -6.1947084, 57.41053 ], [ -6.1957348, 57.4119461 ], [ -6.1977926, 57.4118738 ], [ -6.197017, 57.4110086 ], [ -6.200288, 57.4085916 ], [ -6.1998513, 57.4063861 ], [ -6.1972949, 57.4044278 ], [ -6.1968102, 57.4031268 ], [ -6.1982801, 57.402161 ], [ -6.1985304, 57.4004574 ], [ -6.2009084, 57.3971401 ], [ -6.20153, 57.3940459 ], [ -6.1997073, 57.3921426 ], [ -6.2003177, 57.3911895 ], [ -6.19648, 57.39273 ], [ -6.1946347, 57.3947989 ], [ -6.1904548, 57.3972937 ], [ -6.1878949, 57.3969587 ], [ -6.1863896, 57.3978651 ], [ -6.1867672, 57.3984912 ], [ -6.1853934, 57.3998465 ], [ -6.1829757, 57.4006434 ], [ -6.1834037, 57.4029362 ], [ -6.1826075, 57.403771 ], [ -6.184054, 57.4052934 ], [ -6.1827229, 57.4059799 ], [ -6.1825631, 57.4074915 ], [ -6.180774, 57.4071341 ], [ -6.177977, 57.4044541 ], [ -6.1778403, 57.4031815 ], [ -6.1757077, 57.4023036 ], [ -6.16898, 57.4026213 ], [ -6.1665051, 57.4053966 ], [ -6.1604418, 57.4061414 ], [ -6.1595125, 57.4070534 ], [ -6.1589356, 57.4061553 ], [ -6.1420872, 57.4061942 ], [ -6.1390678, 57.4055697 ], [ -6.1349042, 57.4027796 ], [ -6.1333437, 57.4001691 ], [ -6.1304516, 57.3979351 ], [ -6.1276636, 57.3975096 ], [ -6.1255065, 57.3953637 ], [ -6.1240246, 57.3919637 ], [ -6.1242196, 57.3877759 ], [ -6.1265021, 57.3855652 ], [ -6.126697, 57.3842639 ], [ -6.1297208, 57.3827258 ], [ -6.1324091, 57.3753311 ], [ -6.1347442, 57.3730826 ], [ -6.1382424, 57.3720728 ], [ -6.1441049, 57.3729579 ], [ -6.1457902, 57.3725795 ], [ -6.1460981, 57.3709825 ], [ -6.1392551, 57.3658526 ], [ -6.1365537, 57.3606476 ], [ -6.1334336, 57.3604302 ], [ -6.1281956, 57.3558615 ], [ -6.128701, 57.3551776 ], [ -6.1255512, 57.353738 ], [ -6.123773, 57.3488532 ], [ -6.1230335, 57.3489934 ], [ -6.1235109, 57.3485048 ], [ -6.1204137, 57.3473043 ], [ -6.1187818, 57.3457616 ], [ -6.1169572, 57.3417703 ], [ -6.1133162, 57.3403869 ], [ -6.1117488, 57.33879 ], [ -6.1112763, 57.3396506 ], [ -6.1101617, 57.3381161 ], [ -6.1042783, 57.3384452 ], [ -6.102921, 57.3391721 ], [ -6.1033013, 57.3400454 ], [ -6.1025567, 57.3416434 ], [ -6.1041523, 57.3457277 ], [ -6.0992237, 57.3412845 ], [ -6.0954338, 57.3408551 ], [ -6.0959314, 57.3403218 ], [ -6.0951371, 57.339462 ], [ -6.1008952, 57.3386042 ], [ -6.1071283, 57.3352587 ], [ -6.1068566, 57.3343449 ], [ -6.1050766, 57.3335794 ], [ -6.107048, 57.3323606 ], [ -6.1081692, 57.3293256 ], [ -6.1054066, 57.3267243 ], [ -6.1012377, 57.3255685 ], [ -6.1000869, 57.3237176 ], [ -6.1001487, 57.3220952 ], [ -6.105096, 57.3185283 ], [ -6.1075133, 57.320133 ], [ -6.1104968, 57.3203267 ], [ -6.1154278, 57.3186325 ], [ -6.1193682, 57.3187143 ], [ -6.1319273, 57.3162797 ], [ -6.1599846, 57.3008752 ], [ -6.1606561, 57.2996884 ], [ -6.1634571, 57.2999342 ], [ -6.16802, 57.2981133 ], [ -6.1675492, 57.2967098 ], [ -6.1687821, 57.2960421 ], [ -6.1655217, 57.296002 ], [ -6.1684366, 57.2954133 ], [ -6.1659793, 57.2948357 ], [ -6.1618723, 57.2969279 ], [ -6.1559688, 57.2970919 ], [ -6.1473364, 57.3000167 ], [ -6.139229, 57.3064351 ], [ -6.1336548, 57.3072515 ], [ -6.1174507, 57.3137067 ], [ -6.1130505, 57.313158 ], [ -6.1046663, 57.3149165 ], [ -6.0847662, 57.3110242 ], [ -6.0843032, 57.3106723 ], [ -6.086226, 57.3098797 ], [ -6.0845922, 57.3097574 ], [ -6.0844451, 57.3104701 ], [ -6.0777561, 57.3115712 ], [ -6.0701666, 57.3144657 ], [ -6.0650876, 57.3134702 ], [ -6.0570436, 57.3136898 ], [ -6.0480673, 57.3099689 ], [ -6.0503221, 57.3047168 ], [ -6.0485575, 57.3015905 ], [ -6.0509768, 57.2977627 ], [ -6.0425171, 57.2960571 ], [ -6.0413651, 57.2952459 ], [ -6.041657, 57.2932927 ], [ -6.0460635, 57.2902418 ], [ -6.0785762, 57.2765556 ], [ -6.0805207, 57.2746265 ], [ -6.080486, 57.2730405 ], [ -6.0841306, 57.2728231 ], [ -6.0856199, 57.2709851 ], [ -6.0858048, 57.2695853 ], [ -6.0853127, 57.2706848 ], [ -6.0846218, 57.2700689 ], [ -6.0815989, 57.2702751 ], [ -6.0830597, 57.2677304 ], [ -6.0801325, 57.2699991 ], [ -6.0766836, 57.2701066 ], [ -6.0762934, 57.2689053 ], [ -6.0771164, 57.2670443 ], [ -6.0764356, 57.2662166 ], [ -6.070209, 57.2668683 ], [ -6.0598, 57.2739227 ], [ -6.0488126, 57.2780183 ], [ -6.0423301, 57.27668 ], [ -6.0427125, 57.2761426 ], [ -6.0425499, 57.2758813 ], [ -6.0435228, 57.2754092 ], [ -6.0435007, 57.275348 ], [ -6.0426096, 57.2757387 ], [ -6.0420938, 57.2766404 ], [ -6.0423284, 57.2775088 ], [ -6.041101, 57.2788512 ], [ -6.036822, 57.2823745 ], [ -6.0310499, 57.2851587 ], [ -6.0273895, 57.2857752 ], [ -6.0248367, 57.287714 ], [ -6.0206596, 57.2877085 ], [ -6.0148056, 57.2848439 ], [ -6.0107155, 57.2810918 ], [ -6.005327, 57.2796498 ], [ -5.9995304, 57.2732849 ], [ -5.993884, 57.2704444 ], [ -5.9860673, 57.27096 ], [ -5.9811889, 57.2692382 ], [ -5.9815301, 57.2685467 ], [ -5.9829054, 57.2690119 ], [ -5.9829041, 57.2679402 ], [ -5.9789124, 57.2673547 ], [ -5.9763912, 57.2682761 ], [ -5.9749534, 57.2701012 ], [ -5.9735192, 57.2692843 ], [ -5.9688143, 57.2689962 ], [ -5.9622563, 57.2663395 ], [ -5.9531076, 57.2634836 ], [ -5.9464861, 57.2625833 ], [ -5.9442891, 57.2608944 ], [ -5.9366467, 57.2589116 ], [ -5.9367266, 57.2596124 ], [ -5.9354076, 57.260391 ], [ -5.9367314, 57.2629975 ], [ -5.9363404, 57.2637651 ], [ -5.9323754, 57.2628418 ], [ -5.9277542, 57.264169 ], [ -5.9220548, 57.2627737 ], [ -5.9168931, 57.2601115 ], [ -5.9157706, 57.2582134 ], [ -5.9047024, 57.252908 ], [ -5.907376, 57.2506802 ], [ -5.9078844, 57.2471973 ], [ -5.9107635, 57.2423796 ], [ -5.9125446, 57.2425779 ], [ -5.9142485, 57.2413504 ], [ -5.9121247, 57.2424039 ], [ -5.9046038, 57.2413425 ], [ -5.9046599, 57.2421383 ], [ -5.9015606, 57.2414516 ], [ -5.8984752, 57.239296 ], [ -5.8954296, 57.2397269 ], [ -5.8858061, 57.237996 ], [ -5.8833308, 57.2389601 ], [ -5.881274, 57.2384833 ], [ -5.8787726, 57.2391074 ], [ -5.8757936, 57.2411209 ], [ -5.8758377, 57.2429754 ], [ -5.8736137, 57.2436708 ], [ -5.8736489, 57.2446695 ], [ -5.8710288, 57.2465541 ], [ -5.8682429, 57.2473826 ], [ -5.8677658, 57.2465018 ], [ -5.86431, 57.2475218 ], [ -5.8617174, 57.2494538 ], [ -5.8558878, 57.2488284 ], [ -5.8562921, 57.24976 ], [ -5.8517432, 57.2540897 ], [ -5.8508182, 57.2537314 ], [ -5.8467146, 57.2551836 ], [ -5.848039, 57.2534885 ], [ -5.8465195, 57.2535531 ], [ -5.8468079, 57.2527396 ], [ -5.8447446, 57.2528387 ], [ -5.8447269, 57.2521919 ], [ -5.8472898, 57.2505219 ], [ -5.8482751, 57.2515392 ], [ -5.8486693, 57.2508662 ], [ -5.8508248, 57.2511732 ], [ -5.8501825, 57.2504242 ], [ -5.8514693, 57.2500386 ], [ -5.8488367, 57.2502452 ], [ -5.8478537, 57.2491694 ], [ -5.8504528, 57.2476915 ], [ -5.8563727, 57.2461757 ], [ -5.8587068, 57.2467753 ], [ -5.8580813, 57.2457272 ], [ -5.8616874, 57.2439251 ], [ -5.863675, 57.2416367 ], [ -5.8610269, 57.2433187 ], [ -5.8607945, 57.2428583 ], [ -5.8574221, 57.2443722 ], [ -5.8559899, 57.2440158 ], [ -5.8446345, 57.2490793 ], [ -5.8439919, 57.2486679 ], [ -5.83561, 57.2512211 ], [ -5.8328358, 57.253257 ], [ -5.8245208, 57.2552999 ], [ -5.8235466, 57.2561433 ], [ -5.8260188, 57.255506 ], [ -5.8231371, 57.2571538 ], [ -5.8197582, 57.2556878 ], [ -5.8212188, 57.257374 ], [ -5.8196996, 57.2578428 ], [ -5.8141071, 57.2562282 ], [ -5.8108214, 57.2562201 ], [ -5.808208, 57.2581426 ], [ -5.8034508, 57.2597929 ], [ -5.8023091, 57.2612706 ], [ -5.7972562, 57.2622327 ], [ -5.7946594, 57.2640061 ], [ -5.7938467, 57.2632035 ], [ -5.7919124, 57.2635137 ], [ -5.7911369, 57.2652499 ], [ -5.7928813, 57.2655928 ], [ -5.7924224, 57.2658898 ], [ -5.7897607, 57.2656646 ], [ -5.7855554, 57.2679403 ], [ -5.7828146, 57.2676723 ], [ -5.7767194, 57.2710251 ], [ -5.77587, 57.2705922 ], [ -5.7712054, 57.2719597 ], [ -5.7603821, 57.2714526 ], [ -5.7556722, 57.2727894 ], [ -5.7545013, 57.2733941 ], [ -5.7549329, 57.2739513 ], [ -5.7534382, 57.2737194 ], [ -5.7534721, 57.2747452 ], [ -5.7541772, 57.2749359 ], [ -5.7531615, 57.2749355 ], [ -5.7531275, 57.2736005 ], [ -5.7520957, 57.2731281 ], [ -5.7431656, 57.2748262 ], [ -5.7294805, 57.272958 ], [ -5.7270752, 57.273906 ], [ -5.7236775, 57.2739538 ], [ -5.7280631, 57.2725835 ], [ -5.7280813, 57.2719519 ], [ -5.7332758, 57.2720036 ], [ -5.739898, 57.2702718 ], [ -5.7411474, 57.2706446 ], [ -5.7401681, 57.2724413 ], [ -5.741132, 57.2726176 ], [ -5.7422118, 57.2706326 ], [ -5.7407104, 57.2692658 ], [ -5.7332654, 57.2714583 ], [ -5.7275378, 57.2717861 ], [ -5.7263022, 57.2723844 ], [ -5.7220781, 57.2717427 ], [ -5.7206633, 57.272967 ], [ -5.717253, 57.2725096 ], [ -5.7166461, 57.2707547 ], [ -5.7150211, 57.2701105 ], [ -5.7163009, 57.2690611 ], [ -5.7139655, 57.2695169 ], [ -5.7136955, 57.2706262 ], [ -5.7119554, 57.2717206 ], [ -5.7108522, 57.2709845 ], [ -5.7174835, 57.2668009 ], [ -5.7276812, 57.2647544 ], [ -5.7337455, 57.2615721 ], [ -5.7320173, 57.2607909 ], [ -5.7188875, 57.2610637 ], [ -5.7128514, 57.2620022 ], [ -5.7132846, 57.2625962 ], [ -5.708806, 57.2621982 ], [ -5.704205, 57.2631387 ], [ -5.6917793, 57.2634912 ], [ -5.6884631, 57.2628515 ], [ -5.6815424, 57.2644122 ], [ -5.6751147, 57.2638499 ], [ -5.6671012, 57.2648574 ], [ -5.6614994, 57.2640904 ], [ -5.6564352, 57.2590371 ], [ -5.6526261, 57.2574308 ], [ -5.6500731, 57.2573657 ], [ -5.6499351, 57.2566416 ], [ -5.6492758, 57.2570203 ], [ -5.6475849, 57.255105 ], [ -5.6486095, 57.2547291 ], [ -5.648772, 57.2520138 ], [ -5.6499692, 57.2502843 ], [ -5.6524885, 57.2489253 ], [ -5.6538253, 57.2466838 ], [ -5.6594353, 57.2440524 ], [ -5.662785, 57.2402101 ], [ -5.6654871, 57.23845 ], [ -5.6672431, 57.2354319 ], [ -5.6674103, 57.2317768 ], [ -5.6649548, 57.2291695 ], [ -5.6650153, 57.2276932 ], [ -5.6625126, 57.2259412 ], [ -5.6640446, 57.2238421 ], [ -5.663473, 57.2238453 ], [ -5.6643025, 57.2220994 ], [ -5.6639601, 57.2210711 ], [ -5.6663151, 57.2206696 ], [ -5.665687, 57.2196855 ], [ -5.6674112, 57.2190237 ], [ -5.6693328, 57.2160141 ], [ -5.6680491, 57.2128511 ], [ -5.6690441, 57.2111092 ], [ -5.6690673, 57.2090902 ], [ -5.6721379, 57.2079799 ], [ -5.6729595, 57.2063286 ], [ -5.6804639, 57.2034159 ], [ -5.6883752, 57.1987825 ], [ -5.693354, 57.1978853 ], [ -5.6945654, 57.1966673 ], [ -5.6942555, 57.1952244 ], [ -5.6979335, 57.1928369 ], [ -5.702288, 57.1910901 ], [ -5.705041, 57.190998 ], [ -5.71225, 57.18636 ], [ -5.716423, 57.185373 ], [ -5.717252, 57.183819 ], [ -5.721915, 57.183077 ], [ -5.726963, 57.181174 ], [ -5.730721, 57.180965 ], [ -5.737152, 57.178647 ], [ -5.742822, 57.178779 ], [ -5.743678, 57.177608 ], [ -5.744658, 57.178099 ], [ -5.748387, 57.177505 ], [ -5.7509316, 57.1759683 ], [ -5.750523, 57.174512 ], [ -5.761065, 57.170439 ], [ -5.763823, 57.169482 ], [ -5.7666152, 57.1700921 ], [ -5.7723658, 57.1697383 ], [ -5.774583, 57.168347 ], [ -5.780126, 57.166816 ], [ -5.780068, 57.166049 ], [ -5.786803, 57.16782 ], [ -5.7958248, 57.174019 ], [ -5.798422, 57.1745072 ], [ -5.801621, 57.176711 ], [ -5.803994, 57.176914 ], [ -5.8067042, 57.1753193 ], [ -5.8057815, 57.1750285 ], [ -5.8063608, 57.174319 ], [ -5.8047944, 57.1728882 ], [ -5.8052905, 57.1719025 ], [ -5.8023559, 57.1714041 ], [ -5.8039676, 57.1689537 ], [ -5.7998828, 57.1665469 ], [ -5.8011085, 57.165541 ], [ -5.7984279, 57.1643927 ], [ -5.7990713, 57.1633889 ], [ -5.797037, 57.162854 ], [ -5.797307, 57.1607895 ], [ -5.7959653, 57.1601866 ], [ -5.7990407, 57.1589553 ], [ -5.800102, 57.156638 ], [ -5.7972059, 57.1557612 ], [ -5.7987731, 57.1542188 ], [ -5.79744, 57.152599 ], [ -5.8033205, 57.1491072 ], [ -5.8025138, 57.1481506 ], [ -5.8043101, 57.1475203 ], [ -5.8020531, 57.1462572 ], [ -5.8058269, 57.1456993 ], [ -5.8032992, 57.1447493 ], [ -5.8034485, 57.1440938 ], [ -5.799819, 57.1467415 ], [ -5.7992474, 57.1457734 ], [ -5.798452, 57.1458912 ], [ -5.7984903, 57.1449711 ], [ -5.8006282, 57.144163 ], [ -5.798959, 57.1441683 ], [ -5.7997216, 57.143541 ], [ -5.8007794, 57.1440526 ], [ -5.8002978, 57.1427933 ], [ -5.801158, 57.1424263 ], [ -5.8002066, 57.1422079 ], [ -5.8012079, 57.1419974 ], [ -5.7943577, 57.1424523 ], [ -5.793149, 57.141891 ], [ -5.7932646, 57.1430024 ], [ -5.791965, 57.1429743 ], [ -5.7922749, 57.1424309 ], [ -5.7896521, 57.141138 ], [ -5.7873235, 57.1384518 ], [ -5.79801, 57.1363075 ], [ -5.8008512, 57.1372497 ], [ -5.8022921, 57.1366312 ], [ -5.8032181, 57.137771 ], [ -5.8060322, 57.1369652 ], [ -5.8060331, 57.1351684 ], [ -5.8054107, 57.1349432 ], [ -5.806114, 57.1341179 ], [ -5.804908, 57.1336139 ], [ -5.8061412, 57.1334286 ], [ -5.8061851, 57.1313991 ], [ -5.8069857, 57.1311258 ], [ -5.7986852, 57.1323309 ], [ -5.7977011, 57.1319247 ], [ -5.8000842, 57.12969 ], [ -5.798445, 57.1292632 ], [ -5.8000664, 57.1286296 ], [ -5.8009427, 57.1267778 ], [ -5.8036746, 57.1278637 ], [ -5.8054469, 57.1271715 ], [ -5.8034713, 57.1261256 ], [ -5.8049932, 57.1205813 ], [ -5.8137043, 57.1195386 ], [ -5.8141411, 57.1191251 ], [ -5.8132606, 57.118118 ], [ -5.8157125, 57.1160068 ], [ -5.8159631, 57.1141065 ], [ -5.8174097, 57.1129879 ], [ -5.8215319, 57.1119361 ], [ -5.8237422, 57.1093331 ], [ -5.8266442, 57.1090237 ], [ -5.8259232, 57.1086101 ], [ -5.8279125, 57.1076321 ], [ -5.829109, 57.1075371 ], [ -5.829708, 57.1094969 ], [ -5.8368541, 57.1081973 ], [ -5.8393414, 57.1100107 ], [ -5.8478959, 57.1098867 ], [ -5.8483948, 57.1104965 ], [ -5.8467684, 57.1117113 ], [ -5.8476004, 57.1122183 ], [ -5.8469043, 57.1117116 ], [ -5.8477758, 57.1109775 ], [ -5.8499172, 57.1117955 ], [ -5.8532913, 57.1115867 ], [ -5.8520396, 57.1113561 ], [ -5.8555458, 57.1091424 ], [ -5.8546254, 57.1067275 ], [ -5.8555991, 57.1054294 ], [ -5.855308, 57.1032307 ], [ -5.8600821, 57.1020432 ], [ -5.8611116, 57.1006494 ], [ -5.8607592, 57.0987437 ], [ -5.863817, 57.0952788 ], [ -5.8635591, 57.0939714 ], [ -5.8705305, 57.0899319 ], [ -5.870822, 57.0865082 ], [ -5.8769084, 57.0836572 ], [ -5.8814479, 57.0839883 ], [ -5.8855438, 57.0818074 ], [ -5.8883294, 57.0814591 ], [ -5.8866791, 57.0795732 ], [ -5.8869555, 57.0772335 ], [ -5.8905385, 57.0725316 ], [ -5.8933091, 57.0718112 ], [ -5.8946178, 57.0698838 ], [ -5.8967639, 57.068768 ], [ -5.8968749, 57.0665871 ], [ -5.8962195, 57.0658547 ], [ -5.8987421, 57.0654297 ], [ -5.8978605, 57.0642264 ], [ -5.8947501, 57.0647366 ], [ -5.8928653, 57.0619518 ], [ -5.8936966, 57.0611908 ], [ -5.8989041, 57.0627828 ], [ -5.8984865, 57.0638984 ], [ -5.9018635, 57.0636044 ], [ -5.9017211, 57.0626345 ], [ -5.9007145, 57.0622408 ], [ -5.9032466, 57.0618037 ], [ -5.9026264, 57.0610657 ], [ -5.9038622, 57.0603967 ], [ -5.9007487, 57.0598049 ], [ -5.901134, 57.0588838 ], [ -5.8993507, 57.0581176 ], [ -5.900968, 57.0575334 ], [ -5.9050957, 57.0591512 ], [ -5.9062912, 57.0582376 ], [ -5.9062418, 57.0566818 ], [ -5.9100962, 57.0556593 ], [ -5.9104763, 57.0538486 ], [ -5.9144988, 57.0536886 ], [ -5.9169711, 57.050893 ], [ -5.9184362, 57.0503714 ], [ -5.9183142, 57.0492971 ], [ -5.9205368, 57.0488413 ], [ -5.9195195, 57.0472075 ], [ -5.9230994, 57.0442534 ], [ -5.9230318, 57.0435222 ], [ -5.9279108, 57.0422532 ], [ -5.9283163, 57.0433104 ], [ -5.9290741, 57.0425529 ], [ -5.930767, 57.0435742 ], [ -5.9314348, 57.0430881 ], [ -5.9311191, 57.040943 ], [ -5.9329494, 57.0421524 ], [ -5.9342851, 57.0419882 ], [ -5.9346931, 57.0409538 ], [ -5.9340118, 57.0407351 ], [ -5.935485, 57.0405503 ], [ -5.9362217, 57.0395164 ], [ -5.9379471, 57.0398961 ], [ -5.9376833, 57.0389085 ], [ -5.9474634, 57.0375932 ], [ -5.9473046, 57.0365641 ], [ -5.9491202, 57.0365769 ], [ -5.9499364, 57.0353022 ], [ -5.9524012, 57.0359831 ], [ -5.9553468, 57.0353254 ], [ -5.9565114, 57.0344244 ], [ -5.9560531, 57.0336818 ], [ -5.9570279, 57.0327789 ], [ -5.9564344, 57.0321857 ], [ -5.958887, 57.0320029 ], [ -5.9606751, 57.0304743 ], [ -5.9585513, 57.0295317 ], [ -5.9601823, 57.0293623 ], [ -5.9597202, 57.0282754 ], [ -5.9605544, 57.0275926 ], [ -5.9623688, 57.0273474 ], [ -5.9645937, 57.0287001 ], [ -5.9654548, 57.0280847 ], [ -5.966844, 57.0296538 ], [ -5.9660316, 57.0297982 ], [ -5.9669781, 57.0298743 ], [ -5.9679465, 57.031396 ], [ -5.9727317, 57.0320519 ], [ -5.9733388, 57.0310879 ], [ -5.9771789, 57.0303732 ], [ -5.976453, 57.0298298 ], [ -5.9769113, 57.0291049 ], [ -5.9793792, 57.0285902 ], [ -5.9803705, 57.0292241 ], [ -5.9807041, 57.0284896 ], [ -5.9824502, 57.0281642 ], [ -5.9821947, 57.0273181 ], [ -5.9833951, 57.0282106 ], [ -5.9856244, 57.0279327 ], [ -5.9867221, 57.0262522 ], [ -5.9883596, 57.0269912 ], [ -5.9882316, 57.0260287 ], [ -5.9902715, 57.0254465 ], [ -5.9915167, 57.0239905 ], [ -5.9963243, 57.0240797 ], [ -5.99748, 57.0235572 ], [ -5.9971757, 57.022951 ], [ -5.9994512, 57.0221858 ], [ -5.9987597, 57.0218887 ], [ -5.9997664, 57.0215913 ], [ -5.9995279, 57.0209829 ], [ -6.0019834, 57.020131 ], [ -6.0033823, 57.020338 ], [ -6.0047708, 57.0222853 ], [ -6.0043106, 57.0227586 ], [ -6.0055052, 57.0230576 ], [ -6.0061018, 57.0245401 ], [ -6.0107756, 57.0251456 ], [ -6.0121177, 57.0239066 ], [ -6.0114962, 57.0233421 ], [ -6.0155723, 57.0215432 ], [ -6.015145, 57.0207925 ], [ -6.0174664, 57.020478 ], [ -6.01626, 57.0189808 ], [ -6.0165165, 57.0180733 ], [ -6.0176128, 57.0178447 ], [ -6.0187716, 57.0185763 ], [ -6.0191465, 57.0203672 ], [ -6.0202305, 57.0207865 ], [ -6.0182884, 57.0210467 ], [ -6.0206274, 57.021637 ], [ -6.0189072, 57.0219665 ], [ -6.0196608, 57.0229899 ], [ -6.0211829, 57.0241819 ], [ -6.0229242, 57.0243507 ], [ -6.0232797, 57.0252744 ], [ -6.0226328, 57.0259247 ], [ -6.0200143, 57.0257257 ], [ -6.0208559, 57.0267237 ], [ -6.0222019, 57.0267434 ], [ -6.0231696, 57.0283713 ], [ -6.0213884, 57.0278351 ], [ -6.017143, 57.0282998 ], [ -6.0191794, 57.0288323 ], [ -6.0202575, 57.0301105 ], [ -6.0178147, 57.0303959 ], [ -6.0166843, 57.0313044 ], [ -6.0184072, 57.0319864 ], [ -6.0201148, 57.0314595 ], [ -6.0229415, 57.0326634 ], [ -6.0228677, 57.0332773 ], [ -6.0245279, 57.0339117 ], [ -6.0239169, 57.0340573 ], [ -6.0250573, 57.0353739 ], [ -6.0240815, 57.0358055 ], [ -6.0254076, 57.0371611 ], [ -6.0302984, 57.0368597 ], [ -6.0306295, 57.0359588 ], [ -6.0317391, 57.0369886 ], [ -6.0317363, 57.0381037 ], [ -6.0306157, 57.0381129 ], [ -6.0288134, 57.0401268 ], [ -6.0306388, 57.0406075 ], [ -6.0295624, 57.0420135 ], [ -6.0329503, 57.0444266 ], [ -6.0330394, 57.0460828 ], [ -6.0376957, 57.0475602 ], [ -6.0377148, 57.0492546 ], [ -6.0365942, 57.049039 ], [ -6.0339871, 57.0504809 ], [ -6.0349104, 57.0513099 ], [ -6.0348461, 57.0527687 ], [ -6.0373186, 57.0529722 ], [ -6.0368089, 57.0536721 ], [ -6.0381313, 57.0550591 ], [ -6.0382949, 57.0570187 ], [ -6.0341323, 57.057135 ], [ -6.0314584, 57.0587274 ], [ -6.0327886, 57.0609461 ], [ -6.0320221, 57.0614114 ], [ -6.0325963, 57.0620628 ], [ -6.0307674, 57.0633852 ], [ -6.0312254, 57.0638785 ], [ -6.0303582, 57.0650889 ], [ -6.0281122, 57.0657637 ], [ -6.0278245, 57.0678277 ], [ -6.0255548, 57.0679053 ], [ -6.0252433, 57.0702847 ], [ -6.0205762, 57.0713205 ], [ -6.0172211, 57.0698367 ], [ -6.0143073, 57.0699122 ], [ -6.013146, 57.0700889 ], [ -6.0130828, 57.0713363 ], [ -6.0117231, 57.071816 ], [ -6.0099709, 57.0713372 ], [ -6.0077909, 57.0725535 ], [ -6.0027336, 57.072657 ], [ -6.0023343, 57.0737439 ], [ -6.0073428, 57.0747485 ], [ -6.0064681, 57.0779642 ], [ -6.0052228, 57.0784357 ], [ -6.0067256, 57.0795835 ], [ -6.0087511, 57.0795321 ], [ -6.0095487, 57.080725 ], [ -6.007075, 57.0809077 ], [ -6.0070696, 57.0824635 ], [ -6.0089239, 57.0835775 ], [ -6.007572, 57.0846505 ], [ -6.0085082, 57.0859198 ], [ -6.0074979, 57.0868109 ], [ -6.0083441, 57.0880697 ], [ -6.0075632, 57.0896324 ], [ -6.0081272, 57.0902662 ], [ -6.0058532, 57.0912338 ], [ -6.0061001, 57.0925252 ], [ -6.0024074, 57.095885 ], [ -6.002158, 57.0985294 ], [ -5.9987423, 57.1005027 ], [ -5.9986097, 57.1020311 ], [ -6.000003, 57.1040306 ], [ -5.9981285, 57.1033908 ], [ -5.9948609, 57.1049109 ], [ -5.9878125, 57.1047175 ], [ -5.9850183, 57.1073491 ], [ -5.9910656, 57.1102876 ], [ -5.9913674, 57.1112185 ], [ -5.9894401, 57.1128886 ], [ -5.9904651, 57.1136437 ], [ -5.9913016, 57.1133077 ], [ -5.9942946, 57.1148245 ], [ -5.9975274, 57.1144246 ], [ -5.997621, 57.1137139 ], [ -6.0003665, 57.1145735 ], [ -6.002629, 57.1138673 ], [ -6.0022256, 57.1131041 ], [ -6.002927, 57.1129541 ], [ -6.0050608, 57.1147914 ], [ -6.0034213, 57.1157566 ], [ -6.002709, 57.1179336 ], [ -6.0014026, 57.1185248 ], [ -5.9977494, 57.1241424 ], [ -5.9955742, 57.1261413 ], [ -5.9872535, 57.1284405 ], [ -5.9819401, 57.131656 ], [ -5.9794695, 57.1312085 ], [ -5.9783323, 57.1301656 ], [ -5.975336, 57.1303642 ], [ -5.9732042, 57.1323021 ], [ -5.9716687, 57.1325804 ], [ -5.9715641, 57.1337389 ], [ -5.9683625, 57.1350359 ], [ -5.9739076, 57.1354675 ], [ -5.9764139, 57.1365652 ], [ -5.968376, 57.1411009 ], [ -5.9631096, 57.1427378 ], [ -5.9596907, 57.140983 ], [ -5.9604, 57.143462 ], [ -5.9586827, 57.1446492 ], [ -5.9561321, 57.1444645 ], [ -5.9496765, 57.1458937 ], [ -5.9480337, 57.1454887 ], [ -5.9441695, 57.1467452 ], [ -5.9405997, 57.1465559 ], [ -5.9417047, 57.1468283 ], [ -5.941806, 57.1505362 ], [ -5.9369224, 57.1536239 ], [ -5.9347492, 57.1537161 ], [ -5.9318524, 57.1585607 ], [ -5.9300481, 57.1577976 ], [ -5.9289518, 57.1564338 ], [ -5.9291528, 57.1553664 ], [ -5.9284461, 57.1551773 ], [ -5.9262893, 57.1569938 ], [ -5.9264787, 57.158467 ], [ -5.9203901, 57.1603481 ], [ -5.9151036, 57.1656701 ], [ -5.9112628, 57.1656596 ], [ -5.9095373, 57.1665587 ], [ -5.9064238, 57.1653655 ], [ -5.8994465, 57.1654434 ], [ -5.8938331, 57.1672904 ], [ -5.8866348, 57.1669879 ], [ -5.8849292, 57.1672161 ], [ -5.8830984, 57.1686171 ], [ -5.8771699, 57.1685621 ], [ -5.8712381, 57.1710566 ], [ -5.8664392, 57.1713924 ], [ -5.8618121, 57.1746292 ], [ -5.8552483, 57.176774 ], [ -5.8555183, 57.1780104 ], [ -5.8547122, 57.1790917 ], [ -5.8552957, 57.1792896 ], [ -5.8531377, 57.1806642 ], [ -5.8457574, 57.1820552 ], [ -5.8433042, 57.1832229 ], [ -5.8425126, 57.1845284 ], [ -5.841244, 57.1845898 ], [ -5.8403562, 57.187121 ], [ -5.8376172, 57.1888908 ], [ -5.8382988, 57.1891968 ], [ -5.8379312, 57.1900006 ], [ -5.8386684, 57.1892857 ], [ -5.8436062, 57.1889141 ], [ -5.8441736, 57.1884786 ], [ -5.8436147, 57.1879608 ], [ -5.845399, 57.1880005 ], [ -5.8467801, 57.1863936 ], [ -5.8490509, 57.1861994 ], [ -5.8498109, 57.184808 ], [ -5.8498733, 57.1853276 ], [ -5.8520427, 57.1849327 ], [ -5.852735, 57.1834729 ], [ -5.8545455, 57.1833677 ], [ -5.8548082, 57.182474 ], [ -5.8582737, 57.1807759 ], [ -5.860365, 57.1811431 ], [ -5.8596796, 57.1817936 ], [ -5.8601481, 57.1823951 ], [ -5.8627165, 57.1822462 ], [ -5.8684576, 57.179999 ], [ -5.8698256, 57.1784372 ], [ -5.8778549, 57.1761489 ], [ -5.8856228, 57.176811 ], [ -5.8851271, 57.1774252 ], [ -5.8871724, 57.1781657 ], [ -5.8873928, 57.1789231 ], [ -5.889302, 57.1780855 ], [ -5.8923656, 57.1794937 ], [ -5.8974806, 57.1795762 ], [ -5.8968287, 57.1788604 ], [ -5.8980193, 57.1776842 ], [ -5.8966219, 57.1774642 ], [ -5.9008687, 57.1752074 ], [ -5.8998333, 57.1750121 ], [ -5.9018054, 57.1737611 ], [ -5.900104, 57.1726717 ], [ -5.9017254, 57.1712665 ], [ -5.9039098, 57.1723584 ], [ -5.914042, 57.1704958 ], [ -5.9216076, 57.1712079 ], [ -5.9263656, 57.174161 ], [ -5.9291704, 57.1749766 ], [ -5.9311572, 57.1744759 ], [ -5.9354135, 57.1760353 ], [ -5.9425447, 57.1741342 ], [ -5.9453093, 57.1743664 ], [ -5.9484069, 57.1732213 ], [ -5.9509767, 57.1735674 ], [ -5.9577431, 57.1713622 ], [ -5.9609567, 57.1713056 ], [ -5.9631166, 57.1701583 ], [ -5.9684742, 57.1700157 ], [ -5.972575, 57.1678644 ], [ -5.9811554, 57.1674066 ], [ -5.992605, 57.1687865 ], [ -5.9949331, 57.1707463 ], [ -5.9961379, 57.1734613 ], [ -5.9947252, 57.174589 ], [ -5.994061, 57.1765785 ], [ -5.9932791, 57.1800806 ], [ -5.9941858, 57.1833846 ], [ -5.9930441, 57.1856276 ], [ -5.9970899, 57.1887778 ], [ -5.996857, 57.1909193 ], [ -6.00401, 57.19617 ], [ -6.0026794, 57.1974225 ], [ -6.0028639, 57.1995222 ], [ -6.0061825, 57.2001951 ], [ -6.0072064, 57.2017751 ], [ -6.0064592, 57.2031231 ], [ -6.011449, 57.205973 ], [ -6.01522, 57.2063 ], [ -6.0170014, 57.2041001 ], [ -6.01808, 57.20598 ], [ -6.0200119, 57.2058348 ], [ -6.02036, 57.20988 ], [ -6.0225903, 57.2140642 ], [ -6.0220253, 57.2154909 ], [ -6.0244274, 57.2182418 ], [ -6.0304778, 57.2214885 ], [ -6.0306818, 57.2226863 ], [ -6.0293222, 57.2241843 ], [ -6.0369631, 57.2274757 ], [ -6.03719, 57.22667 ], [ -6.03988, 57.22546 ], [ -6.03997, 57.22443 ], [ -6.03923, 57.22185 ], [ -6.03792, 57.22054 ], [ -6.03695, 57.21488 ], [ -6.0354557, 57.2124216 ], [ -6.03149, 57.20938 ], [ -6.02753, 57.20877 ], [ -6.02602, 57.20412 ], [ -6.02576, 57.19847 ], [ -6.02347, 57.19766 ], [ -6.0244, 57.19486 ], [ -6.02562, 57.19438 ], [ -6.02622, 57.19286 ], [ -6.02716, 57.19288 ], [ -6.02649, 57.19235 ], [ -6.02742, 57.18956 ], [ -6.02648, 57.18953 ], [ -6.02823, 57.18828 ], [ -6.02912, 57.18318 ], [ -6.0319233, 57.1808668 ], [ -6.0351838, 57.1798913 ], [ -6.0366712, 57.1786305 ], [ -6.0486718, 57.1794545 ], [ -6.0499772, 57.1763019 ], [ -6.0476915, 57.1740814 ], [ -6.04852, 57.17059 ], [ -6.04823, 57.16827 ], [ -6.0526382, 57.1643347 ], [ -6.0551499, 57.1604108 ], [ -6.055778, 57.1571163 ], [ -6.06028, 57.1532 ], [ -6.06516, 57.151 ], [ -6.0642044, 57.1487808 ], [ -6.0651915, 57.144078 ], [ -6.0686093, 57.1399895 ], [ -6.0696875, 57.1394685 ], [ -6.0707738, 57.1402689 ], [ -6.0702159, 57.1393608 ], [ -6.0728042, 57.1386913 ], [ -6.0721712, 57.1378996 ], [ -6.07427, 57.13712 ], [ -6.07412, 57.13609 ], [ -6.07539, 57.13484 ], [ -6.0753835, 57.1324125 ], [ -6.08091, 57.13061 ], [ -6.08084, 57.12856 ], [ -6.0841815, 57.1262507 ], [ -6.087207, 57.126076 ], [ -6.08769, 57.12821 ], [ -6.0909836, 57.1285218 ], [ -6.0939018, 57.1309209 ], [ -6.0974638, 57.1310839 ], [ -6.0987513, 57.1324697 ], [ -6.0976784, 57.1327492 ], [ -6.0990088, 57.1351247 ], [ -6.1000192, 57.1355949 ], [ -6.102163, 57.1353227 ], [ -6.1023179, 57.1339943 ], [ -6.1077635, 57.1341699 ], [ -6.1134945, 57.1376175 ], [ -6.1127417, 57.1381754 ], [ -6.1129562, 57.1390253 ], [ -6.11179, 57.13927 ], [ -6.1132566, 57.140632 ], [ -6.1121623, 57.1408066 ], [ -6.1118404, 57.1414703 ], [ -6.1125485, 57.1416216 ], [ -6.11057, 57.14283 ], [ -6.108892, 57.1454616 ], [ -6.1070992, 57.1457507 ], [ -6.1086189, 57.1481153 ], [ -6.1071799, 57.1491297 ], [ -6.108536, 57.1519584 ], [ -6.1086862, 57.1553684 ], [ -6.1055859, 57.1604062 ], [ -6.1050602, 57.164147 ], [ -6.1030646, 57.1682249 ], [ -6.1032363, 57.1699932 ], [ -6.1080965, 57.1756 ], [ -6.1113366, 57.1780949 ], [ -6.1094147, 57.1859204 ], [ -6.1111743, 57.1878972 ], [ -6.1112064, 57.1896122 ], [ -6.1127497, 57.1904268 ], [ -6.1232549, 57.1917457 ], [ -6.1239966, 57.1929675 ], [ -6.1235536, 57.1935441 ], [ -6.1243185, 57.1928978 ], [ -6.1230363, 57.18919 ], [ -6.1247073, 57.186719 ], [ -6.1309328, 57.18434 ], [ -6.1330035, 57.1858721 ], [ -6.1367907, 57.1865785 ], [ -6.1399236, 57.1882471 ], [ -6.1428793, 57.1884912 ], [ -6.144537, 57.186907 ], [ -6.1494709, 57.1951909 ], [ -6.1531196, 57.195969 ], [ -6.1528505, 57.1955164 ], [ -6.1540963, 57.1957896 ], [ -6.155132, 57.194615 ], [ -6.1543418, 57.1935052 ], [ -6.15823, 57.19412 ], [ -6.1597008, 57.1955019 ], [ -6.15989, 57.19711 ], [ -6.1612226, 57.1977699 ], [ -6.1625247, 57.1973329 ], [ -6.1652352, 57.1990413 ], [ -6.16825, 57.198309 ], [ -6.1689634, 57.1953737 ], [ -6.1653237, 57.1927623 ], [ -6.16557, 57.1907 ], [ -6.1664126, 57.1900513 ], [ -6.1623464, 57.188784 ], [ -6.1658761, 57.1882782 ], [ -6.1666, 57.18663 ], [ -6.1642239, 57.1825163 ], [ -6.1655484, 57.1782868 ], [ -6.1670434, 57.1765878 ], [ -6.1711698, 57.1747456 ], [ -6.1864648, 57.1731942 ], [ -6.2068222, 57.1772516 ], [ -6.21164, 57.17739 ], [ -6.2172244, 57.1754508 ], [ -6.2360851, 57.1718951 ], [ -6.2359891, 57.1712865 ], [ -6.2389854, 57.1717492 ], [ -6.2465892, 57.1696375 ], [ -6.2517761, 57.1703744 ], [ -6.2625479, 57.1691878 ], [ -6.2752888, 57.1660165 ], [ -6.2961564, 57.1628983 ], [ -6.3003514, 57.1610947 ], [ -6.3052359, 57.1615663 ], [ -6.3061997, 57.1605719 ], [ -6.3086367, 57.1600817 ], [ -6.3093198, 57.1609156 ], [ -6.3125009, 57.159302 ], [ -6.3159729, 57.1609244 ], [ -6.3181376, 57.1599344 ], [ -6.322363, 57.1600513 ], [ -6.3238475, 57.1614845 ], [ -6.3232004, 57.1616132 ], [ -6.3237939, 57.1618336 ], [ -6.3228299, 57.1628061 ], [ -6.3237031, 57.1629531 ], [ -6.3229999, 57.1634626 ], [ -6.3201638, 57.1644046 ], [ -6.3142, 57.16452 ], [ -6.31525, 57.1654052 ], [ -6.3146314, 57.1666197 ], [ -6.315537, 57.1679365 ], [ -6.3139044, 57.1688209 ], [ -6.3151786, 57.1694194 ], [ -6.3147077, 57.1699548 ], [ -6.3153364, 57.1702117 ], [ -6.3137986, 57.1711874 ], [ -6.3144077, 57.171336 ], [ -6.3073186, 57.1729914 ], [ -6.305781, 57.1742045 ], [ -6.3015875, 57.1739135 ], [ -6.2994738, 57.17701 ], [ -6.2998471, 57.1778468 ], [ -6.2925796, 57.1802039 ], [ -6.2936964, 57.1801601 ], [ -6.29205, 57.18376 ], [ -6.2878572, 57.1863898 ], [ -6.287986, 57.187663 ], [ -6.2842523, 57.1906628 ], [ -6.2850463, 57.1920987 ], [ -6.28285, 57.19663 ], [ -6.2842416, 57.1976092 ], [ -6.2837, 57.19793 ], [ -6.2844669, 57.1994632 ], [ -6.2890696, 57.2009801 ], [ -6.2922404, 57.1998631 ], [ -6.2955069, 57.200521 ], [ -6.2993693, 57.1994102 ], [ -6.301397, 57.197987 ], [ -6.30909, 57.19591 ], [ -6.3143936, 57.192007 ], [ -6.32416, 57.18983 ], [ -6.3247, 57.18882 ], [ -6.328344, 57.1872728 ], [ -6.34101, 57.18507 ], [ -6.347397, 57.1858928 ], [ -6.34772, 57.187 ], [ -6.3544, 57.18919 ], [ -6.355426, 57.1908589 ], [ -6.35754, 57.19143 ], [ -6.35841, 57.19248 ], [ -6.362829, 57.1926154 ], [ -6.36226, 57.19474 ], [ -6.36394, 57.19759 ], [ -6.36815, 57.19818 ], [ -6.37081, 57.20055 ], [ -6.37119, 57.20184 ], [ -6.37349, 57.20266 ], [ -6.37588, 57.20552 ], [ -6.3782, 57.20608 ], [ -6.3756093, 57.2065901 ], [ -6.37996, 57.20791 ], [ -6.378, 57.2089 ], [ -6.3783258, 57.2096977 ], [ -6.3827248, 57.2107335 ], [ -6.3833692, 57.2125029 ], [ -6.3857576, 57.2134506 ], [ -6.3826595, 57.2138185 ], [ -6.3849789, 57.2139378 ], [ -6.3847357, 57.2147316 ], [ -6.3876539, 57.2179805 ], [ -6.3850132, 57.2203038 ], [ -6.384344, 57.222574 ], [ -6.3855411, 57.2233169 ], [ -6.3848748, 57.2243343 ], [ -6.3854566, 57.2251378 ], [ -6.381979, 57.2270946 ], [ -6.3774321, 57.2280419 ], [ -6.36766, 57.22827 ], [ -6.3554, 57.227689 ], [ -6.3492911, 57.2301013 ], [ -6.3462, 57.23435 ], [ -6.3458, 57.23997 ], [ -6.34672, 57.24051 ], [ -6.34661, 57.24179 ], [ -6.34443, 57.24584 ], [ -6.3434669, 57.2509281 ], [ -6.342723, 57.2513865 ], [ -6.3435648, 57.2518487 ], [ -6.3442361, 57.2509027 ], [ -6.3447128, 57.2517901 ], [ -6.345138, 57.2511258 ], [ -6.3481109, 57.2519489 ], [ -6.3512303, 57.2499509 ], [ -6.352282, 57.2478261 ], [ -6.3520421, 57.2454692 ], [ -6.3529305, 57.2424694 ], [ -6.3511812, 57.2421374 ], [ -6.3533054, 57.2413826 ], [ -6.3545209, 57.237811 ], [ -6.3574065, 57.2363799 ], [ -6.3637244, 57.2347559 ], [ -6.3702887, 57.234723 ], [ -6.3747186, 57.2358709 ], [ -6.3755631, 57.2352179 ], [ -6.380703, 57.2348543 ], [ -6.3848624, 57.2358802 ], [ -6.3953936, 57.2317708 ], [ -6.4005348, 57.2327124 ], [ -6.4017168, 57.2317009 ], [ -6.4050921, 57.232301 ], [ -6.4088434, 57.2340365 ], [ -6.4092593, 57.2356793 ], [ -6.4177412, 57.2368748 ], [ -6.4202452, 57.2400821 ], [ -6.4209121, 57.2400757 ], [ -6.4214317, 57.2402557 ], [ -6.4205399, 57.240272 ], [ -6.4261057, 57.2414785 ], [ -6.4271258, 57.2432278 ], [ -6.4261238, 57.2440147 ], [ -6.427319, 57.2467143 ], [ -6.4267488, 57.2469472 ], [ -6.4276017, 57.2472499 ], [ -6.4270494, 57.2498723 ], [ -6.430824, 57.2509029 ], [ -6.4325479, 57.2521204 ], [ -6.4326636, 57.2532439 ], [ -6.4344176, 57.253356 ], [ -6.4348968, 57.2541344 ], [ -6.4347664, 57.2534606 ], [ -6.4360075, 57.2536515 ], [ -6.435023, 57.2555889 ], [ -6.4397671, 57.2565947 ], [ -6.4387672, 57.2569556 ], [ -6.4394032, 57.2575065 ], [ -6.438972, 57.2579383 ], [ -6.4413969, 57.2573548 ], [ -6.4436734, 57.2591559 ], [ -6.4493164, 57.260894 ], [ -6.4495745, 57.2620406 ], [ -6.4502756, 57.2615524 ], [ -6.451219, 57.2623372 ], [ -6.4513759, 57.2649037 ], [ -6.4531481, 57.2671649 ], [ -6.4546389, 57.2671086 ], [ -6.4530627, 57.2677333 ], [ -6.4556559, 57.2704984 ], [ -6.45594, 57.27325 ], [ -6.4603297, 57.2779808 ], [ -6.4616938, 57.2811198 ], [ -6.4570932, 57.2825605 ], [ -6.4580083, 57.285863 ], [ -6.4625008, 57.2868264 ], [ -6.4650059, 57.2882448 ], [ -6.4763708, 57.287998 ], [ -6.4817735, 57.291398 ], [ -6.4817077, 57.2929715 ], [ -6.4808638, 57.2934933 ], [ -6.4813656, 57.2940928 ], [ -6.4802514, 57.2942135 ], [ -6.4810885, 57.2951407 ], [ -6.47952, 57.2944965 ], [ -6.480283, 57.2955342 ], [ -6.4796512, 57.2960574 ], [ -6.4803207, 57.2962481 ], [ -6.4790855, 57.2964306 ], [ -6.4821586, 57.2977706 ], [ -6.4818334, 57.2987076 ], [ -6.4807973, 57.2989034 ], [ -6.4820974, 57.2995779 ], [ -6.4811384, 57.3004791 ], [ -6.4820491, 57.3013169 ], [ -6.4810459, 57.3008895 ], [ -6.4799927, 57.3018553 ], [ -6.4803092, 57.3042161 ], [ -6.4811163, 57.3056386 ], [ -6.4822752, 57.3059583 ], [ -6.481809, 57.3064899 ], [ -6.4839516, 57.306464 ], [ -6.4822103, 57.30731 ], [ -6.482373, 57.3092352 ], [ -6.4832556, 57.3100271 ], [ -6.4827954, 57.3109608 ], [ -6.4741334, 57.3138795 ], [ -6.4631481, 57.3160679 ], [ -6.4611713, 57.3178281 ], [ -6.4580665, 57.3188186 ], [ -6.4566319, 57.3203498 ], [ -6.4561688, 57.3223967 ], [ -6.454549, 57.3219373 ], [ -6.4529217, 57.3227071 ], [ -6.4492894, 57.3203995 ], [ -6.4468445, 57.3206664 ], [ -6.4464305, 57.3221909 ], [ -6.4449907, 57.321686 ], [ -6.44283, 57.32242 ], [ -6.44318, 57.32422 ], [ -6.44082, 57.32417 ], [ -6.44022, 57.32595 ], [ -6.43878, 57.32617 ], [ -6.43922, 57.3267 ], [ -6.4353136, 57.3258806 ], [ -6.4321346, 57.3224889 ], [ -6.426859, 57.3229153 ], [ -6.4281349, 57.3270144 ], [ -6.430209, 57.3290862 ], [ -6.429046, 57.3311711 ], [ -6.4303128, 57.3325547 ], [ -6.4295047, 57.3332515 ], [ -6.4304357, 57.3347466 ], [ -6.4298381, 57.3350709 ], [ -6.4313772, 57.3364565 ], [ -6.4334867, 57.336254 ], [ -6.4320493, 57.3366295 ], [ -6.4330001, 57.3371891 ], [ -6.432375, 57.3379067 ], [ -6.4332123, 57.33807 ], [ -6.4310655, 57.338988 ], [ -6.4322199, 57.3394472 ], [ -6.4307943, 57.3400264 ], [ -6.4272782, 57.3387856 ], [ -6.4212191, 57.3337358 ], [ -6.4214785, 57.3343055 ], [ -6.4176227, 57.3354228 ], [ -6.4181305, 57.3365253 ], [ -6.4153055, 57.33686 ], [ -6.4118484, 57.3357746 ], [ -6.4066732, 57.3314938 ], [ -6.3940354, 57.3292076 ], [ -6.3864372, 57.326577 ], [ -6.3713428, 57.3185264 ], [ -6.3565808, 57.30307 ], [ -6.3539242, 57.3026869 ], [ -6.3489779, 57.3003285 ], [ -6.3390689, 57.2979492 ], [ -6.3294302, 57.2974823 ], [ -6.3233254, 57.2982484 ], [ -6.3227462, 57.2970827 ], [ -6.3183016, 57.296484 ], [ -6.3169408, 57.2980743 ], [ -6.314768, 57.2989836 ], [ -6.3131213, 57.2983583 ], [ -6.3145743, 57.3003438 ], [ -6.3111418, 57.2991608 ], [ -6.3139058, 57.3006142 ], [ -6.3119204, 57.3013063 ], [ -6.3153376, 57.3006636 ], [ -6.3322449, 57.3028062 ], [ -6.3425959, 57.3059553 ], [ -6.3485365, 57.3101334 ], [ -6.34958, 57.31229 ], [ -6.359245, 57.3202493 ], [ -6.359317, 57.322444 ], [ -6.3570214, 57.323194 ], [ -6.36314, 57.32461 ], [ -6.3705177, 57.3277128 ], [ -6.3853066, 57.3355692 ], [ -6.3862671, 57.3365627 ], [ -6.3859893, 57.3376952 ], [ -6.3917783, 57.3394633 ], [ -6.3966202, 57.3383947 ], [ -6.4025731, 57.3398359 ], [ -6.4027678, 57.341472 ], [ -6.3961982, 57.3425651 ], [ -6.395677, 57.3439499 ], [ -6.3972835, 57.3446827 ], [ -6.4030773, 57.3442805 ], [ -6.4068238, 57.3449494 ], [ -6.4076891, 57.3459121 ], [ -6.4071811, 57.3516155 ], [ -6.4042469, 57.354853 ], [ -6.3966408, 57.3588322 ], [ -6.3963796, 57.3602637 ], [ -6.4004712, 57.3610298 ], [ -6.4028061, 57.3596337 ], [ -6.4051883, 57.3593763 ], [ -6.40558, 57.35726 ], [ -6.4145645, 57.3490689 ], [ -6.4187395, 57.3488791 ], [ -6.4238473, 57.3500314 ], [ -6.4285601, 57.3495982 ], [ -6.4298054, 57.3484666 ], [ -6.43392, 57.34836 ], [ -6.4348, 57.34582 ], [ -6.43651, 57.34521 ], [ -6.43767, 57.34562 ], [ -6.4376, 57.34664 ], [ -6.4386012, 57.347498 ], [ -6.4465669, 57.3482389 ], [ -6.4486777, 57.3458312 ], [ -6.4557153, 57.3443135 ], [ -6.4544135, 57.3420842 ], [ -6.4549113, 57.3402227 ], [ -6.4578174, 57.3392248 ], [ -6.4615769, 57.3416231 ], [ -6.4592437, 57.3435047 ], [ -6.459818, 57.3443298 ], [ -6.4588349, 57.3472608 ], [ -6.4629351, 57.3475964 ], [ -6.4599567, 57.3494425 ], [ -6.4571912, 57.349824 ], [ -6.4566102, 57.3517406 ], [ -6.4573334, 57.3541469 ], [ -6.4563176, 57.355936 ], [ -6.4570466, 57.3562932 ], [ -6.4546178, 57.3566987 ], [ -6.454202, 57.3577972 ], [ -6.4556839, 57.3598468 ], [ -6.4545079, 57.3598603 ], [ -6.4601689, 57.3614497 ], [ -6.4612003, 57.3601863 ], [ -6.4674725, 57.3634364 ], [ -6.4689578, 57.3631112 ], [ -6.4683836, 57.3614675 ], [ -6.4706541, 57.3615248 ], [ -6.4751152, 57.3651117 ], [ -6.47963, 57.3658 ], [ -6.48119, 57.36723 ], [ -6.4808844, 57.3700907 ], [ -6.4797399, 57.3715031 ], [ -6.4760038, 57.3728099 ], [ -6.4747052, 57.3744142 ], [ -6.4712867, 57.374683 ], [ -6.468668, 57.3776416 ], [ -6.4697512, 57.3779714 ], [ -6.4712471, 57.3766593 ], [ -6.4768347, 57.3796678 ], [ -6.4819232, 57.379194 ], [ -6.4858111, 57.3805968 ], [ -6.4851864, 57.3824408 ], [ -6.4859113, 57.3836835 ], [ -6.4850202, 57.3840255 ], [ -6.487829, 57.3851193 ], [ -6.488447, 57.3882237 ], [ -6.4865142, 57.3900842 ], [ -6.4869206, 57.390716 ], [ -6.4855801, 57.392481 ], [ -6.4819473, 57.3958246 ], [ -6.4874876, 57.3977111 ], [ -6.4885476, 57.4034861 ], [ -6.4915305, 57.4042765 ], [ -6.4942819, 57.4020588 ], [ -6.4939648, 57.3985573 ], [ -6.4955589, 57.3959454 ], [ -6.4949479, 57.3930973 ], [ -6.4981408, 57.3883346 ], [ -6.4976867, 57.387888 ], [ -6.5017378, 57.3860695 ], [ -6.501878, 57.3852389 ], [ -6.5007677, 57.384383 ], [ -6.5032544, 57.3850676 ], [ -6.5070231, 57.3841243 ], [ -6.5084253, 57.3829627 ], [ -6.5082625, 57.3815518 ], [ -6.5090123, 57.3818987 ], [ -6.5092624, 57.3806234 ], [ -6.5113367, 57.3794609 ], [ -6.5119451, 57.3768823 ], [ -6.5157888, 57.3751271 ], [ -6.5196805, 57.3748157 ], [ -6.521496, 57.373473 ], [ -6.522242, 57.3708569 ], [ -6.5247054, 57.3692033 ], [ -6.5271974, 57.3716482 ], [ -6.5246038, 57.3726788 ], [ -6.5259841, 57.374261 ], [ -6.5237576, 57.375619 ], [ -6.5247102, 57.3756325 ], [ -6.5235555, 57.3761846 ], [ -6.5237067, 57.3769771 ], [ -6.5211512, 57.3790148 ], [ -6.5199059, 57.3791033 ], [ -6.5175377, 57.3814473 ], [ -6.5203132, 57.3824142 ], [ -6.5219307, 57.3813167 ], [ -6.5248529, 57.3810477 ], [ -6.5259038, 57.3826783 ], [ -6.5253946, 57.3831011 ], [ -6.5261725, 57.3831558 ], [ -6.5234048, 57.3855256 ], [ -6.5232723, 57.386677 ], [ -6.5214361, 57.3874985 ], [ -6.5219593, 57.3883393 ], [ -6.5212357, 57.3886149 ], [ -6.5211942, 57.3897894 ], [ -6.5171628, 57.3908053 ], [ -6.5165256, 57.3931909 ], [ -6.518663, 57.395366 ], [ -6.5182767, 57.3963661 ], [ -6.5198828, 57.3968204 ], [ -6.5198084, 57.3980265 ], [ -6.5217209, 57.3986416 ], [ -6.5237628, 57.3971706 ], [ -6.5262803, 57.3984933 ], [ -6.5261469, 57.3996395 ], [ -6.5235913, 57.4012459 ], [ -6.52731, 57.40389 ], [ -6.5314164, 57.4043293 ], [ -6.5332189, 57.4094382 ], [ -6.5344835, 57.409256 ], [ -6.5369109, 57.412466 ], [ -6.5397107, 57.4124215 ], [ -6.5401048, 57.4120101 ], [ -6.5375284, 57.4105928 ], [ -6.5369455, 57.4092199 ], [ -6.5383995, 57.408395 ], [ -6.5379007, 57.4068866 ], [ -6.5390755, 57.4056065 ], [ -6.5382547, 57.4048436 ], [ -6.5385645, 57.4031325 ], [ -6.5423357, 57.3982481 ], [ -6.5364901, 57.399023 ], [ -6.537402, 57.4016935 ], [ -6.5343336, 57.4015606 ], [ -6.5348791, 57.4038723 ], [ -6.532315, 57.4041208 ], [ -6.5307609, 57.4013814 ], [ -6.5348362, 57.3994158 ], [ -6.5344516, 57.3986589 ], [ -6.5325419, 57.3985895 ], [ -6.5316605, 57.3970689 ], [ -6.5320191, 57.3952085 ], [ -6.5338653, 57.3941958 ], [ -6.5340253, 57.3931917 ], [ -6.5388296, 57.393087 ], [ -6.5390114, 57.3910161 ], [ -6.5418636, 57.3907152 ], [ -6.5377454, 57.3950689 ], [ -6.5360502, 57.3956991 ], [ -6.5365974, 57.3967628 ], [ -6.5388703, 57.3977394 ], [ -6.5423464, 57.3971151 ], [ -6.5428957, 57.3958092 ], [ -6.5457377, 57.3938066 ], [ -6.546326, 57.3918506 ], [ -6.5510842, 57.3886371 ], [ -6.5511448, 57.3875441 ], [ -6.5499111, 57.3868301 ], [ -6.5521759, 57.3854497 ], [ -6.554344, 57.3853664 ], [ -6.5555484, 57.3861601 ], [ -6.555302, 57.3872326 ], [ -6.556309, 57.3877031 ], [ -6.5558069, 57.3881521 ], [ -6.5608386, 57.3914103 ], [ -6.56235, 57.39061 ], [ -6.5665224, 57.3907553 ], [ -6.573951, 57.3882429 ], [ -6.574372, 57.3871256 ], [ -6.5718553, 57.386161 ], [ -6.5680571, 57.3860978 ], [ -6.566996, 57.3852417 ], [ -6.56841, 57.3815 ], [ -6.5696832, 57.3805797 ], [ -6.5690331, 57.3796321 ], [ -6.5700203, 57.3779551 ], [ -6.5690342, 57.3766999 ], [ -6.5669075, 57.3759898 ], [ -6.56728, 57.37355 ], [ -6.56586, 57.36993 ], [ -6.5660666, 57.3686778 ], [ -6.5628, 57.36603 ], [ -6.56273, 57.36347 ], [ -6.5618674, 57.3629708 ], [ -6.5630712, 57.3609489 ], [ -6.56599, 57.36072 ], [ -6.56798, 57.35948 ], [ -6.567897, 57.3584978 ], [ -6.5646119, 57.3556809 ], [ -6.5642616, 57.3532523 ], [ -6.5661524, 57.3522338 ], [ -6.5649631, 57.3516853 ], [ -6.5656102, 57.3509971 ], [ -6.563778, 57.3497215 ], [ -6.5646005, 57.3489575 ], [ -6.5635388, 57.3482587 ], [ -6.5644519, 57.348083 ], [ -6.5666112, 57.3450081 ], [ -6.5636107, 57.3423624 ], [ -6.56519, 57.34072 ], [ -6.5633305, 57.3385085 ], [ -6.5648179, 57.3385084 ], [ -6.564559, 57.3375738 ], [ -6.5656319, 57.3361154 ], [ -6.5703461, 57.3364287 ], [ -6.56976, 57.33607 ], [ -6.5703406, 57.3353863 ], [ -6.571636, 57.3353504 ], [ -6.5704189, 57.3339447 ], [ -6.5719409, 57.3342418 ], [ -6.5701597, 57.3335689 ], [ -6.5710735, 57.3325742 ], [ -6.5724318, 57.3330161 ], [ -6.5720737, 57.3338779 ], [ -6.5764352, 57.3321708 ], [ -6.5753589, 57.3342511 ], [ -6.5770617, 57.3330751 ], [ -6.5780973, 57.3335656 ], [ -6.5813018, 57.3327957 ], [ -6.5824475, 57.3335179 ], [ -6.5829278, 57.3358562 ], [ -6.581342, 57.3366673 ], [ -6.5943176, 57.3369402 ], [ -6.6011102, 57.3404857 ], [ -6.6032129, 57.3407242 ], [ -6.6040116, 57.3417004 ], [ -6.6074305, 57.3418707 ], [ -6.610998, 57.3431967 ], [ -6.6108947, 57.343836 ], [ -6.6139755, 57.3450844 ], [ -6.6160275, 57.3469886 ], [ -6.6188425, 57.3472222 ], [ -6.61817, 57.3474629 ], [ -6.6197724, 57.3493135 ], [ -6.6236699, 57.3494487 ], [ -6.6235779, 57.3505753 ], [ -6.6314806, 57.3499902 ], [ -6.6348702, 57.3529166 ], [ -6.6486945, 57.354029 ], [ -6.6513733, 57.3564136 ], [ -6.6530155, 57.3568794 ], [ -6.6531429, 57.3579981 ], [ -6.654601, 57.3573872 ], [ -6.6585154, 57.3580936 ], [ -6.6632508, 57.3573223 ], [ -6.6689691, 57.357678 ], [ -6.6713462, 57.3566561 ], [ -6.67405, 57.357 ], [ -6.6777212, 57.3596398 ], [ -6.6786024, 57.3589982 ], [ -6.6811037, 57.3608012 ], [ -6.682756, 57.3609025 ], [ -6.6820371, 57.3619007 ], [ -6.68517, 57.3622218 ], [ -6.6845316, 57.3622826 ], [ -6.6867464, 57.3634457 ], [ -6.6861446, 57.365065 ], [ -6.6908925, 57.3648879 ], [ -6.6937456, 57.3656788 ], [ -6.6941153, 57.3660443 ], [ -6.692856, 57.3664564 ], [ -6.6964824, 57.3680041 ], [ -6.697937, 57.3676928 ], [ -6.7005763, 57.3703887 ], [ -6.700469, 57.3718118 ], [ -6.7017457, 57.3720143 ], [ -6.7030754, 57.370636 ], [ -6.7081947, 57.369612 ], [ -6.7177155, 57.3714533 ], [ -6.7243314, 57.3758217 ], [ -6.7243934, 57.377874 ], [ -6.7283945, 57.3814289 ], [ -6.7319605, 57.3819035 ], [ -6.7321681, 57.382631 ], [ -6.7310487, 57.3833247 ], [ -6.7342943, 57.3873983 ], [ -6.7388808, 57.3892908 ], [ -6.737656, 57.3907008 ], [ -6.733654, 57.3910874 ], [ -6.7321567, 57.3920487 ], [ -6.7320803, 57.3932242 ], [ -6.729955, 57.39304 ], [ -6.7288273, 57.3953793 ], [ -6.7298444, 57.3957574 ], [ -6.7295376, 57.3964349 ], [ -6.7310482, 57.3980119 ], [ -6.731048, 57.3992222 ], [ -6.7344071, 57.4018161 ], [ -6.7377859, 57.4122967 ], [ -6.7425917, 57.4173375 ], [ -6.7455085, 57.4183321 ], [ -6.7514348, 57.4220942 ], [ -6.7610438, 57.4223933 ], [ -6.7613082, 57.4239284 ], [ -6.7646801, 57.4280031 ], [ -6.7672738, 57.4289686 ], [ -6.7704409, 57.4274275 ], [ -6.7732819, 57.4284169 ], [ -6.7739289, 57.4275552 ], [ -6.7779023, 57.4270405 ], [ -6.7773669, 57.4263965 ], [ -6.7785743, 57.425912 ], [ -6.780334, 57.426637 ], [ -6.781446, 57.4261215 ], [ -6.7806076, 57.425039 ], [ -6.781336, 57.4247687 ], [ -6.7809568, 57.4238161 ], [ -6.7838, 57.4236407 ], [ -6.7827057, 57.4224705 ], [ -6.7838357, 57.4209584 ], [ -6.7828623, 57.4205607 ], [ -6.787683, 57.4201819 ], [ -6.7890284, 57.4205239 ], [ -6.7898202, 57.4214246 ] ] ], [ [ [ -6.2537075, 57.6753215 ], [ -6.2538367, 57.6751258 ], [ -6.2539564, 57.6752792 ], [ -6.2537075, 57.6753215 ] ] ], [ [ [ -6.2537777, 57.6755164 ], [ -6.2538159, 57.6754342 ], [ -6.2538598, 57.67548 ], [ -6.2537777, 57.6755164 ] ] ], [ [ [ -6.2541884, 57.6755429 ], [ -6.2541602, 57.6756234 ], [ -6.2541256, 57.6755763 ], [ -6.2541884, 57.6755429 ] ] ], [ [ [ -6.254027, 57.6756115 ], [ -6.2539597, 57.6756746 ], [ -6.2539425, 57.6756525 ], [ -6.254027, 57.6756115 ] ] ] ] } }
]
}
