{
"type": "FeatureCollection",
"name": "tenerife",
"crs": { "type": "name", "properties": { "name": "urn:ogc:def:crs:OGC:1.3:CRS84" } },
"features": [
{ "type": "Feature", "properties": { }, "geometry": { "type": "MultiPolygon", "coordinates": [ [ [ [ -16.7381669, 28.0838787 ], [ -16.7379869, 28.0831904 ], [ -16.7383192, 28.0838827 ], [ -16.7381669, 28.0838787 ] ] ], [ [ [ -16.7386146, 28.0846076 ], [ -16.7391409, 28.0851859 ], [ -16.7390578, 28.0852918 ], [ -16.7386146, 28.0846076 ] ] ], [ [ [ -16.7397363, 28.0866113 ], [ -16.7397086, 28.0860859 ], [ -16.7399256, 28.086705 ], [ -16.7397363, 28.0866113 ] ] ], [ [ [ -16.7440081, 28.0902227 ], [ -16.743673, 28.0899354 ], [ -16.7440761, 28.0902177 ], [ -16.7440081, 28.0902227 ] ] ], [ [ [ -16.7456031, 28.0908927 ], [ -16.7448018, 28.0904551 ], [ -16.7455712, 28.0907404 ], [ -16.7456031, 28.0908927 ] ] ], [ [ [ -16.7487169, 28.0921697 ], [ -16.748412, 28.0918303 ], [ -16.7488369, 28.0921104 ], [ -16.7487169, 28.0921697 ] ] ], [ [ [ -16.7811342, 28.1228304 ], [ -16.780932, 28.1233995 ], [ -16.7805094, 28.123234 ], [ -16.7811342, 28.1228304 ] ] ], [ [ [ -16.8289271, 28.1977393 ], [ -16.8292027, 28.1972256 ], [ -16.8292249, 28.1978147 ], [ -16.8289271, 28.1977393 ] ] ], [ [ [ -16.8297969, 28.2000704 ], [ -16.8292156, 28.2001223 ], [ -16.8289996, 28.2001154 ], [ -16.8295612, 28.1996724 ], [ -16.8297969, 28.2000704 ] ] ], [ [ [ -16.8459657, 28.2380724 ], [ -16.8457445, 28.2381118 ], [ -16.8459088, 28.237999 ], [ -16.8459657, 28.2380724 ] ] ], [ [ [ -16.8464023, 28.2379515 ], [ -16.8464291, 28.2388683 ], [ -16.8460791, 28.2381488 ], [ -16.8464023, 28.2379515 ] ] ], [ [ [ -16.8434045, 28.2411793 ], [ -16.843029, 28.2411172 ], [ -16.843656, 28.2410039 ], [ -16.8434045, 28.2411793 ] ] ], [ [ [ -16.7787509, 28.3742095 ], [ -16.7780728, 28.3747671 ], [ -16.7779852, 28.374234 ], [ -16.7787509, 28.3742095 ] ] ], [ [ [ -16.7818982, 28.3759365 ], [ -16.7820003, 28.3755004 ], [ -16.782094, 28.3756661 ], [ -16.7818982, 28.3759365 ] ] ], [ [ [ -16.7439146, 28.3769837 ], [ -16.7435273, 28.376546 ], [ -16.7438926, 28.3763496 ], [ -16.7439146, 28.3769837 ] ] ], [ [ [ -16.7304256, 28.3782759 ], [ -16.7305312, 28.3779474 ], [ -16.7307513, 28.3779032 ], [ -16.7304256, 28.3782759 ] ] ], [ [ [ -16.7430568, 28.3782423 ], [ -16.74328, 28.3780913 ], [ -16.7431598, 28.3782952 ], [ -16.7430568, 28.3782423 ] ] ], [ [ [ -16.7626374, 28.3808432 ], [ -16.7616297, 28.3799648 ], [ -16.7621704, 28.3781977 ], [ -16.7635288, 28.3800852 ], [ -16.7626374, 28.3808432 ] ] ], [ [ [ -16.6489111, 28.3966759 ], [ -16.6492426, 28.3966102 ], [ -16.649171, 28.3967827 ], [ -16.6489111, 28.3966759 ] ] ], [ [ [ -16.4134774, 28.2181348 ], [ -16.4133402, 28.2175258 ], [ -16.4136908, 28.2177497 ], [ -16.4134774, 28.2181348 ] ] ], [ [ [ -16.3776578, 28.2887065 ], [ -16.378129, 28.2883648 ], [ -16.3777032, 28.2887952 ], [ -16.3776578, 28.2887065 ] ] ], [ [ [ -16.376679, 28.2904381 ], [ -16.3770835, 28.2895527 ], [ -16.3772361, 28.2895383 ], [ -16.376679, 28.2904381 ] ] ], [ [ [ -16.3755181, 28.2920795 ], [ -16.3759955, 28.2910626 ], [ -16.3761802, 28.2910877 ], [ -16.3755181, 28.2920795 ] ] ], [ [ [ -16.9256645, 28.3421156 ], [ -16.9207044, 28.3428294 ], [ -16.9221623, 28.3441148 ], [ -16.9217016, 28.3447082 ], [ -16.9230627, 28.346104 ], [ -16.92229, 28.3468833 ], [ -16.923983, 28.3489936 ], [ -16.9240899, 28.3510197 ], [ -16.9231759, 28.3520593 ], [ -16.9237888, 28.3532468 ], [ -16.922758, 28.355732 ], [ -16.921886, 28.355229 ], [ -16.921773, 28.3562082 ], [ -16.9204038, 28.3561126 ], [ -16.9204716, 28.3571737 ], [ -16.9181899, 28.3585543 ], [ -16.9172135, 28.360023 ], [ -16.9178186, 28.3606499 ], [ -16.9178142, 28.3609088 ], [ -16.9132323, 28.3622547 ], [ -16.9109812, 28.3618011 ], [ -16.910899, 28.3629572 ], [ -16.9103151, 28.3624543 ], [ -16.9100577, 28.3633328 ], [ -16.9095039, 28.3626266 ], [ -16.9085302, 28.3632885 ], [ -16.9075694, 28.3625459 ], [ -16.9075495, 28.3632434 ], [ -16.9059748, 28.3631343 ], [ -16.9064628, 28.3639918 ], [ -16.9055533, 28.3637399 ], [ -16.9050399, 28.3652418 ], [ -16.9045935, 28.3644522 ], [ -16.904103, 28.364915 ], [ -16.9033988, 28.3639738 ], [ -16.9028844, 28.3646831 ], [ -16.9018206, 28.363811 ], [ -16.9005168, 28.3651531 ], [ -16.8999793, 28.364075 ], [ -16.8982773, 28.3641995 ], [ -16.897176, 28.3624762 ], [ -16.8924157, 28.3638861 ], [ -16.890677, 28.3634847 ], [ -16.8892924, 28.3651357 ], [ -16.8896119, 28.3658485 ], [ -16.8869611, 28.3648378 ], [ -16.8852137, 28.3663044 ], [ -16.8852776, 28.3689459 ], [ -16.8821469, 28.3673075 ], [ -16.8781827, 28.3697078 ], [ -16.8761061, 28.3700563 ], [ -16.8756573, 28.370874 ], [ -16.874394, 28.3701232 ], [ -16.8725199, 28.3711436 ], [ -16.8719665, 28.3707325 ], [ -16.8705638, 28.3723188 ], [ -16.8701264, 28.3741794 ], [ -16.870686, 28.3750804 ], [ -16.8700596, 28.3756243 ], [ -16.8675939, 28.3747619 ], [ -16.8669575, 28.3751222 ], [ -16.8673556, 28.3758487 ], [ -16.865268, 28.3756716 ], [ -16.8648548, 28.3763964 ], [ -16.8631793, 28.3751363 ], [ -16.8614503, 28.3753303 ], [ -16.8615556, 28.3761262 ], [ -16.8601989, 28.375589 ], [ -16.8609474, 28.3775328 ], [ -16.860309, 28.3777033 ], [ -16.8600551, 28.3775371 ], [ -16.8598941, 28.3775936 ], [ -16.8606509, 28.3784153 ], [ -16.8600983, 28.3794334 ], [ -16.8578981, 28.3793151 ], [ -16.8568113, 28.3808888 ], [ -16.8557243, 28.380423 ], [ -16.8548497, 28.3812508 ], [ -16.8551175, 28.3824158 ], [ -16.8543007, 28.3827343 ], [ -16.8543857, 28.3841541 ], [ -16.8500454, 28.3858674 ], [ -16.8489716, 28.3880651 ], [ -16.847682, 28.3875999 ], [ -16.8467828, 28.3885131 ], [ -16.8462452, 28.3877584 ], [ -16.8449306, 28.3886355 ], [ -16.8441957, 28.3869676 ], [ -16.8437871, 28.3877243 ], [ -16.8431657, 28.386692 ], [ -16.8417399, 28.3870817 ], [ -16.8410365, 28.3886534 ], [ -16.8416521, 28.3894447 ], [ -16.8408187, 28.3891092 ], [ -16.8411526, 28.3906338 ], [ -16.8392398, 28.3899971 ], [ -16.8374984, 28.3915256 ], [ -16.8329129, 28.3930076 ], [ -16.8296209, 28.3922417 ], [ -16.8294452, 28.3933743 ], [ -16.8280978, 28.3936249 ], [ -16.8273648, 28.3921122 ], [ -16.8257027, 28.3921516 ], [ -16.8253643, 28.3872076 ], [ -16.8231449, 28.3880259 ], [ -16.8209604, 28.3860675 ], [ -16.8210361, 28.384516 ], [ -16.8175007, 28.3836444 ], [ -16.8166623, 28.3814878 ], [ -16.8149604, 28.3822153 ], [ -16.8141361, 28.3810669 ], [ -16.8148391, 28.3803856 ], [ -16.8144509, 28.3796007 ], [ -16.8127946, 28.3794198 ], [ -16.8120425, 28.3789297 ], [ -16.8129652, 28.3786607 ], [ -16.8123122, 28.3779554 ], [ -16.810187, 28.3779292 ], [ -16.8101549, 28.377079 ], [ -16.8083259, 28.3761814 ], [ -16.8066075, 28.3762955 ], [ -16.8058725, 28.3787786 ], [ -16.804404, 28.3791059 ], [ -16.8025412, 28.3767147 ], [ -16.8000136, 28.3770759 ], [ -16.7995559, 28.3779823 ], [ -16.7943955, 28.3768088 ], [ -16.7922082, 28.3734123 ], [ -16.7875864, 28.3755031 ], [ -16.78312, 28.3745049 ], [ -16.7821947, 28.3753658 ], [ -16.7808944, 28.3749195 ], [ -16.7807807, 28.3733697 ], [ -16.7796059, 28.3743493 ], [ -16.7792521, 28.3730685 ], [ -16.7765308, 28.3748318 ], [ -16.7739647, 28.3746026 ], [ -16.7718745, 28.3742781 ], [ -16.7705564, 28.3727063 ], [ -16.7697562, 28.3736677 ], [ -16.7691048, 28.3731024 ], [ -16.7701015, 28.3713765 ], [ -16.7683495, 28.3708277 ], [ -16.7677585, 28.3710578 ], [ -16.7684176, 28.3725506 ], [ -16.766432, 28.3725555 ], [ -16.7662675, 28.3743859 ], [ -16.7660554, 28.374536 ], [ -16.7663243, 28.3734575 ], [ -16.7662452, 28.3731812 ], [ -16.764877, 28.3755497 ], [ -16.7625059, 28.375555 ], [ -16.7604623, 28.3741841 ], [ -16.7550648, 28.3749884 ], [ -16.7513855, 28.3728044 ], [ -16.7519486, 28.3725231 ], [ -16.7542953, 28.3742468 ], [ -16.7558832, 28.3739064 ], [ -16.7545247, 28.3737633 ], [ -16.7552907, 28.372933 ], [ -16.7541826, 28.3719893 ], [ -16.7533281, 28.3729597 ], [ -16.7535146, 28.3713597 ], [ -16.7517699, 28.3707386 ], [ -16.7493898, 28.3712182 ], [ -16.7445348, 28.3759507 ], [ -16.7429207, 28.3758488 ], [ -16.7435159, 28.3771531 ], [ -16.7429827, 28.3781099 ], [ -16.7405032, 28.3781527 ], [ -16.7413066, 28.3797978 ], [ -16.7394114, 28.3798296 ], [ -16.7393023, 28.3806509 ], [ -16.7359359, 28.3797759 ], [ -16.735761, 28.3810381 ], [ -16.734277, 28.3823736 ], [ -16.7324281, 28.3823093 ], [ -16.7315811, 28.3814382 ], [ -16.7320537, 28.3790111 ], [ -16.7309904, 28.3790829 ], [ -16.7316496, 28.3784351 ], [ -16.7306753, 28.3784306 ], [ -16.7312669, 28.3777396 ], [ -16.7306938, 28.3770145 ], [ -16.7287591, 28.3778352 ], [ -16.7267106, 28.3762221 ], [ -16.7248032, 28.3768803 ], [ -16.7238084, 28.3785064 ], [ -16.7256231, 28.3790001 ], [ -16.7257603, 28.3797706 ], [ -16.7222446, 28.3812388 ], [ -16.7243289, 28.3825064 ], [ -16.7241655, 28.3833129 ], [ -16.7226172, 28.3841879 ], [ -16.7200882, 28.3839041 ], [ -16.720519, 28.3870836 ], [ -16.7192621, 28.3877003 ], [ -16.7170162, 28.3868454 ], [ -16.716993, 28.3855189 ], [ -16.7146084, 28.3853699 ], [ -16.7131685, 28.3838155 ], [ -16.7127068, 28.3851106 ], [ -16.7115732, 28.3839109 ], [ -16.7108185, 28.3846975 ], [ -16.7105196, 28.3837927 ], [ -16.7088278, 28.3831272 ], [ -16.7012932, 28.383749 ], [ -16.6999275, 28.3846331 ], [ -16.6993803, 28.38628 ], [ -16.6946427, 28.3872985 ], [ -16.6942732, 28.3921316 ], [ -16.6950439, 28.3946074 ], [ -16.6940023, 28.3958829 ], [ -16.6934387, 28.3947019 ], [ -16.6927272, 28.3950576 ], [ -16.6931869, 28.3927372 ], [ -16.6919643, 28.3933013 ], [ -16.6878829, 28.3929111 ], [ -16.6877686, 28.3923028 ], [ -16.680774, 28.390603 ], [ -16.6755672, 28.3942768 ], [ -16.6758132, 28.3956068 ], [ -16.6773399, 28.3970343 ], [ -16.6755743, 28.396674 ], [ -16.676967, 28.397741 ], [ -16.6759151, 28.3983638 ], [ -16.676698, 28.3987181 ], [ -16.6755118, 28.3985043 ], [ -16.6759525, 28.3990447 ], [ -16.6735086, 28.3979424 ], [ -16.675423, 28.4005567 ], [ -16.6746916, 28.4011941 ], [ -16.6731577, 28.4007097 ], [ -16.6741972, 28.402043 ], [ -16.6715193, 28.4004857 ], [ -16.6708425, 28.3989722 ], [ -16.6691618, 28.4015105 ], [ -16.6679543, 28.3998555 ], [ -16.6671805, 28.4012386 ], [ -16.6658741, 28.399079 ], [ -16.6642554, 28.4002441 ], [ -16.6635794, 28.3990369 ], [ -16.661895, 28.3987305 ], [ -16.6608003, 28.401273 ], [ -16.6601783, 28.4005244 ], [ -16.6598985, 28.4015004 ], [ -16.6589458, 28.4003834 ], [ -16.6581058, 28.4015458 ], [ -16.6576773, 28.399091 ], [ -16.6566618, 28.3993464 ], [ -16.6557788, 28.3976006 ], [ -16.652752, 28.3957994 ], [ -16.652184, 28.3965644 ], [ -16.6495863, 28.3955569 ], [ -16.6471781, 28.3961389 ], [ -16.6442024, 28.398613 ], [ -16.6424855, 28.3975226 ], [ -16.6409424, 28.3978771 ], [ -16.6396091, 28.3954791 ], [ -16.6374947, 28.3941875 ], [ -16.6356017, 28.3942987 ], [ -16.6319127, 28.3961654 ], [ -16.6274121, 28.3963783 ], [ -16.621037, 28.3959276 ], [ -16.617187, 28.3941537 ], [ -16.6140899, 28.3947996 ], [ -16.6087199, 28.3938035 ], [ -16.6042369, 28.3941491 ], [ -16.600489, 28.3958304 ], [ -16.59735, 28.4003573 ], [ -16.5969168, 28.3997369 ], [ -16.5956183, 28.400156 ], [ -16.5932565, 28.39789 ], [ -16.5878997, 28.3982766 ], [ -16.5813309, 28.4020765 ], [ -16.5781926, 28.4050696 ], [ -16.5756707, 28.4054648 ], [ -16.5746339, 28.4039236 ], [ -16.57276, 28.4042396 ], [ -16.5711192, 28.407778 ], [ -16.5696292, 28.4079467 ], [ -16.5664011, 28.4102162 ], [ -16.5663633, 28.4125992 ], [ -16.5646428, 28.4122194 ], [ -16.5641261, 28.4112361 ], [ -16.5624992, 28.4113486 ], [ -16.5592355, 28.4137528 ], [ -16.5589426, 28.4142757 ], [ -16.5597494, 28.4146846 ], [ -16.5575097, 28.4169845 ], [ -16.5547322, 28.4187879 ], [ -16.5508122, 28.4190072 ], [ -16.5504961, 28.4195841 ], [ -16.5498237, 28.4198238 ], [ -16.5506671, 28.4178287 ], [ -16.5497588, 28.418292 ], [ -16.5501287, 28.4189144 ], [ -16.5482769, 28.418807 ], [ -16.5475699, 28.4172563 ], [ -16.546008, 28.4174741 ], [ -16.5433994, 28.4210336 ], [ -16.539534, 28.4203697 ], [ -16.541558, 28.4197248 ], [ -16.5402218, 28.4168858 ], [ -16.536439, 28.4169394 ], [ -16.5359657, 28.4175421 ], [ -16.5331858, 28.416646 ], [ -16.5314923, 28.4178547 ], [ -16.5268729, 28.4175738 ], [ -16.5259493, 28.418377 ], [ -16.5250503, 28.4171823 ], [ -16.5230854, 28.4173151 ], [ -16.5218733, 28.4181694 ], [ -16.5221957, 28.4187685 ], [ -16.5213954, 28.4179412 ], [ -16.5191236, 28.4183319 ], [ -16.5185774, 28.4198617 ], [ -16.5156338, 28.4190659 ], [ -16.5121546, 28.4198145 ], [ -16.5073898, 28.4221584 ], [ -16.5076987, 28.423219 ], [ -16.5066476, 28.4229902 ], [ -16.5030628, 28.4252038 ], [ -16.5028535, 28.4265014 ], [ -16.5022426, 28.4264516 ], [ -16.502837, 28.427807 ], [ -16.5019882, 28.4281339 ], [ -16.5021617, 28.4291935 ], [ -16.5004648, 28.4293721 ], [ -16.500257, 28.4308005 ], [ -16.4992978, 28.4306945 ], [ -16.4998975, 28.4311594 ], [ -16.4982198, 28.4318536 ], [ -16.4990936, 28.4333718 ], [ -16.497747, 28.4352612 ], [ -16.4971123, 28.4385763 ], [ -16.4959083, 28.4382439 ], [ -16.4957496, 28.4390134 ], [ -16.4942669, 28.439041 ], [ -16.4938151, 28.4406011 ], [ -16.493633, 28.4395077 ], [ -16.4928353, 28.440186 ], [ -16.4917472, 28.4385876 ], [ -16.489325, 28.4399463 ], [ -16.4876279, 28.4374632 ], [ -16.483783, 28.4395957 ], [ -16.483895, 28.4402246 ], [ -16.4814512, 28.4408006 ], [ -16.4799868, 28.4399791 ], [ -16.4787519, 28.4411559 ], [ -16.4769753, 28.4409174 ], [ -16.4747536, 28.4428877 ], [ -16.4748995, 28.4453052 ], [ -16.4730189, 28.444969 ], [ -16.4716131, 28.4474562 ], [ -16.4699524, 28.448596 ], [ -16.4708465, 28.4506929 ], [ -16.473198, 28.4516445 ], [ -16.4744349, 28.453229 ], [ -16.4731603, 28.4537763 ], [ -16.4728534, 28.4545576 ], [ -16.4735234, 28.4549197 ], [ -16.4712416, 28.4556236 ], [ -16.4696976, 28.4544974 ], [ -16.4675555, 28.4552161 ], [ -16.4666936, 28.4567265 ], [ -16.4673295, 28.4578189 ], [ -16.4659566, 28.4583581 ], [ -16.4660079, 28.4599159 ], [ -16.4649289, 28.4596978 ], [ -16.4643845, 28.4584114 ], [ -16.4638257, 28.4595761 ], [ -16.4624646, 28.458389 ], [ -16.4595513, 28.4578641 ], [ -16.4557572, 28.4601191 ], [ -16.4549218, 28.4624164 ], [ -16.4557613, 28.4650361 ], [ -16.4550946, 28.4661122 ], [ -16.4568064, 28.4672475 ], [ -16.4566668, 28.4685564 ], [ -16.4556412, 28.4688603 ], [ -16.4560605, 28.4697769 ], [ -16.4551017, 28.4693414 ], [ -16.4538896, 28.4705153 ], [ -16.4527952, 28.4704492 ], [ -16.4530582, 28.4717164 ], [ -16.4507485, 28.4716895 ], [ -16.4509974, 28.4722931 ], [ -16.4490983, 28.473918 ], [ -16.4516343, 28.4756912 ], [ -16.4510146, 28.475643 ], [ -16.4517683, 28.4772183 ], [ -16.451098, 28.4774502 ], [ -16.4506736, 28.4757512 ], [ -16.4501604, 28.4761592 ], [ -16.4501262, 28.4753542 ], [ -16.4496263, 28.4757626 ], [ -16.4480731, 28.4742478 ], [ -16.447174, 28.4755053 ], [ -16.4469679, 28.4744563 ], [ -16.4452715, 28.4742813 ], [ -16.4432245, 28.4766856 ], [ -16.4442505, 28.480192 ], [ -16.4374018, 28.4825286 ], [ -16.4287806, 28.4892068 ], [ -16.4286993, 28.4921995 ], [ -16.4269002, 28.4926102 ], [ -16.4269776, 28.494156 ], [ -16.4257921, 28.4963367 ], [ -16.4262864, 28.4975801 ], [ -16.4256472, 28.4977046 ], [ -16.4267728, 28.4984013 ], [ -16.4257954, 28.4993067 ], [ -16.426613, 28.5003363 ], [ -16.4255005, 28.4997842 ], [ -16.4244328, 28.5005526 ], [ -16.4251636, 28.5011264 ], [ -16.4246112, 28.5015688 ], [ -16.4263125, 28.5027401 ], [ -16.4250299, 28.5027834 ], [ -16.4253701, 28.5038329 ], [ -16.4237689, 28.504281 ], [ -16.424621, 28.505369 ], [ -16.4231024, 28.5048746 ], [ -16.4237502, 28.506401 ], [ -16.4230359, 28.5066067 ], [ -16.4232096, 28.507432 ], [ -16.4214959, 28.507281 ], [ -16.4213293, 28.5081433 ], [ -16.422936, 28.5090625 ], [ -16.4214876, 28.5091475 ], [ -16.4213484, 28.5101516 ], [ -16.4220581, 28.5103686 ], [ -16.4207311, 28.5106249 ], [ -16.4211816, 28.5114821 ], [ -16.4198233, 28.5124753 ], [ -16.4217299, 28.5161152 ], [ -16.4210797, 28.5166737 ], [ -16.4216384, 28.5176524 ], [ -16.4203192, 28.5177431 ], [ -16.4188543, 28.5188684 ], [ -16.4190551, 28.5200915 ], [ -16.4177494, 28.5198337 ], [ -16.4180069, 28.5204596 ], [ -16.4120503, 28.5241323 ], [ -16.410986, 28.527194 ], [ -16.4090462, 28.5275936 ], [ -16.4052928, 28.5305234 ], [ -16.4035765, 28.5306626 ], [ -16.4022596, 28.533654 ], [ -16.3985147, 28.5336538 ], [ -16.3975723, 28.5384905 ], [ -16.3952803, 28.5384054 ], [ -16.3952866, 28.5401255 ], [ -16.3921996, 28.5410548 ], [ -16.3914283, 28.5424146 ], [ -16.3900617, 28.5424433 ], [ -16.389768, 28.5434204 ], [ -16.3878942, 28.5439592 ], [ -16.3881723, 28.5445315 ], [ -16.3870453, 28.5437334 ], [ -16.3858532, 28.5447213 ], [ -16.3859636, 28.5463211 ], [ -16.3843863, 28.5452962 ], [ -16.3844444, 28.5462205 ], [ -16.3834675, 28.5458455 ], [ -16.3840257, 28.5463037 ], [ -16.3833791, 28.5470627 ], [ -16.380544, 28.5463438 ], [ -16.3804325, 28.5480272 ], [ -16.3782621, 28.5475162 ], [ -16.377408, 28.5481861 ], [ -16.3747572, 28.5477387 ], [ -16.3728551, 28.5462497 ], [ -16.3722661, 28.5463641 ], [ -16.3718122, 28.5476169 ], [ -16.3709418, 28.546871 ], [ -16.3699715, 28.5476595 ], [ -16.3701299, 28.5469242 ], [ -16.3693168, 28.5466639 ], [ -16.367759, 28.5475252 ], [ -16.3681765, 28.546728 ], [ -16.3656029, 28.545207 ], [ -16.3638125, 28.5479606 ], [ -16.3629221, 28.5480261 ], [ -16.3625831, 28.5469915 ], [ -16.3596943, 28.5497118 ], [ -16.3576685, 28.5480464 ], [ -16.3573001, 28.5501344 ], [ -16.3569296, 28.5494497 ], [ -16.3567041, 28.5503555 ], [ -16.3544942, 28.5496772 ], [ -16.3538525, 28.5534179 ], [ -16.349745, 28.5528808 ], [ -16.3483676, 28.5542941 ], [ -16.3455353, 28.5549879 ], [ -16.3452454, 28.5554583 ], [ -16.3461663, 28.5555992 ], [ -16.3443378, 28.5567538 ], [ -16.3367605, 28.5562402 ], [ -16.3340243, 28.5576038 ], [ -16.3330715, 28.5588382 ], [ -16.3332768, 28.5626393 ], [ -16.3319013, 28.5637257 ], [ -16.3321343, 28.5647202 ], [ -16.332924, 28.5646307 ], [ -16.3316405, 28.5655339 ], [ -16.3337117, 28.567208 ], [ -16.3325169, 28.5682842 ], [ -16.3338891, 28.5690402 ], [ -16.3329696, 28.5696456 ], [ -16.3334761, 28.5707892 ], [ -16.33412, 28.5703363 ], [ -16.3340994, 28.5717249 ], [ -16.3324994, 28.5713818 ], [ -16.3320564, 28.5744594 ], [ -16.3315502, 28.5734669 ], [ -16.3307483, 28.5747845 ], [ -16.3292126, 28.5746393 ], [ -16.3296974, 28.5770569 ], [ -16.3264463, 28.5772516 ], [ -16.3251509, 28.5783312 ], [ -16.3240012, 28.578001 ], [ -16.3235343, 28.579206 ], [ -16.3181528, 28.5785304 ], [ -16.3186145, 28.5774965 ], [ -16.3177687, 28.5770455 ], [ -16.3183795, 28.5766742 ], [ -16.317415, 28.5759267 ], [ -16.317488, 28.5748242 ], [ -16.3160542, 28.5748948 ], [ -16.3174338, 28.5737972 ], [ -16.3155387, 28.571143 ], [ -16.3134743, 28.5719514 ], [ -16.3106932, 28.5714482 ], [ -16.3070901, 28.5744449 ], [ -16.306371, 28.5723657 ], [ -16.305032, 28.5725576 ], [ -16.3035369, 28.5707992 ], [ -16.300607, 28.5713161 ], [ -16.3009093, 28.5708316 ], [ -16.2995727, 28.5696559 ], [ -16.2980432, 28.5705842 ], [ -16.2979853, 28.5695244 ], [ -16.2963852, 28.5691259 ], [ -16.2946425, 28.5698696 ], [ -16.2934356, 28.5718701 ], [ -16.2913084, 28.5701941 ], [ -16.2880299, 28.5711355 ], [ -16.2863212, 28.5728882 ], [ -16.2857866, 28.5749228 ], [ -16.2864636, 28.5760701 ], [ -16.2850943, 28.5764987 ], [ -16.2820863, 28.5751223 ], [ -16.2807821, 28.5726197 ], [ -16.2799671, 28.5732012 ], [ -16.2784752, 28.5716074 ], [ -16.2769814, 28.5713064 ], [ -16.2760356, 28.5722974 ], [ -16.2744367, 28.5721573 ], [ -16.2744758, 28.5735944 ], [ -16.2729011, 28.5746504 ], [ -16.2730575, 28.5752819 ], [ -16.2722251, 28.575197 ], [ -16.2729713, 28.5756121 ], [ -16.2721279, 28.5762024 ], [ -16.2737454, 28.5775247 ], [ -16.2727118, 28.578067 ], [ -16.2669621, 28.5738484 ], [ -16.2647492, 28.5739101 ], [ -16.2640189, 28.5729335 ], [ -16.261492, 28.5733604 ], [ -16.2570211, 28.5693384 ], [ -16.255243, 28.5706851 ], [ -16.2541932, 28.5698665 ], [ -16.2514615, 28.5714974 ], [ -16.2482405, 28.5705179 ], [ -16.2431997, 28.571768 ], [ -16.2336741, 28.5667714 ], [ -16.2236623, 28.5654315 ], [ -16.2171189, 28.5680451 ], [ -16.2083665, 28.5692749 ], [ -16.2065926, 28.5686539 ], [ -16.2042991, 28.5704033 ], [ -16.2050894, 28.5713272 ], [ -16.2024223, 28.5715264 ], [ -16.2008214, 28.5729755 ], [ -16.2007925, 28.5723999 ], [ -16.1987025, 28.5721675 ], [ -16.1969966, 28.5731781 ], [ -16.1969292, 28.5725781 ], [ -16.1933031, 28.5722264 ], [ -16.1914314, 28.5731537 ], [ -16.1904009, 28.5752399 ], [ -16.1866115, 28.5757865 ], [ -16.1818409, 28.5780611 ], [ -16.180247, 28.5796417 ], [ -16.1802687, 28.5807818 ], [ -16.1743957, 28.5820425 ], [ -16.1720711, 28.585851 ], [ -16.1714455, 28.5848842 ], [ -16.1683708, 28.584009 ], [ -16.1647851, 28.5864817 ], [ -16.1613787, 28.5867618 ], [ -16.1580706, 28.5890697 ], [ -16.1524665, 28.5868669 ], [ -16.1503748, 28.5873973 ], [ -16.1487074, 28.586748 ], [ -16.1473698, 28.5850497 ], [ -16.145239, 28.5853592 ], [ -16.1445927, 28.5846098 ], [ -16.1423028, 28.5845725 ], [ -16.1420269, 28.5838807 ], [ -16.1358466, 28.5828286 ], [ -16.1362932, 28.5817196 ], [ -16.1343887, 28.5810841 ], [ -16.1322621, 28.5812352 ], [ -16.1348503, 28.5798121 ], [ -16.1342511, 28.5792611 ], [ -16.1349268, 28.5790501 ], [ -16.1351771, 28.5771438 ], [ -16.1341822, 28.5764614 ], [ -16.1346772, 28.5757055 ], [ -16.1340738, 28.5739169 ], [ -16.1328075, 28.5735421 ], [ -16.1317457, 28.5747826 ], [ -16.1310008, 28.5735895 ], [ -16.1282362, 28.5726911 ], [ -16.1285513, 28.5721735 ], [ -16.1272458, 28.5716503 ], [ -16.125116, 28.5675284 ], [ -16.1264267, 28.5665741 ], [ -16.1260627, 28.5646459 ], [ -16.1267154, 28.5637373 ], [ -16.1244454, 28.5632557 ], [ -16.1254406, 28.5633275 ], [ -16.1252744, 28.5618189 ], [ -16.1227827, 28.5615807 ], [ -16.123974, 28.5611094 ], [ -16.1226351, 28.5602388 ], [ -16.1229703, 28.5597146 ], [ -16.1216577, 28.5590239 ], [ -16.1209565, 28.5595062 ], [ -16.1199223, 28.5593154 ], [ -16.1206758, 28.5592736 ], [ -16.1207573, 28.5584747 ], [ -16.119427, 28.5555958 ], [ -16.1206053, 28.5538275 ], [ -16.1193833, 28.5536005 ], [ -16.120783, 28.551264 ], [ -16.1244312, 28.550016 ], [ -16.1266626, 28.5480908 ], [ -16.1273416, 28.5441105 ], [ -16.1265304, 28.5437195 ], [ -16.1294439, 28.5367598 ], [ -16.1259052, 28.5343604 ], [ -16.1250223, 28.532755 ], [ -16.1257808, 28.5330845 ], [ -16.1255784, 28.5321355 ], [ -16.1271619, 28.5321326 ], [ -16.1306342, 28.5351372 ], [ -16.1353384, 28.5338458 ], [ -16.1377406, 28.5322285 ], [ -16.1397862, 28.5291294 ], [ -16.1386422, 28.5268899 ], [ -16.1401169, 28.5268605 ], [ -16.1411853, 28.5255256 ], [ -16.1433009, 28.524834 ], [ -16.142995, 28.5240048 ], [ -16.1437001, 28.5236092 ], [ -16.1429688, 28.5225339 ], [ -16.143869, 28.5218008 ], [ -16.1431352, 28.521358 ], [ -16.146368, 28.5216084 ], [ -16.1515194, 28.5233529 ], [ -16.1538259, 28.5224833 ], [ -16.1562389, 28.5228316 ], [ -16.1606206, 28.5199862 ], [ -16.1670323, 28.5183415 ], [ -16.1730558, 28.5154033 ], [ -16.1770458, 28.5119376 ], [ -16.1770449, 28.5102034 ], [ -16.1780162, 28.5103044 ], [ -16.1805514, 28.5081252 ], [ -16.1795719, 28.5092284 ], [ -16.1814167, 28.5101231 ], [ -16.1866773, 28.5081984 ], [ -16.1890519, 28.5054877 ], [ -16.1882234, 28.5044204 ], [ -16.1898562, 28.5046475 ], [ -16.1919364, 28.5035507 ], [ -16.1952411, 28.4998778 ], [ -16.1947423, 28.4978267 ], [ -16.1956814, 28.4965308 ], [ -16.2050282, 28.4957976 ], [ -16.2110572, 28.4928115 ], [ -16.2113681, 28.4936066 ], [ -16.2109285, 28.4931321 ], [ -16.201948, 28.4978988 ], [ -16.2027266, 28.4990622 ], [ -16.2139004, 28.493349 ], [ -16.2131263, 28.4915988 ], [ -16.214574, 28.4929534 ], [ -16.2172245, 28.4912397 ], [ -16.2182992, 28.4897752 ], [ -16.2181705, 28.4885934 ], [ -16.225211, 28.4837418 ], [ -16.2284032, 28.4830318 ], [ -16.2253097, 28.4838894 ], [ -16.2197951, 28.4877877 ], [ -16.2196698, 28.489449 ], [ -16.2269828, 28.489105 ], [ -16.2300887, 28.4857618 ], [ -16.2291648, 28.4849308 ], [ -16.231653, 28.4862587 ], [ -16.2334567, 28.4855498 ], [ -16.2330955, 28.4859956 ], [ -16.2339405, 28.4865541 ], [ -16.23535, 28.4865174 ], [ -16.2361277, 28.4859744 ], [ -16.2357262, 28.4854085 ], [ -16.2368236, 28.4856268 ], [ -16.2364675, 28.4851106 ], [ -16.2368867, 28.4856103 ], [ -16.2375613, 28.4847067 ], [ -16.2371433, 28.4839128 ], [ -16.2390599, 28.481941 ], [ -16.2381593, 28.4810797 ], [ -16.240157, 28.4809741 ], [ -16.2408138, 28.4792232 ], [ -16.2400811, 28.4789501 ], [ -16.2405979, 28.477889 ], [ -16.2401544, 28.4789285 ], [ -16.2407477, 28.479148 ], [ -16.2409675, 28.4778193 ], [ -16.2416469, 28.4777248 ], [ -16.2410962, 28.4771915 ], [ -16.2421384, 28.4775394 ], [ -16.2445611, 28.474843 ], [ -16.2462438, 28.4710221 ], [ -16.2463336, 28.4695026 ], [ -16.2448542, 28.469415 ], [ -16.2444584, 28.4707056 ], [ -16.2445866, 28.4693557 ], [ -16.2434364, 28.4690412 ], [ -16.2405771, 28.47335 ], [ -16.235609, 28.4790652 ], [ -16.2424493, 28.4696357 ], [ -16.2419162, 28.4659572 ], [ -16.2470131, 28.4556761 ], [ -16.247559, 28.4559003 ], [ -16.2451976, 28.45944 ], [ -16.2458929, 28.45975 ], [ -16.2451465, 28.4595752 ], [ -16.2422443, 28.4659992 ], [ -16.2427551, 28.4680529 ], [ -16.24485, 28.4676508 ], [ -16.2451199, 28.4660642 ], [ -16.243278, 28.4646517 ], [ -16.2453184, 28.4652089 ], [ -16.2461888, 28.463398 ], [ -16.2474314, 28.4633603 ], [ -16.2464053, 28.462909 ], [ -16.249497, 28.4556946 ], [ -16.248954, 28.4545179 ], [ -16.2499307, 28.455306 ], [ -16.2524552, 28.4550388 ], [ -16.2519254, 28.454631 ], [ -16.2538001, 28.4531557 ], [ -16.2539615, 28.4504712 ], [ -16.2605046, 28.4517599 ], [ -16.2628847, 28.45058 ], [ -16.2623731, 28.4497852 ], [ -16.2629627, 28.4505341 ], [ -16.2644375, 28.4499493 ], [ -16.2645307, 28.4486756 ], [ -16.2647626, 28.4500292 ], [ -16.2657957, 28.4497704 ], [ -16.2697768, 28.447232 ], [ -16.2729785, 28.4437824 ], [ -16.2727884, 28.4430194 ], [ -16.2737851, 28.4427267 ], [ -16.2750648, 28.4392084 ], [ -16.2804423, 28.4338807 ], [ -16.2915694, 28.426768 ], [ -16.2934826, 28.4244054 ], [ -16.2939541, 28.4206737 ], [ -16.2964242, 28.4199883 ], [ -16.2975291, 28.4183741 ], [ -16.2971644, 28.41787 ], [ -16.3007205, 28.414339 ], [ -16.3049589, 28.4128681 ], [ -16.305744, 28.4110596 ], [ -16.3085927, 28.4086876 ], [ -16.3116817, 28.4079833 ], [ -16.31275, 28.4067493 ], [ -16.3159438, 28.4056944 ], [ -16.3164732, 28.4040673 ], [ -16.3168959, 28.4046593 ], [ -16.318113, 28.4040288 ], [ -16.3182999, 28.4023482 ], [ -16.3202989, 28.3999877 ], [ -16.3203335, 28.4005798 ], [ -16.3208478, 28.4001471 ], [ -16.3240763, 28.4005397 ], [ -16.3211395, 28.4004586 ], [ -16.3210983, 28.4009812 ], [ -16.3236786, 28.4008864 ], [ -16.3281348, 28.4022936 ], [ -16.3337131, 28.4006267 ], [ -16.3354417, 28.3968568 ], [ -16.3387481, 28.3960784 ], [ -16.3420786, 28.3933323 ], [ -16.3423509, 28.3922455 ], [ -16.3441685, 28.3916934 ], [ -16.3471719, 28.3867233 ], [ -16.3552387, 28.3834046 ], [ -16.3571628, 28.3799679 ], [ -16.3590172, 28.38029 ], [ -16.3604441, 28.3794068 ], [ -16.3609721, 28.3783726 ], [ -16.3599827, 28.3772488 ], [ -16.3617477, 28.3755285 ], [ -16.3610799, 28.374008 ], [ -16.3616142, 28.3730775 ], [ -16.3611175, 28.3687574 ], [ -16.3628812, 28.3676523 ], [ -16.3642139, 28.3644582 ], [ -16.3636238, 28.3618838 ], [ -16.3647453, 28.3615236 ], [ -16.3647636, 28.3605539 ], [ -16.3653192, 28.3594454 ], [ -16.3658995, 28.3596777 ], [ -16.3650731, 28.3609094 ], [ -16.3657734, 28.3612046 ], [ -16.3660516, 28.3600207 ], [ -16.3669334, 28.3600197 ], [ -16.3666516, 28.3595499 ], [ -16.367815, 28.3580968 ], [ -16.3672888, 28.3572387 ], [ -16.3679967, 28.3560538 ], [ -16.3676705, 28.3572528 ], [ -16.36901, 28.3574489 ], [ -16.3695444, 28.3543929 ], [ -16.3689034, 28.3497021 ], [ -16.3681089, 28.3493004 ], [ -16.3690233, 28.3465137 ], [ -16.3670221, 28.3450564 ], [ -16.3676717, 28.3435887 ], [ -16.366119, 28.3427589 ], [ -16.3672843, 28.3420675 ], [ -16.3671832, 28.341317 ], [ -16.3621729, 28.3329597 ], [ -16.3630067, 28.3274423 ], [ -16.3609657, 28.3216933 ], [ -16.3592915, 28.3194586 ], [ -16.3603203, 28.3152365 ], [ -16.359497, 28.3135587 ], [ -16.3614183, 28.3107973 ], [ -16.3620062, 28.3084612 ], [ -16.3612213, 28.3067308 ], [ -16.3621322, 28.3058185 ], [ -16.3616491, 28.3044785 ], [ -16.365072, 28.301317 ], [ -16.369805, 28.2997529 ], [ -16.3715159, 28.2964484 ], [ -16.3729214, 28.295427 ], [ -16.372505, 28.2942732 ], [ -16.3730382, 28.2953897 ], [ -16.3738079, 28.2952864 ], [ -16.374923, 28.2938695 ], [ -16.374454, 28.2934138 ], [ -16.3748182, 28.2927335 ], [ -16.3750348, 28.2937066 ], [ -16.3762152, 28.293143 ], [ -16.3760486, 28.2917598 ], [ -16.3772184, 28.291461 ], [ -16.3785618, 28.2891887 ], [ -16.3784601, 28.2879692 ], [ -16.3798012, 28.2864776 ], [ -16.3805616, 28.2863206 ], [ -16.3787156, 28.2879951 ], [ -16.3792683, 28.288489 ], [ -16.3807212, 28.2872559 ], [ -16.3803814, 28.2867967 ], [ -16.3835425, 28.2848526 ], [ -16.3840981, 28.2784807 ], [ -16.3828491, 28.2773846 ], [ -16.3842467, 28.2759075 ], [ -16.3836577, 28.2753676 ], [ -16.3842891, 28.2748674 ], [ -16.3835537, 28.2747051 ], [ -16.3840076, 28.2723386 ], [ -16.384811, 28.2723819 ], [ -16.3851458, 28.2709032 ], [ -16.3871633, 28.2687055 ], [ -16.3872988, 28.2645578 ], [ -16.3910121, 28.2602301 ], [ -16.3921486, 28.2602518 ], [ -16.3928983, 28.2584397 ], [ -16.3945805, 28.2581076 ], [ -16.3941501, 28.2561914 ], [ -16.3957507, 28.2550902 ], [ -16.3953945, 28.2536177 ], [ -16.3971158, 28.2500878 ], [ -16.3986656, 28.2480801 ], [ -16.4004366, 28.2474528 ], [ -16.4004391, 28.2457497 ], [ -16.4021832, 28.2444854 ], [ -16.4017096, 28.2410913 ], [ -16.4026949, 28.2398485 ], [ -16.4040637, 28.2397129 ], [ -16.4040489, 28.2388752 ], [ -16.4053624, 28.2380823 ], [ -16.4053056, 28.2366748 ], [ -16.4072589, 28.2349025 ], [ -16.4088327, 28.2306779 ], [ -16.4084971, 28.2277086 ], [ -16.4099055, 28.2258817 ], [ -16.4096258, 28.2236684 ], [ -16.411336, 28.221908 ], [ -16.4128848, 28.2217807 ], [ -16.4129533, 28.2200046 ], [ -16.4144475, 28.2194977 ], [ -16.4154675, 28.2164295 ], [ -16.4174148, 28.2154917 ], [ -16.4200042, 28.2100205 ], [ -16.421359, 28.2097869 ], [ -16.420881, 28.2085829 ], [ -16.4225347, 28.2069987 ], [ -16.4224678, 28.2060546 ], [ -16.424679, 28.2045502 ], [ -16.4250648, 28.2019702 ], [ -16.423693, 28.2000636 ], [ -16.4209664, 28.1985105 ], [ -16.4224139, 28.19575 ], [ -16.4217502, 28.1953073 ], [ -16.4221404, 28.1933257 ], [ -16.4231954, 28.1934861 ], [ -16.425127, 28.1919135 ], [ -16.4258074, 28.1899254 ], [ -16.4274123, 28.1885206 ], [ -16.4273496, 28.1831396 ], [ -16.4255974, 28.1825685 ], [ -16.4260475, 28.1808646 ], [ -16.4274629, 28.1802913 ], [ -16.4287689, 28.178255 ], [ -16.4281784, 28.1776032 ], [ -16.4292926, 28.1759402 ], [ -16.4287514, 28.1745966 ], [ -16.4303074, 28.173702 ], [ -16.4249846, 28.1682821 ], [ -16.4265745, 28.1643075 ], [ -16.4312221, 28.1647365 ], [ -16.4330649, 28.1599307 ], [ -16.4323551, 28.1592967 ], [ -16.4336477, 28.1592743 ], [ -16.4343898, 28.1568292 ], [ -16.4341678, 28.1550421 ], [ -16.4325098, 28.1529468 ], [ -16.4291367, 28.1534425 ], [ -16.4277141, 28.1516569 ], [ -16.4271223, 28.1523254 ], [ -16.4263106, 28.1518828 ], [ -16.4254664, 28.1504598 ], [ -16.4257424, 28.1492983 ], [ -16.4289026, 28.1452815 ], [ -16.4301186, 28.1452557 ], [ -16.4296995, 28.1445073 ], [ -16.4313438, 28.1426058 ], [ -16.4331402, 28.142927 ], [ -16.4332854, 28.1411023 ], [ -16.4346096, 28.1408709 ], [ -16.4367269, 28.1426941 ], [ -16.4377517, 28.141932 ], [ -16.4379626, 28.1427393 ], [ -16.4395059, 28.14264 ], [ -16.4400623, 28.1408337 ], [ -16.4415594, 28.1405528 ], [ -16.4423477, 28.1391557 ], [ -16.4419381, 28.1372632 ], [ -16.4431853, 28.1368823 ], [ -16.4417384, 28.1363702 ], [ -16.4417378, 28.1350525 ], [ -16.4444244, 28.1347358 ], [ -16.4452502, 28.1339314 ], [ -16.446018, 28.1352384 ], [ -16.4488965, 28.1346206 ], [ -16.4493943, 28.132666 ], [ -16.448782, 28.1293966 ], [ -16.4528936, 28.1266239 ], [ -16.4528819, 28.1255197 ], [ -16.4559018, 28.1253093 ], [ -16.4576866, 28.1232019 ], [ -16.4588735, 28.1233154 ], [ -16.4596755, 28.1217208 ], [ -16.4612583, 28.1214442 ], [ -16.4618167, 28.120161 ], [ -16.4630222, 28.1205558 ], [ -16.4639295, 28.1182873 ], [ -16.4619315, 28.1143983 ], [ -16.4639046, 28.1132312 ], [ -16.463359, 28.1122522 ], [ -16.4640152, 28.1114718 ], [ -16.4661277, 28.1118455 ], [ -16.4684374, 28.1109547 ], [ -16.468521, 28.109671 ], [ -16.4692323, 28.1084268 ], [ -16.470016, 28.1077788 ], [ -16.4693095, 28.1090199 ], [ -16.4722145, 28.1083019 ], [ -16.4729884, 28.1065333 ], [ -16.4727258, 28.1042636 ], [ -16.4740115, 28.1041642 ], [ -16.4735753, 28.1036001 ], [ -16.4749197, 28.1030398 ], [ -16.4752579, 28.1017996 ], [ -16.4762515, 28.1021488 ], [ -16.4773244, 28.1004968 ], [ -16.4782385, 28.1010665 ], [ -16.4796058, 28.099079 ], [ -16.4801492, 28.099438 ], [ -16.4806176, 28.0965263 ], [ -16.4841565, 28.0929753 ], [ -16.486151, 28.0928452 ], [ -16.4899357, 28.0902028 ], [ -16.4911255, 28.0874799 ], [ -16.4898629, 28.0866753 ], [ -16.4891959, 28.0848476 ], [ -16.4914137, 28.0859706 ], [ -16.4900912, 28.0849841 ], [ -16.4913714, 28.0816524 ], [ -16.4862307, 28.0771438 ], [ -16.4874887, 28.0711952 ], [ -16.4931285, 28.0649558 ], [ -16.4943436, 28.0658145 ], [ -16.4931669, 28.0651957 ], [ -16.487663, 28.0712601 ], [ -16.486881, 28.0774877 ], [ -16.4889929, 28.0784664 ], [ -16.491102, 28.076506 ], [ -16.4916958, 28.0775087 ], [ -16.4948662, 28.0746618 ], [ -16.4920079, 28.0773651 ], [ -16.4928094, 28.0782234 ], [ -16.4947215, 28.0788778 ], [ -16.4971254, 28.0768522 ], [ -16.4961247, 28.0726249 ], [ -16.4952652, 28.0727944 ], [ -16.4963961, 28.0716923 ], [ -16.494487, 28.0697978 ], [ -16.4966202, 28.0717237 ], [ -16.4961348, 28.0721699 ], [ -16.4977325, 28.0763365 ], [ -16.4991073, 28.0776404 ], [ -16.5014632, 28.0773293 ], [ -16.504088, 28.0757514 ], [ -16.5060269, 28.0727695 ], [ -16.5066193, 28.0676775 ], [ -16.5096873, 28.065974 ], [ -16.5095171, 28.0649976 ], [ -16.5117747, 28.065304 ], [ -16.5130348, 28.0638176 ], [ -16.5145444, 28.063871 ], [ -16.51364, 28.063217 ], [ -16.5146849, 28.0631667 ], [ -16.5146211, 28.0623903 ], [ -16.5159198, 28.0617673 ], [ -16.5154475, 28.0592916 ], [ -16.5176332, 28.0602553 ], [ -16.5206529, 28.0593601 ], [ -16.5215345, 28.0576453 ], [ -16.5210439, 28.0564246 ], [ -16.5224089, 28.0552708 ], [ -16.5213341, 28.0540342 ], [ -16.5237704, 28.0518281 ], [ -16.5254572, 28.0513309 ], [ -16.525284, 28.0501578 ], [ -16.5316583, 28.0496153 ], [ -16.5330631, 28.0474722 ], [ -16.5332909, 28.0435501 ], [ -16.5341406, 28.0427116 ], [ -16.5355196, 28.0421069 ], [ -16.5349052, 28.0427607 ], [ -16.5358645, 28.0438459 ], [ -16.5384108, 28.0440233 ], [ -16.5412884, 28.0421616 ], [ -16.5426411, 28.0392929 ], [ -16.5428771, 28.0361641 ], [ -16.5395393, 28.0330858 ], [ -16.5412902, 28.0301355 ], [ -16.541259, 28.0288752 ], [ -16.5428159, 28.0287101 ], [ -16.5464431, 28.0248741 ], [ -16.5509899, 28.0260538 ], [ -16.5518532, 28.0296086 ], [ -16.5575902, 28.0313055 ], [ -16.5666978, 28.0289799 ], [ -16.5687052, 28.0306862 ], [ -16.5747097, 28.0310032 ], [ -16.5775158, 28.0293432 ], [ -16.5801297, 28.0290426 ], [ -16.581498, 28.029996 ], [ -16.5819587, 28.0288741 ], [ -16.5867881, 28.0295712 ], [ -16.5885062, 28.0282398 ], [ -16.5917411, 28.0275116 ], [ -16.593166, 28.0276462 ], [ -16.5926339, 28.028622 ], [ -16.5955347, 28.0291962 ], [ -16.5968714, 28.0273292 ], [ -16.5969191, 28.0280236 ], [ -16.5990706, 28.0277751 ], [ -16.6005591, 28.0262192 ], [ -16.604172, 28.0251956 ], [ -16.6041114, 28.0241082 ], [ -16.6066218, 28.0229056 ], [ -16.6103155, 28.022604 ], [ -16.6099871, 28.0208727 ], [ -16.6131674, 28.0188823 ], [ -16.6143951, 28.0188607 ], [ -16.6149068, 28.0193833 ], [ -16.6137329, 28.0190261 ], [ -16.610517, 28.0207642 ], [ -16.6109414, 28.0220957 ], [ -16.6138008, 28.0201896 ], [ -16.614514, 28.020984 ], [ -16.6144269, 28.0200519 ], [ -16.6149296, 28.0208458 ], [ -16.6165105, 28.0206831 ], [ -16.6169207, 28.0196719 ], [ -16.6176577, 28.0199333 ], [ -16.6193549, 28.0183319 ], [ -16.6254895, 28.0185766 ], [ -16.6264772, 28.0159523 ], [ -16.6296478, 28.0148245 ], [ -16.6292973, 28.0140061 ], [ -16.6318275, 28.0126079 ], [ -16.6308747, 28.0097899 ], [ -16.6318143, 28.009931 ], [ -16.6333457, 28.0086421 ], [ -16.6334873, 28.0092522 ], [ -16.6383377, 28.0093258 ], [ -16.6383356, 28.00633 ], [ -16.6435919, 28.0037787 ], [ -16.6464993, 28.0039424 ], [ -16.649132, 28.0075657 ], [ -16.650454, 28.0078722 ], [ -16.6509066, 28.0072359 ], [ -16.6514495, 28.0081837 ], [ -16.6530242, 28.0060648 ], [ -16.6546708, 28.0062375 ], [ -16.656385, 28.0051687 ], [ -16.6563398, 28.0059799 ], [ -16.6580662, 28.0071228 ], [ -16.6595613, 28.0064605 ], [ -16.6615063, 28.0068857 ], [ -16.6588637, 28.0069419 ], [ -16.6591637, 28.0084099 ], [ -16.6612033, 28.0089179 ], [ -16.6615522, 28.0080277 ], [ -16.662854, 28.0079174 ], [ -16.6643935, 28.0085894 ], [ -16.6659175, 28.0077032 ], [ -16.6669225, 28.0053516 ], [ -16.666756, 28.0033404 ], [ -16.6718398, 28.0047362 ], [ -16.6746196, 28.0007974 ], [ -16.6788383, 27.9980751 ], [ -16.6819453, 27.9987704 ], [ -16.6857678, 27.9982216 ], [ -16.6886671, 27.9993698 ], [ -16.6912873, 27.9989258 ], [ -16.6911909, 27.9996771 ], [ -16.6924096, 28.0001732 ], [ -16.6939341, 27.9997037 ], [ -16.693773, 28.0003123 ], [ -16.6953847, 28.000566 ], [ -16.6953125, 28.0013578 ], [ -16.6983415, 28.0020758 ], [ -16.6997857, 28.0028749 ], [ -16.6998875, 28.0039464 ], [ -16.7017004, 28.0039759 ], [ -16.7030579, 28.0057734 ], [ -16.7040598, 28.0058211 ], [ -16.7078029, 28.0123997 ], [ -16.7070824, 28.0152689 ], [ -16.7061973, 28.0155011 ], [ -16.7069852, 28.0199447 ], [ -16.7045237, 28.0268616 ], [ -16.7066967, 28.0301268 ], [ -16.7063182, 28.0306375 ], [ -16.7084343, 28.0312817 ], [ -16.7092822, 28.0329491 ], [ -16.7086424, 28.034401 ], [ -16.7097901, 28.0348264 ], [ -16.7101092, 28.035855 ], [ -16.7087925, 28.0400457 ], [ -16.7096689, 28.04217 ], [ -16.711573, 28.0424977 ], [ -16.7102897, 28.0436065 ], [ -16.7119578, 28.0445764 ], [ -16.7109455, 28.0458258 ], [ -16.7112495, 28.0470737 ], [ -16.714476, 28.0493845 ], [ -16.7182632, 28.0499761 ], [ -16.7189497, 28.0494778 ], [ -16.7182437, 28.0489181 ], [ -16.7190638, 28.049332 ], [ -16.7197164, 28.0486045 ], [ -16.7181845, 28.0484833 ], [ -16.7187744, 28.047606 ], [ -16.7173034, 28.0458341 ], [ -16.7231334, 28.0492772 ], [ -16.7221271, 28.0491603 ], [ -16.7220721, 28.0502271 ], [ -16.7241554, 28.0520412 ], [ -16.7265156, 28.052412 ], [ -16.7275492, 28.0517466 ], [ -16.7267039, 28.0508402 ], [ -16.7282334, 28.0519171 ], [ -16.7313716, 28.0507816 ], [ -16.7300582, 28.0518596 ], [ -16.7323525, 28.052959 ], [ -16.7335118, 28.051803 ], [ -16.7325569, 28.0509876 ], [ -16.7336487, 28.0514731 ], [ -16.7334201, 28.0527262 ], [ -16.7347528, 28.0537054 ], [ -16.7358013, 28.0535238 ], [ -16.7371673, 28.0549897 ], [ -16.7372512, 28.0566339 ], [ -16.7363554, 28.0576573 ], [ -16.7366856, 28.0596562 ], [ -16.7331251, 28.0633155 ], [ -16.7325762, 28.0652495 ], [ -16.7331822, 28.0665935 ], [ -16.7344369, 28.0663966 ], [ -16.7345804, 28.0673011 ], [ -16.7339874, 28.0667211 ], [ -16.733299, 28.067689 ], [ -16.7343971, 28.0680754 ], [ -16.7347664, 28.069255 ], [ -16.734074, 28.0684695 ], [ -16.7328881, 28.0692296 ], [ -16.7329958, 28.0701 ], [ -16.7336903, 28.0698909 ], [ -16.7329557, 28.0707765 ], [ -16.7341766, 28.071483 ], [ -16.7342503, 28.0723921 ], [ -16.7335369, 28.0717536 ], [ -16.7328021, 28.0727967 ], [ -16.7338363, 28.0729743 ], [ -16.7335886, 28.0738426 ], [ -16.7347737, 28.07433 ], [ -16.7356323, 28.0763354 ], [ -16.7375224, 28.0771932 ], [ -16.7381831, 28.0781275 ], [ -16.7383999, 28.0794056 ], [ -16.7378199, 28.0801713 ], [ -16.7377795, 28.077898 ], [ -16.737377, 28.0774371 ], [ -16.7366608, 28.0771218 ], [ -16.7361334, 28.0788435 ], [ -16.7372216, 28.0789892 ], [ -16.7355204, 28.0798629 ], [ -16.7357778, 28.0805632 ], [ -16.7366359, 28.0801238 ], [ -16.7363402, 28.0812571 ], [ -16.7374664, 28.0823314 ], [ -16.736762, 28.0820541 ], [ -16.7362468, 28.0832234 ], [ -16.7374915, 28.0853874 ], [ -16.7382151, 28.0851743 ], [ -16.7375011, 28.0855383 ], [ -16.7378076, 28.0865648 ], [ -16.739883, 28.0885731 ], [ -16.740498, 28.0875277 ], [ -16.7409928, 28.0888052 ], [ -16.7404319, 28.0897964 ], [ -16.7431377, 28.0893306 ], [ -16.7429811, 28.0904099 ], [ -16.7457115, 28.0920327 ], [ -16.7464161, 28.0920289 ], [ -16.7464816, 28.0911092 ], [ -16.747221, 28.0913954 ], [ -16.7465051, 28.0920911 ], [ -16.7484269, 28.0933064 ], [ -16.7496866, 28.0933485 ], [ -16.7497633, 28.0924469 ], [ -16.7496885, 28.0937151 ], [ -16.7527283, 28.0985831 ], [ -16.7565363, 28.0983723 ], [ -16.7556556, 28.100911 ], [ -16.7567116, 28.1007061 ], [ -16.7575229, 28.1016343 ], [ -16.7592696, 28.1012291 ], [ -16.7595963, 28.1022256 ], [ -16.7587936, 28.1025926 ], [ -16.7581329, 28.1050708 ], [ -16.7591291, 28.105539 ], [ -16.7617512, 28.104748 ], [ -16.7604455, 28.1079473 ], [ -16.7617386, 28.1091571 ], [ -16.7624689, 28.1088676 ], [ -16.7625108, 28.1099262 ], [ -16.7637905, 28.1105316 ], [ -16.7694186, 28.1096379 ], [ -16.7684668, 28.1111814 ], [ -16.7692967, 28.1118638 ], [ -16.7678521, 28.1125775 ], [ -16.7681876, 28.1135725 ], [ -16.7692361, 28.1137556 ], [ -16.7712026, 28.1122296 ], [ -16.7726235, 28.1127246 ], [ -16.7736228, 28.1138026 ], [ -16.773373, 28.1157559 ], [ -16.7745126, 28.1160004 ], [ -16.7740032, 28.116481 ], [ -16.7745229, 28.118413 ], [ -16.7766693, 28.1172949 ], [ -16.7772362, 28.1180935 ], [ -16.7761532, 28.1197741 ], [ -16.7769124, 28.1191952 ], [ -16.7794393, 28.1202478 ], [ -16.7780205, 28.1216686 ], [ -16.7801215, 28.1213256 ], [ -16.7794343, 28.1222861 ], [ -16.7804837, 28.122156 ], [ -16.7798484, 28.1231537 ], [ -16.7805657, 28.1228063 ], [ -16.780069, 28.1233983 ], [ -16.7810374, 28.1237487 ], [ -16.7804952, 28.1250283 ], [ -16.7815811, 28.1270023 ], [ -16.7838311, 28.1265235 ], [ -16.7839488, 28.1285423 ], [ -16.7868102, 28.1303263 ], [ -16.7859178, 28.1310917 ], [ -16.7863589, 28.1337633 ], [ -16.7871555, 28.133234 ], [ -16.7865799, 28.1345375 ], [ -16.7876459, 28.1341928 ], [ -16.7890729, 28.1378262 ], [ -16.7917398, 28.139582 ], [ -16.7924145, 28.1389161 ], [ -16.7935773, 28.1401941 ], [ -16.7939772, 28.1429367 ], [ -16.7951056, 28.142688 ], [ -16.7946428, 28.1448087 ], [ -16.7961421, 28.1463616 ], [ -16.7976707, 28.1467194 ], [ -16.7978076, 28.1484092 ], [ -16.798836, 28.1493768 ], [ -16.7986796, 28.1528202 ], [ -16.8009538, 28.1537412 ], [ -16.8005235, 28.1546708 ], [ -16.8021743, 28.1552631 ], [ -16.8021062, 28.1567388 ], [ -16.8035521, 28.1566445 ], [ -16.804292, 28.1577616 ], [ -16.8036685, 28.158675 ], [ -16.8060542, 28.1631519 ], [ -16.8050279, 28.1675388 ], [ -16.8071342, 28.1682707 ], [ -16.8049403, 28.1687747 ], [ -16.8044227, 28.1703849 ], [ -16.805746, 28.1706651 ], [ -16.8058496, 28.1722838 ], [ -16.807786, 28.1723705 ], [ -16.8074225, 28.1732133 ], [ -16.8083522, 28.1735509 ], [ -16.8068741, 28.1745021 ], [ -16.8079102, 28.1745205 ], [ -16.8077664, 28.1754437 ], [ -16.8099507, 28.1763568 ], [ -16.8115705, 28.1787171 ], [ -16.8126845, 28.1787724 ], [ -16.8122366, 28.1791854 ], [ -16.8130385, 28.1800114 ], [ -16.8148085, 28.1803508 ], [ -16.8155541, 28.1795735 ], [ -16.8142814, 28.178131 ], [ -16.8196825, 28.1807468 ], [ -16.8191588, 28.1818224 ], [ -16.8205843, 28.1825064 ], [ -16.8203137, 28.1837287 ], [ -16.8213254, 28.1847654 ], [ -16.8209061, 28.1855982 ], [ -16.823493, 28.1886823 ], [ -16.8235543, 28.1908173 ], [ -16.8256403, 28.1914943 ], [ -16.827843, 28.1935902 ], [ -16.8263797, 28.1950932 ], [ -16.8276277, 28.1955642 ], [ -16.8267819, 28.196235 ], [ -16.827933, 28.1969151 ], [ -16.8280635, 28.1980528 ], [ -16.8292265, 28.1981223 ], [ -16.8280226, 28.1998243 ], [ -16.8291043, 28.19955 ], [ -16.8283895, 28.1999656 ], [ -16.829576, 28.2011325 ], [ -16.8312515, 28.2008111 ], [ -16.8321516, 28.2018715 ], [ -16.8330368, 28.2017428 ], [ -16.8348158, 28.2064471 ], [ -16.837445, 28.2074775 ], [ -16.8363262, 28.2080793 ], [ -16.8367262, 28.2090168 ], [ -16.8360271, 28.210175 ], [ -16.8381883, 28.2126948 ], [ -16.8365192, 28.2136907 ], [ -16.8369253, 28.2152359 ], [ -16.8362361, 28.2173926 ], [ -16.8387221, 28.2192769 ], [ -16.8397606, 28.2212707 ], [ -16.8383476, 28.2241804 ], [ -16.8392911, 28.226353 ], [ -16.8432259, 28.2265432 ], [ -16.8435555, 28.2271302 ], [ -16.842891, 28.2272081 ], [ -16.8435827, 28.2278388 ], [ -16.8431425, 28.2288892 ], [ -16.8412941, 28.2290257 ], [ -16.841368, 28.2302859 ], [ -16.8422921, 28.2303375 ], [ -16.8417873, 28.2335985 ], [ -16.8436018, 28.235482 ], [ -16.8429282, 28.2357615 ], [ -16.8434708, 28.2366516 ], [ -16.8428611, 28.2373463 ], [ -16.8453423, 28.2374893 ], [ -16.8464098, 28.2392116 ], [ -16.8455293, 28.2404352 ], [ -16.8426349, 28.2406248 ], [ -16.8428429, 28.2411254 ], [ -16.8438394, 28.2416891 ], [ -16.8433007, 28.2426499 ], [ -16.8420158, 28.2428265 ], [ -16.8437333, 28.2442846 ], [ -16.8429131, 28.246363 ], [ -16.8441392, 28.2474148 ], [ -16.8420349, 28.2489024 ], [ -16.8437163, 28.2473479 ], [ -16.8426311, 28.2462976 ], [ -16.8413423, 28.2473439 ], [ -16.8420145, 28.248339 ], [ -16.8409789, 28.2474489 ], [ -16.8400191, 28.2478439 ], [ -16.8383886, 28.2525636 ], [ -16.8378461, 28.2566654 ], [ -16.8396957, 28.2615301 ], [ -16.8414188, 28.2627466 ], [ -16.8409231, 28.2642509 ], [ -16.8447343, 28.2653089 ], [ -16.8507133, 28.2686515 ], [ -16.8494892, 28.2701609 ], [ -16.8501106, 28.2727967 ], [ -16.8559638, 28.273194 ], [ -16.8592877, 28.2747917 ], [ -16.8614182, 28.2806688 ], [ -16.8633549, 28.2831005 ], [ -16.8625193, 28.283939 ], [ -16.862993, 28.2843938 ], [ -16.8614579, 28.2849272 ], [ -16.8616827, 28.2879282 ], [ -16.8633261, 28.2896039 ], [ -16.8641431, 28.2888551 ], [ -16.8662755, 28.2900611 ], [ -16.8649988, 28.2913742 ], [ -16.8663989, 28.2927583 ], [ -16.8681147, 28.2930451 ], [ -16.8665384, 28.2928905 ], [ -16.8695643, 28.2950936 ], [ -16.870759, 28.2974665 ], [ -16.8707365, 28.2994765 ], [ -16.8759641, 28.3000261 ], [ -16.8800321, 28.3029059 ], [ -16.8813612, 28.3051832 ], [ -16.8817705, 28.3086496 ], [ -16.8803685, 28.3110157 ], [ -16.8804303, 28.312423 ], [ -16.8858921, 28.317005 ], [ -16.8883381, 28.3169626 ], [ -16.8906729, 28.3202944 ], [ -16.8921985, 28.3203783 ], [ -16.8943649, 28.3228027 ], [ -16.8948623, 28.3267452 ], [ -16.8960683, 28.3268747 ], [ -16.8975901, 28.3285187 ], [ -16.8960758, 28.3308238 ], [ -16.8967303, 28.3319834 ], [ -16.8997055, 28.3324443 ], [ -16.9025256, 28.334362 ], [ -16.9043256, 28.3379531 ], [ -16.9062852, 28.3391057 ], [ -16.9082271, 28.3396647 ], [ -16.9104503, 28.3383888 ], [ -16.9112322, 28.3386965 ], [ -16.9113302, 28.3399435 ], [ -16.9177889, 28.3427063 ], [ -16.9199051, 28.3427672 ], [ -16.919149, 28.3420686 ], [ -16.9200431, 28.3420328 ], [ -16.9205488, 28.3408667 ], [ -16.9217134, 28.3419616 ], [ -16.9238186, 28.3412929 ], [ -16.9256645, 28.3421156 ] ] ], [ [ [ -16.6487375, 28.3971101 ], [ -16.648234, 28.396587 ], [ -16.6484759, 28.3964727 ], [ -16.6487375, 28.3971101 ] ] ], [ [ [ -16.574716, 28.4045536 ], [ -16.5746071, 28.4042687 ], [ -16.574776, 28.4042562 ], [ -16.574716, 28.4045536 ] ] ], [ [ [ -16.5736542, 28.4046799 ], [ -16.5738656, 28.4042239 ], [ -16.5739861, 28.4044248 ], [ -16.5736542, 28.4046799 ] ] ], [ [ [ -16.4873225, 28.4404511 ], [ -16.4868368, 28.4401342 ], [ -16.4865035, 28.4393638 ], [ -16.48729, 28.4396185 ], [ -16.4873225, 28.4404511 ] ] ], [ [ [ -16.4592697, 28.4604387 ], [ -16.4589146, 28.4602916 ], [ -16.4591112, 28.4602555 ], [ -16.4592697, 28.4604387 ] ] ], [ [ [ -16.4563228, 28.4621122 ], [ -16.4566063, 28.4621817 ], [ -16.4566541, 28.4622949 ], [ -16.4563228, 28.4621122 ] ] ], [ [ [ -16.4552107, 28.4628221 ], [ -16.4554769, 28.4626635 ], [ -16.4555694, 28.4628786 ], [ -16.4552107, 28.4628221 ] ] ], [ [ [ -16.4476289, 28.4756922 ], [ -16.4476846, 28.4753186 ], [ -16.4478576, 28.4757231 ], [ -16.4476289, 28.4756922 ] ] ], [ [ [ -16.1862414, 28.506766 ], [ -16.1845463, 28.5079162 ], [ -16.1818641, 28.508727 ], [ -16.1806839, 28.5086516 ], [ -16.1856728, 28.5070677 ], [ -16.1882263, 28.5035887 ], [ -16.1862414, 28.506766 ] ] ], [ [ [ -16.4227791, 28.5100217 ], [ -16.422556, 28.5094636 ], [ -16.4231053, 28.5099086 ], [ -16.4227791, 28.5100217 ] ] ], [ [ [ -16.3723867, 28.5469777 ], [ -16.3723215, 28.5469119 ], [ -16.3723731, 28.5468815 ], [ -16.3723867, 28.5469777 ] ] ], [ [ [ -16.2756929, 28.5727163 ], [ -16.2758411, 28.5723848 ], [ -16.2759362, 28.5725493 ], [ -16.2756929, 28.5727163 ] ] ], [ [ [ -16.1607048, 28.5936205 ], [ -16.1585898, 28.5944986 ], [ -16.1581472, 28.5930591 ], [ -16.1588685, 28.5911877 ], [ -16.1611966, 28.5921666 ], [ -16.1607048, 28.5936205 ] ] ], [ [ [ -16.1574422, 28.6034807 ], [ -16.1555076, 28.6053951 ], [ -16.1546223, 28.6051504 ], [ -16.1575078, 28.6016383 ], [ -16.1574422, 28.6034807 ] ] ] ] } }
]
}
