{
"type": "FeatureCollection",
"name": "texel",
"crs": { "type": "name", "properties": { "name": "urn:ogc:def:crs:OGC:1.3:CRS84" } },
"features": [
{ "type": "Feature", "properties": { }, "geometry": { "type": "Polygon", "coordinates": [ [ [ 4.6130007, 52.9794833 ], [ 4.6133295, 52.960973 ], [ 4.6462013, 52.9410693 ], [ 4.7410337, 52.9802438 ], [ 4.7916528, 52.9805066 ], [ 4.8762466, 53.0219782 ], [ 4.9324352, 53.0440286 ], [ 5.0069862, 53.0442886 ], [ 5.0744939, 53.0184242 ], [ 5.1442814, 53.0261524 ], [ 5.0509526, 53.1432657 ], [ 4.8183758, 53.2142748 ], [ 4.818789, 53.1828265 ], [ 4.71555, 53.0879394 ], [ 4.6863533, 53.0473339 ], [ 4.6870768, 53.0024062 ], [ 4.6130007, 52.9794833 ] ] ] } }
]
}
