{
"type": "FeatureCollection",
"name": "zakynthos",
"crs": { "type": "name", "properties": { "name": "urn:ogc:def:crs:OGC:1.3:CRS84" } },
"features": [
{ "type": "Feature", "properties": { }, "geometry": { "type": "MultiPolygon", "coordinates": [ [ [ [ 20.7588796, 37.6998125 ], [ 20.759013, 37.6997807 ], [ 20.7587941, 37.6997414 ], [ 20.7588796, 37.6998125 ] ] ], [ [ [ 20.7560599, 37.7084994 ], [ 20.7561568, 37.7084355 ], [ 20.7560683, 37.7083962 ], [ 20.7560599, 37.7084994 ] ] ], [ [ [ 20.7521251, 37.7116839 ], [ 20.7521479, 37.7115725 ], [ 20.7520902, 37.7116208 ], [ 20.7521251, 37.7116839 ] ] ], [ [ [ 20.7271188, 37.7221157 ], [ 20.7271205, 37.7220711 ], [ 20.7270924, 37.7221003 ], [ 20.7271188, 37.7221157 ] ] ], [ [ [ 20.6842605, 37.7640284 ], [ 20.6843356, 37.7639356 ], [ 20.6842696, 37.7639197 ], [ 20.6842605, 37.7640284 ] ] ], [ [ [ 20.6792887, 37.7647599 ], [ 20.6793162, 37.7646828 ], [ 20.6792548, 37.7647157 ], [ 20.6792887, 37.7647599 ] ] ], [ [ [ 20.6783021, 37.7649335 ], [ 20.6783124, 37.7648926 ], [ 20.678279, 37.7649082 ], [ 20.6783021, 37.7649335 ] ] ], [ [ [ 20.6779939, 37.765173 ], [ 20.6780066, 37.7651363 ], [ 20.677977, 37.7651583 ], [ 20.6779939, 37.765173 ] ] ], [ [ [ 20.6780881, 37.7652243 ], [ 20.6780663, 37.765179 ], [ 20.6780509, 37.7652169 ], [ 20.6780881, 37.7652243 ] ] ], [ [ [ 20.6778707, 37.7653398 ], [ 20.677909, 37.7652264 ], [ 20.6778137, 37.7652899 ], [ 20.6778707, 37.7653398 ] ] ], [ [ [ 20.6764922, 37.766528 ], [ 20.6765103, 37.7664843 ], [ 20.6764673, 37.766505 ], [ 20.6764922, 37.766528 ] ] ], [ [ [ 20.6765995, 37.7665814 ], [ 20.6766823, 37.766502 ], [ 20.6765944, 37.7664997 ], [ 20.6765995, 37.7665814 ] ] ], [ [ [ 20.6246803, 37.8461973 ], [ 20.6246965, 37.8461572 ], [ 20.62467, 37.8461776 ], [ 20.6246803, 37.8461973 ] ] ], [ [ [ 20.6242528, 37.8463932 ], [ 20.624286, 37.8463527 ], [ 20.6242335, 37.8463637 ], [ 20.6242528, 37.8463932 ] ] ], [ [ [ 20.6228054, 37.8473777 ], [ 20.6228098, 37.8473446 ], [ 20.6227798, 37.84735 ], [ 20.6228054, 37.8473777 ] ] ], [ [ [ 20.6227742, 37.8475314 ], [ 20.6227417, 37.84751 ], [ 20.622743, 37.8475277 ], [ 20.6227742, 37.8475314 ] ] ], [ [ [ 20.7345214, 37.8684557 ], [ 20.7344865, 37.8683972 ], [ 20.734451, 37.8684562 ], [ 20.7345214, 37.8684557 ] ] ], [ [ [ 20.7246559, 37.8808438 ], [ 20.7246619, 37.8808132 ], [ 20.7246403, 37.880825 ], [ 20.7246559, 37.8808438 ] ] ], [ [ [ 20.7246561, 37.8809465 ], [ 20.7247039, 37.8809072 ], [ 20.7246494, 37.8809125 ], [ 20.7246561, 37.8809465 ] ] ], [ [ [ 20.7247424, 37.8809631 ], [ 20.724836, 37.8809369 ], [ 20.7247277, 37.8809274 ], [ 20.7247424, 37.8809631 ] ] ], [ [ [ 20.7208198, 37.885591 ], [ 20.7207989, 37.8855641 ], [ 20.7207885, 37.8855829 ], [ 20.7208198, 37.885591 ] ] ], [ [ [ 20.7153056, 37.8906051 ], [ 20.7153896, 37.8905958 ], [ 20.7153924, 37.8904971 ], [ 20.7153056, 37.8906051 ] ] ], [ [ [ 20.6429456, 37.8957913 ], [ 20.6433275, 37.8963018 ], [ 20.643564, 37.8954806 ], [ 20.6429456, 37.8957913 ] ] ], [ [ [ 20.8448363, 37.6466103 ], [ 20.8449637, 37.6465835 ], [ 20.8448591, 37.6465153 ], [ 20.8448363, 37.6466103 ] ] ], [ [ [ 20.8437272, 37.6466921 ], [ 20.8441289, 37.646605 ], [ 20.8437198, 37.6465599 ], [ 20.8437272, 37.6466921 ] ] ], [ [ [ 20.8154051, 37.6483098 ], [ 20.816474, 37.6495756 ], [ 20.8162172, 37.6483367 ], [ 20.8154051, 37.6483098 ] ] ], [ [ [ 20.8478189, 37.6507146 ], [ 20.84809, 37.6508014 ], [ 20.8481398, 37.6506639 ], [ 20.8478189, 37.6507146 ] ] ], [ [ [ 20.8517108, 37.6539953 ], [ 20.8519757, 37.653793 ], [ 20.8516438, 37.6539242 ], [ 20.8517108, 37.6539953 ] ] ], [ [ [ 20.8566702, 37.655038 ], [ 20.8568774, 37.6549886 ], [ 20.8568741, 37.6549206 ], [ 20.8566702, 37.655038 ] ] ], [ [ [ 20.8566598, 37.655808 ], [ 20.8567182, 37.6557669 ], [ 20.8566535, 37.6557703 ], [ 20.8566598, 37.655808 ] ] ], [ [ [ 20.8569542, 37.6559397 ], [ 20.8569458, 37.6558701 ], [ 20.8569006, 37.655924 ], [ 20.8569542, 37.6559397 ] ] ], [ [ [ 20.8570132, 37.6563498 ], [ 20.8570296, 37.6562837 ], [ 20.8570001, 37.6562969 ], [ 20.8570132, 37.6563498 ] ] ], [ [ [ 20.857091, 37.6680816 ], [ 20.8570628, 37.6680357 ], [ 20.8570424, 37.668076 ], [ 20.857091, 37.6680816 ] ] ], [ [ [ 20.8569827, 37.6681105 ], [ 20.8569626, 37.6680667 ], [ 20.8569096, 37.6680887 ], [ 20.8569827, 37.6681105 ] ] ], [ [ [ 20.853203, 37.6694109 ], [ 20.8531642, 37.6694001 ], [ 20.8531601, 37.669412 ], [ 20.853203, 37.6694109 ] ] ], [ [ [ 20.8524508, 37.6697846 ], [ 20.8524152, 37.669744 ], [ 20.8524045, 37.6697612 ], [ 20.8524508, 37.6697846 ] ] ], [ [ [ 20.796814, 37.6709605 ], [ 20.7968744, 37.6708981 ], [ 20.7967594, 37.6709024 ], [ 20.796814, 37.6709605 ] ] ], [ [ [ 20.79658, 37.6711017 ], [ 20.7969314, 37.6711338 ], [ 20.7965358, 37.6710544 ], [ 20.79658, 37.6711017 ] ] ], [ [ [ 20.7965136, 37.6712089 ], [ 20.7966897, 37.6711965 ], [ 20.7964496, 37.6711248 ], [ 20.7965136, 37.6712089 ] ] ], [ [ [ 20.7938643, 37.6726748 ], [ 20.7938415, 37.6725533 ], [ 20.7937701, 37.6726017 ], [ 20.7938643, 37.6726748 ] ] ], [ [ [ 20.7923549, 37.673351 ], [ 20.792318, 37.6732993 ], [ 20.7922908, 37.6733348 ], [ 20.7923549, 37.673351 ] ] ], [ [ [ 20.7921634, 37.6735225 ], [ 20.7920927, 37.6734396 ], [ 20.7920672, 37.673489 ], [ 20.7921634, 37.6735225 ] ] ], [ [ [ 20.8455092, 37.6781093 ], [ 20.8455451, 37.6780265 ], [ 20.8454606, 37.6780957 ], [ 20.8455092, 37.6781093 ] ] ], [ [ [ 20.8453671, 37.678291 ], [ 20.8453979, 37.6782473 ], [ 20.8453407, 37.6782595 ], [ 20.8453671, 37.678291 ] ] ], [ [ [ 20.7649688, 37.6932752 ], [ 20.7654811, 37.6931479 ], [ 20.7649447, 37.6929908 ], [ 20.7649688, 37.6932752 ] ] ], [ [ [ 20.6184257, 37.8619324 ], [ 20.6239991, 37.8592772 ], [ 20.6252426, 37.8601823 ], [ 20.6244627, 37.8635649 ], [ 20.6215269, 37.867309 ], [ 20.6261284, 37.866763 ], [ 20.6267876, 37.8681218 ], [ 20.6279955, 37.8681061 ], [ 20.6281143, 37.8709776 ], [ 20.6252858, 37.8715774 ], [ 20.6273496, 37.8721986 ], [ 20.6284465, 37.8739035 ], [ 20.627915, 37.875612 ], [ 20.6287287, 37.8761798 ], [ 20.6283765, 37.8779098 ], [ 20.627421, 37.8783645 ], [ 20.6285314, 37.8782586 ], [ 20.6278769, 37.8796347 ], [ 20.6291175, 37.8803988 ], [ 20.6304525, 37.8798614 ], [ 20.6307391, 37.8810786 ], [ 20.6314152, 37.8811035 ], [ 20.6330847, 37.879622 ], [ 20.6338285, 37.881764 ], [ 20.6321974, 37.8840758 ], [ 20.6335747, 37.8841865 ], [ 20.6348723, 37.8856611 ], [ 20.6375875, 37.8856071 ], [ 20.6399042, 37.8868824 ], [ 20.6411299, 37.8888995 ], [ 20.640085, 37.8910463 ], [ 20.6420908, 37.891219 ], [ 20.643642, 37.8939426 ], [ 20.6422186, 37.8952028 ], [ 20.6405923, 37.8941703 ], [ 20.6401922, 37.8956122 ], [ 20.6459986, 37.8949354 ], [ 20.6464398, 37.8969181 ], [ 20.6451817, 37.8999503 ], [ 20.6490452, 37.9028643 ], [ 20.650319, 37.9015513 ], [ 20.6520637, 37.9013624 ], [ 20.6521849, 37.9006086 ], [ 20.6537465, 37.9009138 ], [ 20.6538172, 37.9025202 ], [ 20.6520004, 37.9041465 ], [ 20.6524642, 37.9050744 ], [ 20.6543787, 37.9061659 ], [ 20.6570546, 37.9055635 ], [ 20.6572968, 37.9064256 ], [ 20.6566209, 37.9066889 ], [ 20.6578891, 37.9062468 ], [ 20.6600007, 37.906517 ], [ 20.6600548, 37.907275 ], [ 20.6619122, 37.9069642 ], [ 20.6625309, 37.9083 ], [ 20.6602501, 37.9099087 ], [ 20.6656615, 37.9134765 ], [ 20.6703176, 37.9148656 ], [ 20.6735598, 37.9173979 ], [ 20.6761932, 37.9183256 ], [ 20.6786429, 37.9206469 ], [ 20.6806777, 37.9248003 ], [ 20.6844507, 37.9248882 ], [ 20.6862232, 37.9261838 ], [ 20.6920134, 37.9277992 ], [ 20.6941656, 37.9290631 ], [ 20.6959035, 37.9318012 ], [ 20.6992007, 37.9338691 ], [ 20.7023614, 37.9318671 ], [ 20.7049144, 37.9315631 ], [ 20.7055004, 37.9308664 ], [ 20.7044905, 37.9297388 ], [ 20.7052343, 37.9288944 ], [ 20.7042968, 37.9268747 ], [ 20.7101498, 37.9237294 ], [ 20.709522, 37.9195459 ], [ 20.7113916, 37.9176784 ], [ 20.7093313, 37.9140547 ], [ 20.7097204, 37.9135655 ], [ 20.708474, 37.9128622 ], [ 20.7102319, 37.9084894 ], [ 20.7070815, 37.9076646 ], [ 20.706284, 37.9081786 ], [ 20.7059195, 37.9064716 ], [ 20.7069555, 37.9052759 ], [ 20.7094459, 37.9054363 ], [ 20.7088893, 37.9044955 ], [ 20.7108578, 37.9026177 ], [ 20.7106341, 37.9015711 ], [ 20.7134765, 37.8991582 ], [ 20.7142547, 37.8967805 ], [ 20.7166121, 37.895427 ], [ 20.7170293, 37.8931799 ], [ 20.7162824, 37.8933475 ], [ 20.7160755, 37.8916618 ], [ 20.7148577, 37.891049 ], [ 20.7152757, 37.8898255 ], [ 20.7179416, 37.8892708 ], [ 20.7178771, 37.8879807 ], [ 20.7169757, 37.8872816 ], [ 20.7178699, 37.8870523 ], [ 20.717707, 37.8863123 ], [ 20.7191851, 37.8864861 ], [ 20.7196604, 37.8873008 ], [ 20.7211027, 37.8858754 ], [ 20.7202109, 37.8852502 ], [ 20.7205455, 37.8846387 ], [ 20.7220978, 37.8834812 ], [ 20.7235924, 37.8836127 ], [ 20.7219519, 37.8824672 ], [ 20.7243515, 37.8812634 ], [ 20.7251109, 37.8816759 ], [ 20.7245465, 37.8808068 ], [ 20.7248384, 37.8804449 ], [ 20.7245118, 37.8802925 ], [ 20.7250867, 37.8787213 ], [ 20.7268761, 37.8777568 ], [ 20.7305423, 37.8807445 ], [ 20.7334062, 37.8807489 ], [ 20.7332476, 37.8769098 ], [ 20.7339114, 37.8752476 ], [ 20.7333088, 37.8743926 ], [ 20.7346093, 37.8714312 ], [ 20.7339416, 37.8685325 ], [ 20.7353057, 37.8679117 ], [ 20.7361142, 37.8686385 ], [ 20.7369786, 37.8679048 ], [ 20.7362731, 37.8658183 ], [ 20.7373005, 37.8643945 ], [ 20.7391529, 37.8636406 ], [ 20.7390791, 37.8625656 ], [ 20.7417699, 37.8593128 ], [ 20.7477262, 37.8559257 ], [ 20.7488534, 37.8541109 ], [ 20.760545, 37.8464435 ], [ 20.7652172, 37.8442198 ], [ 20.7658249, 37.8448629 ], [ 20.7652157, 37.8440616 ], [ 20.7689018, 37.8422579 ], [ 20.7703933, 37.8418975 ], [ 20.771218, 37.8427129 ], [ 20.7705384, 37.8418318 ], [ 20.7713788, 37.8412394 ], [ 20.7758184, 37.8404852 ], [ 20.7786694, 37.8408917 ], [ 20.7810259, 37.8424541 ], [ 20.7811321, 37.8433767 ], [ 20.7804224, 37.8436326 ], [ 20.7805187, 37.8448207 ], [ 20.7796191, 37.8448654 ], [ 20.7794035, 37.8440477 ], [ 20.7794549, 37.8448481 ], [ 20.7804794, 37.8449703 ], [ 20.7806857, 37.8447489 ], [ 20.780663, 37.8438707 ], [ 20.7819415, 37.8437798 ], [ 20.78597, 37.8455652 ], [ 20.7869686, 37.8470431 ], [ 20.7897483, 37.8468316 ], [ 20.7898567, 37.8481119 ], [ 20.7936821, 37.8450969 ], [ 20.7968343, 37.8442978 ], [ 20.7992102, 37.8448502 ], [ 20.7993289, 37.8437323 ], [ 20.8020771, 37.8428361 ], [ 20.8032239, 37.843292 ], [ 20.8041254, 37.8417744 ], [ 20.8107964, 37.8392679 ], [ 20.817052, 37.8389357 ], [ 20.8193179, 37.8394885 ], [ 20.8196137, 37.840577 ], [ 20.8203343, 37.8408101 ], [ 20.8212168, 37.8406655 ], [ 20.8197769, 37.8404955 ], [ 20.8196106, 37.8397331 ], [ 20.820729, 37.8396862 ], [ 20.8209641, 37.8403656 ], [ 20.8208488, 37.8396016 ], [ 20.8267243, 37.836528 ], [ 20.8282447, 37.8359025 ], [ 20.8290652, 37.8364343 ], [ 20.8294425, 37.8362722 ], [ 20.8285511, 37.8356473 ], [ 20.830161, 37.8345988 ], [ 20.8359259, 37.8328678 ], [ 20.8405387, 37.8294902 ], [ 20.8467088, 37.8267579 ], [ 20.8549084, 37.825633 ], [ 20.8594123, 37.827061 ], [ 20.8606532, 37.8255053 ], [ 20.8596005, 37.8255836 ], [ 20.8595449, 37.8238224 ], [ 20.8636429, 37.8215019 ], [ 20.8673541, 37.8212245 ], [ 20.8678212, 37.8203738 ], [ 20.8673737, 37.8208859 ], [ 20.8665409, 37.8196679 ], [ 20.8679775, 37.8180311 ], [ 20.8763666, 37.81619 ], [ 20.8794924, 37.816361 ], [ 20.8803079, 37.817174 ], [ 20.8829963, 37.8166594 ], [ 20.8928453, 37.8110884 ], [ 20.8943841, 37.809136 ], [ 20.8981086, 37.8069546 ], [ 20.9034394, 37.804901 ], [ 20.9047281, 37.8051943 ], [ 20.9046499, 37.8026645 ], [ 20.9011473, 37.796796 ], [ 20.9018002, 37.7956633 ], [ 20.901344, 37.7948381 ], [ 20.9015718, 37.7957467 ], [ 20.901244, 37.7958862 ], [ 20.9006026, 37.7946279 ], [ 20.9000343, 37.7917682 ], [ 20.9009665, 37.7895206 ], [ 20.9011215, 37.7857181 ], [ 20.9045214, 37.7831924 ], [ 20.9056178, 37.7812121 ], [ 20.9043345, 37.7830841 ], [ 20.9003251, 37.7861072 ], [ 20.8990428, 37.7855037 ], [ 20.897459, 37.7809936 ], [ 20.8995237, 37.7778467 ], [ 20.9004584, 37.7784227 ], [ 20.9001429, 37.7796124 ], [ 20.9013506, 37.7793378 ], [ 20.9030182, 37.7804252 ], [ 20.9031216, 37.7813797 ], [ 20.9031511, 37.780063 ], [ 20.9043845, 37.7785829 ], [ 20.9028593, 37.7795302 ], [ 20.9003278, 37.7780438 ], [ 20.9007727, 37.7768935 ], [ 20.9034904, 37.7767785 ], [ 20.903505, 37.7781694 ], [ 20.9039777, 37.7778735 ], [ 20.9035456, 37.776632 ], [ 20.9011815, 37.7763156 ], [ 20.9010469, 37.7756506 ], [ 20.9059384, 37.7732611 ], [ 20.9126488, 37.7712883 ], [ 20.9172262, 37.7676687 ], [ 20.9219173, 37.7668092 ], [ 20.9298177, 37.7625106 ], [ 20.9363767, 37.7609119 ], [ 20.9401641, 37.7610882 ], [ 20.9410652, 37.7603213 ], [ 20.9414938, 37.7579175 ], [ 20.942947, 37.7574912 ], [ 20.9428301, 37.7540524 ], [ 20.9439694, 37.7538067 ], [ 20.9448528, 37.7522367 ], [ 20.9465923, 37.7519827 ], [ 20.947017, 37.7493617 ], [ 20.9488232, 37.7479141 ], [ 20.9497926, 37.7452102 ], [ 20.9515908, 37.7439919 ], [ 20.9570416, 37.742107 ], [ 20.9588012, 37.7403418 ], [ 20.9631516, 37.7395825 ], [ 20.9660837, 37.7369399 ], [ 20.986753, 37.7300282 ], [ 20.9932239, 37.7284956 ], [ 20.9908972, 37.728727 ], [ 20.9893073, 37.7270301 ], [ 20.989185, 37.7255353 ], [ 20.9906359, 37.7246176 ], [ 20.9891319, 37.7235619 ], [ 20.9878461, 37.7205873 ], [ 20.9899126, 37.7169854 ], [ 20.9918313, 37.7163724 ], [ 20.9939975, 37.7171321 ], [ 20.993079, 37.7162908 ], [ 20.9923832, 37.7120701 ], [ 20.988831, 37.7082633 ], [ 20.9907927, 37.705031 ], [ 20.9929869, 37.7040144 ], [ 20.9933299, 37.7030477 ], [ 20.9919557, 37.7030461 ], [ 20.9914587, 37.7007952 ], [ 20.9904062, 37.7009444 ], [ 20.9892606, 37.7004134 ], [ 20.9894906, 37.6993244 ], [ 20.9882086, 37.6980898 ], [ 20.9853051, 37.6974923 ], [ 20.9845242, 37.6986856 ], [ 20.988897, 37.7003846 ], [ 20.9888361, 37.7023303 ], [ 20.9896707, 37.7034483 ], [ 20.9872411, 37.706585 ], [ 20.9838162, 37.708071 ], [ 20.9810988, 37.7074992 ], [ 20.9756229, 37.7079985 ], [ 20.9706073, 37.7133188 ], [ 20.9644098, 37.7143171 ], [ 20.9639962, 37.717492 ], [ 20.9629144, 37.7192447 ], [ 20.9589988, 37.7202917 ], [ 20.9504925, 37.7208618 ], [ 20.9493767, 37.7216434 ], [ 20.9469933, 37.7208142 ], [ 20.9445445, 37.7232974 ], [ 20.9416725, 37.7230872 ], [ 20.9415096, 37.7238577 ], [ 20.9390345, 37.7247615 ], [ 20.9371437, 37.7243693 ], [ 20.9364394, 37.7254053 ], [ 20.9338411, 37.7262307 ], [ 20.9335894, 37.72778 ], [ 20.9314871, 37.7291676 ], [ 20.9274072, 37.729016 ], [ 20.9245546, 37.7307019 ], [ 20.9242795, 37.7323897 ], [ 20.9195036, 37.7368893 ], [ 20.9087607, 37.7371762 ], [ 20.8917367, 37.734041 ], [ 20.8745693, 37.728218 ], [ 20.8646495, 37.7227081 ], [ 20.8619759, 37.7201223 ], [ 20.8614311, 37.7178376 ], [ 20.8624094, 37.7157555 ], [ 20.8636197, 37.7153692 ], [ 20.8637639, 37.715902 ], [ 20.8640937, 37.7159917 ], [ 20.8635789, 37.7149395 ], [ 20.8645895, 37.7161543 ], [ 20.8642186, 37.7149095 ], [ 20.8650947, 37.7148715 ], [ 20.8589104, 37.7120399 ], [ 20.855634, 37.7088943 ], [ 20.8541472, 37.7061877 ], [ 20.8503648, 37.7046398 ], [ 20.8490951, 37.703064 ], [ 20.842578, 37.6992385 ], [ 20.8411648, 37.697322 ], [ 20.8401576, 37.6941729 ], [ 20.8398643, 37.688883 ], [ 20.8362105, 37.6850929 ], [ 20.8361586, 37.6825149 ], [ 20.8375708, 37.6824066 ], [ 20.8380566, 37.6817249 ], [ 20.8370351, 37.6824239 ], [ 20.8363983, 37.681715 ], [ 20.8402421, 37.6796183 ], [ 20.8422458, 37.6801631 ], [ 20.8447134, 37.679486 ], [ 20.8454199, 37.6775332 ], [ 20.8473133, 37.6763676 ], [ 20.8469076, 37.6746366 ], [ 20.8498446, 37.6724408 ], [ 20.8500929, 37.6705964 ], [ 20.8537097, 37.6690107 ], [ 20.8567675, 37.6683599 ], [ 20.856576, 37.6669945 ], [ 20.8594917, 37.664026 ], [ 20.8592373, 37.6638885 ], [ 20.8590732, 37.6632639 ], [ 20.8592155, 37.6627012 ], [ 20.8603432, 37.6621372 ], [ 20.8585817, 37.6615427 ], [ 20.8591972, 37.6608769 ], [ 20.8566636, 37.6604199 ], [ 20.8594388, 37.6562165 ], [ 20.8569186, 37.6565082 ], [ 20.8562118, 37.6547807 ], [ 20.8571654, 37.6534967 ], [ 20.8535669, 37.6553425 ], [ 20.8499395, 37.6535661 ], [ 20.8502845, 37.651591 ], [ 20.8492544, 37.6506741 ], [ 20.8473177, 37.6510516 ], [ 20.8457945, 37.6525869 ], [ 20.844626, 37.6521469 ], [ 20.8449461, 37.6498629 ], [ 20.8441065, 37.6497709 ], [ 20.8456428, 37.647319 ], [ 20.8449888, 37.646647 ], [ 20.8427055, 37.6467794 ], [ 20.841325, 37.6480903 ], [ 20.8400521, 37.6476459 ], [ 20.8402583, 37.6482158 ], [ 20.8389804, 37.6484284 ], [ 20.83698, 37.6471373 ], [ 20.8369313, 37.6445982 ], [ 20.8318518, 37.6458603 ], [ 20.8296968, 37.6442841 ], [ 20.8292507, 37.6462373 ], [ 20.8302355, 37.6466672 ], [ 20.8267622, 37.6473847 ], [ 20.8263826, 37.648109 ], [ 20.827138, 37.6492486 ], [ 20.8262121, 37.6499838 ], [ 20.8214609, 37.6508734 ], [ 20.8164946, 37.6497251 ], [ 20.8122342, 37.6532701 ], [ 20.8106248, 37.6536402 ], [ 20.8095042, 37.652976 ], [ 20.808139, 37.6538404 ], [ 20.8050204, 37.653931 ], [ 20.802899, 37.656351 ], [ 20.805826, 37.6565737 ], [ 20.8070063, 37.6584751 ], [ 20.80641, 37.6604114 ], [ 20.8023907, 37.6608013 ], [ 20.8007278, 37.6637359 ], [ 20.8022511, 37.6651296 ], [ 20.8018096, 37.6661794 ], [ 20.802958, 37.6682161 ], [ 20.8021678, 37.6700039 ], [ 20.8004199, 37.6706337 ], [ 20.7988736, 37.6700128 ], [ 20.7974061, 37.6714123 ], [ 20.7939221, 37.6708727 ], [ 20.7947966, 37.6715326 ], [ 20.7942545, 37.6725029 ], [ 20.7918738, 37.6738335 ], [ 20.7909226, 37.6740771 ], [ 20.7856135, 37.6735858 ], [ 20.7852862, 37.6749974 ], [ 20.784317, 37.6748678 ], [ 20.7847989, 37.6756393 ], [ 20.7824066, 37.6778281 ], [ 20.7824113, 37.6794134 ], [ 20.7802406, 37.6798894 ], [ 20.7793701, 37.6812623 ], [ 20.777712, 37.6819573 ], [ 20.7770304, 37.6839225 ], [ 20.7741326, 37.685206 ], [ 20.7707507, 37.6843773 ], [ 20.771123, 37.6837581 ], [ 20.7702615, 37.6841328 ], [ 20.7711479, 37.686167 ], [ 20.7706389, 37.6865511 ], [ 20.7720301, 37.6871933 ], [ 20.7708294, 37.6875195 ], [ 20.7696165, 37.6907222 ], [ 20.7644893, 37.693942 ], [ 20.7628708, 37.6967492 ], [ 20.7591147, 37.6981278 ], [ 20.7594762, 37.6988309 ], [ 20.7586735, 37.7016108 ], [ 20.7592028, 37.7022009 ], [ 20.7572886, 37.7042528 ], [ 20.7602388, 37.7062097 ], [ 20.758837, 37.7067117 ], [ 20.7587023, 37.7081507 ], [ 20.7555338, 37.708804 ], [ 20.7531803, 37.7082012 ], [ 20.7523543, 37.7120377 ], [ 20.7503057, 37.7117483 ], [ 20.7493967, 37.7128491 ], [ 20.7484851, 37.7127047 ], [ 20.7477143, 37.7148397 ], [ 20.7455947, 37.7148613 ], [ 20.7450266, 37.7125735 ], [ 20.7427084, 37.7142875 ], [ 20.7420562, 37.7125957 ], [ 20.7410298, 37.714119 ], [ 20.7400704, 37.7122849 ], [ 20.7397985, 37.7153908 ], [ 20.738578, 37.7154918 ], [ 20.7371612, 37.7171387 ], [ 20.7384668, 37.7189021 ], [ 20.735547, 37.7206906 ], [ 20.7328677, 37.7197392 ], [ 20.7327729, 37.7167872 ], [ 20.7313363, 37.7172336 ], [ 20.728308, 37.7164591 ], [ 20.7266844, 37.7169507 ], [ 20.7299965, 37.71733 ], [ 20.7285618, 37.7176397 ], [ 20.728523, 37.7184094 ], [ 20.7270192, 37.7178982 ], [ 20.7255536, 37.7186712 ], [ 20.7287209, 37.7206133 ], [ 20.7272271, 37.7208628 ], [ 20.7278433, 37.7221834 ], [ 20.7272247, 37.7223262 ], [ 20.7243736, 37.7212181 ], [ 20.7243183, 37.7232783 ], [ 20.722263, 37.7219484 ], [ 20.7221045, 37.7225458 ], [ 20.7227541, 37.7224644 ], [ 20.7220059, 37.7227511 ], [ 20.7214612, 37.7221196 ], [ 20.7203125, 37.7235526 ], [ 20.7194715, 37.7230491 ], [ 20.7188123, 37.7236665 ], [ 20.7179383, 37.7232651 ], [ 20.7181068, 37.7224344 ], [ 20.7138611, 37.7247475 ], [ 20.7116962, 37.7248882 ], [ 20.7103267, 37.7271518 ], [ 20.7109885, 37.7287063 ], [ 20.7092242, 37.7280706 ], [ 20.7041951, 37.7337661 ], [ 20.7012758, 37.735751 ], [ 20.7006581, 37.7372252 ], [ 20.7021379, 37.7384233 ], [ 20.7007448, 37.7379195 ], [ 20.7020695, 37.738954 ], [ 20.7013872, 37.740149 ], [ 20.7009893, 37.7388441 ], [ 20.6990555, 37.7399284 ], [ 20.6982056, 37.7394671 ], [ 20.6964272, 37.7414437 ], [ 20.6943285, 37.7422493 ], [ 20.6946063, 37.7428133 ], [ 20.6924378, 37.7437758 ], [ 20.6921262, 37.7445431 ], [ 20.6931268, 37.7449291 ], [ 20.6920827, 37.7458402 ], [ 20.6922703, 37.7466749 ], [ 20.6944503, 37.7475903 ], [ 20.6970813, 37.7504976 ], [ 20.6951846, 37.7518377 ], [ 20.6967828, 37.7530077 ], [ 20.693089, 37.7531105 ], [ 20.6908744, 37.7545298 ], [ 20.6916427, 37.7558298 ], [ 20.6936046, 37.7561037 ], [ 20.6943685, 37.7572765 ], [ 20.6964663, 37.7579209 ], [ 20.6967279, 37.760072 ], [ 20.6976404, 37.7610982 ], [ 20.6961678, 37.7621232 ], [ 20.6896306, 37.7622566 ], [ 20.6871314, 37.7637096 ], [ 20.6858396, 37.762523 ], [ 20.6840656, 37.7624647 ], [ 20.6844889, 37.7639792 ], [ 20.6842502, 37.7643588 ], [ 20.6821694, 37.7633397 ], [ 20.6811526, 37.7643992 ], [ 20.6801845, 37.7634816 ], [ 20.6798989, 37.7647496 ], [ 20.6763568, 37.7659413 ], [ 20.6768583, 37.766677 ], [ 20.6737514, 37.7665724 ], [ 20.6730466, 37.7672158 ], [ 20.6732824, 37.7693482 ], [ 20.6724949, 37.7695276 ], [ 20.6751323, 37.7701787 ], [ 20.6758574, 37.7714857 ], [ 20.6783687, 37.7730226 ], [ 20.6784374, 37.774221 ], [ 20.6717904, 37.7739467 ], [ 20.6702047, 37.7762537 ], [ 20.6737183, 37.7771717 ], [ 20.6711139, 37.7786519 ], [ 20.6751539, 37.7791578 ], [ 20.6760815, 37.7805987 ], [ 20.6753682, 37.7818612 ], [ 20.6768886, 37.7827126 ], [ 20.6792741, 37.7820779 ], [ 20.6804782, 37.7825771 ], [ 20.6807598, 37.783705 ], [ 20.6790021, 37.7862958 ], [ 20.6794363, 37.7868319 ], [ 20.6778975, 37.7864433 ], [ 20.6752087, 37.7872591 ], [ 20.6755856, 37.7881589 ], [ 20.6787542, 37.7883019 ], [ 20.6786865, 37.7906397 ], [ 20.6719728, 37.7893623 ], [ 20.6736335, 37.7923429 ], [ 20.6678544, 37.7894981 ], [ 20.6673635, 37.7909087 ], [ 20.6661477, 37.7910937 ], [ 20.6658297, 37.7929244 ], [ 20.6614303, 37.7914947 ], [ 20.6598571, 37.7926252 ], [ 20.6570858, 37.7923447 ], [ 20.6559278, 37.7937463 ], [ 20.6529351, 37.7934949 ], [ 20.6499744, 37.796019 ], [ 20.648288, 37.795846 ], [ 20.6467225, 37.7973611 ], [ 20.6490581, 37.799467 ], [ 20.6505226, 37.799169 ], [ 20.6499611, 37.8007543 ], [ 20.6508816, 37.8011115 ], [ 20.6493272, 37.8019619 ], [ 20.6439359, 37.8004833 ], [ 20.643322, 37.8015542 ], [ 20.6441316, 37.8016436 ], [ 20.6443664, 37.8019817 ], [ 20.6428008, 37.802139 ], [ 20.6433964, 37.8030812 ], [ 20.6419166, 37.8031926 ], [ 20.6395702, 37.805573 ], [ 20.6408864, 37.8070347 ], [ 20.6390894, 37.8065965 ], [ 20.6376561, 37.80777 ], [ 20.6386729, 37.8087066 ], [ 20.6385114, 37.8099185 ], [ 20.6396165, 37.8103708 ], [ 20.6398471, 37.8114896 ], [ 20.6391314, 37.8106353 ], [ 20.638127, 37.8108738 ], [ 20.6369604, 37.8094142 ], [ 20.6332349, 37.8117613 ], [ 20.6328574, 37.8130174 ], [ 20.6322807, 37.8126919 ], [ 20.6313007, 37.8136748 ], [ 20.6310415, 37.8129938 ], [ 20.6296201, 37.813921 ], [ 20.6303439, 37.8158865 ], [ 20.6334955, 37.8159773 ], [ 20.6328249, 37.8176437 ], [ 20.6337279, 37.8180571 ], [ 20.6327452, 37.8204437 ], [ 20.6346334, 37.8222595 ], [ 20.6322851, 37.8220177 ], [ 20.631991, 37.8228649 ], [ 20.6317623, 37.8228676 ], [ 20.6305686, 37.818934 ], [ 20.6294228, 37.8196789 ], [ 20.6273851, 37.8181302 ], [ 20.626899, 37.8198984 ], [ 20.6253925, 37.8213593 ], [ 20.627845, 37.8214123 ], [ 20.6279688, 37.8222355 ], [ 20.6255563, 37.8242556 ], [ 20.627319, 37.8242718 ], [ 20.6267887, 37.8251654 ], [ 20.6275972, 37.8252692 ], [ 20.6264456, 37.8266421 ], [ 20.627721, 37.8269288 ], [ 20.6267603, 37.8278919 ], [ 20.6273229, 37.8286954 ], [ 20.6303181, 37.8281203 ], [ 20.6310779, 37.8305179 ], [ 20.630835, 37.8336535 ], [ 20.6303451, 37.8351906 ], [ 20.6272145, 37.8374567 ], [ 20.6282193, 37.8374367 ], [ 20.6280507, 37.8389521 ], [ 20.6257549, 37.8397327 ], [ 20.6276343, 37.8405243 ], [ 20.6266028, 37.8423055 ], [ 20.6274829, 37.8423251 ], [ 20.6272668, 37.8439214 ], [ 20.6258386, 37.8446758 ], [ 20.6258455, 37.8451938 ], [ 20.6241774, 37.8466872 ], [ 20.6237865, 37.8467221 ], [ 20.622875, 37.8477078 ], [ 20.6198232, 37.8481561 ], [ 20.620379, 37.8485433 ], [ 20.6195394, 37.8493591 ], [ 20.6211906, 37.8492957 ], [ 20.6216058, 37.8506251 ], [ 20.6228679, 37.8503701 ], [ 20.6241154, 37.8513577 ], [ 20.6239703, 37.8522345 ], [ 20.6265403, 37.8525695 ], [ 20.6267817, 37.8564288 ], [ 20.6247378, 37.8576865 ], [ 20.6221192, 37.8572267 ], [ 20.6198403, 37.8582086 ], [ 20.6200034, 37.8595728 ], [ 20.6184257, 37.8619324 ] ] ], [ [ [ 20.8591134, 37.6569956 ], [ 20.859398, 37.6571296 ], [ 20.8594151, 37.6570025 ], [ 20.8591134, 37.6569956 ] ] ], [ [ [ 20.859076, 37.657117 ], [ 20.8590928, 37.6570854 ], [ 20.8590626, 37.6570955 ], [ 20.859076, 37.657117 ] ] ], [ [ [ 20.8594202, 37.6634251 ], [ 20.8594654, 37.6633779 ], [ 20.8594124, 37.6633919 ], [ 20.8594202, 37.6634251 ] ] ], [ [ [ 20.8594064, 37.6638235 ], [ 20.8593749, 37.6636921 ], [ 20.8593434, 37.6638023 ], [ 20.8594064, 37.6638235 ] ] ], [ [ [ 20.859512, 37.6639058 ], [ 20.8594537, 37.6638426 ], [ 20.8594289, 37.6638989 ], [ 20.859512, 37.6639058 ] ] ], [ [ [ 20.857085, 37.6680272 ], [ 20.8571741, 37.6679674 ], [ 20.8570511, 37.668007 ], [ 20.857085, 37.6680272 ] ] ], [ [ [ 20.8647151, 37.6865423 ], [ 20.8645859, 37.6863055 ], [ 20.8644464, 37.6865326 ], [ 20.8647151, 37.6865423 ] ] ], [ [ [ 20.9894928, 37.6990816 ], [ 20.9896189, 37.6989883 ], [ 20.989453, 37.6990148 ], [ 20.9894928, 37.6990816 ] ] ], [ [ [ 20.9899977, 37.7006873 ], [ 20.9899998, 37.7006195 ], [ 20.9899488, 37.700663 ], [ 20.9899977, 37.7006873 ] ] ], [ [ [ 20.9903307, 37.7008811 ], [ 20.9902898, 37.7008084 ], [ 20.9902563, 37.7008492 ], [ 20.9903307, 37.7008811 ] ] ], [ [ [ 20.9940379, 37.7169699 ], [ 20.9941638, 37.7169463 ], [ 20.9939926, 37.7169158 ], [ 20.9940379, 37.7169699 ] ] ], [ [ [ 20.9940278, 37.7170273 ], [ 20.9940694, 37.7169842 ], [ 20.994002, 37.716998 ], [ 20.9940278, 37.7170273 ] ] ], [ [ [ 20.9941116, 37.7172566 ], [ 20.9940442, 37.7172046 ], [ 20.9940406, 37.7172515 ], [ 20.9941116, 37.7172566 ] ] ], [ [ [ 20.9874274, 37.730049 ], [ 20.9874898, 37.730014 ], [ 20.9874246, 37.730001 ], [ 20.9874274, 37.730049 ] ] ], [ [ [ 20.9863338, 37.7303915 ], [ 20.9863269, 37.7303779 ], [ 20.9863191, 37.7303856 ], [ 20.9863338, 37.7303915 ] ] ], [ [ [ 20.9863667, 37.730423 ], [ 20.9863553, 37.7304047 ], [ 20.9863445, 37.7304209 ], [ 20.9863667, 37.730423 ] ] ], [ [ [ 20.9863964, 37.7304642 ], [ 20.9864063, 37.7304231 ], [ 20.9863761, 37.7304441 ], [ 20.9863964, 37.7304642 ] ] ], [ [ [ 20.9855624, 37.7307055 ], [ 20.9855413, 37.7307156 ], [ 20.9855608, 37.730718 ], [ 20.9855624, 37.7307055 ] ] ], [ [ [ 20.9854656, 37.7307235 ], [ 20.9854705, 37.7307351 ], [ 20.9854776, 37.7307263 ], [ 20.9854656, 37.7307235 ] ] ], [ [ [ 20.9854439, 37.7307511 ], [ 20.9854367, 37.7307479 ], [ 20.9854359, 37.730751 ], [ 20.9854439, 37.7307511 ] ] ], [ [ [ 20.9854239, 37.7307534 ], [ 20.985417, 37.7307503 ], [ 20.9854174, 37.7307549 ], [ 20.9854239, 37.7307534 ] ] ], [ [ [ 20.9854004, 37.7307517 ], [ 20.9854009, 37.7307589 ], [ 20.9854059, 37.7307543 ], [ 20.9854004, 37.7307517 ] ] ], [ [ [ 20.9854112, 37.7307586 ], [ 20.9854091, 37.7307689 ], [ 20.9854164, 37.7307627 ], [ 20.9854112, 37.7307586 ] ] ] ] } }
]
}
